{"type": "FeatureCollection", "features": [{"type": "Feature", "geometry": {"type": "Point", "coordinates": [9.17063, 45.422079]}, "properties": {"id": 1483978639, "feat_type": "node", "quality_categories": "improper_geometries, missing_tags", "issue_ids": "[0, 1]", "osm_url": "https://www.openstreetmap.org/node/1483978639", "josm_url": "http://127.0.0.1:8111/load_object?new_layer=false&objects=n1483978639", "id_url": "https://www.openstreetmap.org/edit?editor=id&node=1483978639#map=20/45.422079/9.17063"}}, {"type": "Feature", "geometry": {"type": "Point", "coordinates": [9.2004092, 45.4231735]}, "properties": {"id": 10135351338, "feat_type": "node", "quality_categories": "improper_geometries, missing_tags", "issue_ids": "[0, 1]", "osm_url": "https://www.openstreetmap.org/node/10135351338", "josm_url": "http://127.0.0.1:8111/load_object?new_layer=false&objects=n10135351338", "id_url": "https://www.openstreetmap.org/edit?editor=id&node=10135351338#map=20/45.4231735/9.2004092"}}, {"type": "Feature", "geometry": {"type": "Point", "coordinates": [9.1769797, 45.4222073]}, "properties": {"id": 10154784107, "feat_type": "node", "quality_categories": "improper_geometries, missing_tags", "issue_ids": "[0, 1]", "osm_url": "https://www.openstreetmap.org/node/10154784107", "josm_url": "http://127.0.0.1:8111/load_object?new_layer=false&objects=n10154784107", "id_url": "https://www.openstreetmap.org/edit?editor=id&node=10154784107#map=20/45.4222073/9.1769797"}}, {"type": "Feature", "geometry": {"type": "Point", "coordinates": [9.1772854, 45.4222135]}, "properties": {"id": 10154945957, "feat_type": "node", "quality_categories": "improper_geometries, missing_tags", "issue_ids": "[0, 1]", "osm_url": "https://www.openstreetmap.org/node/10154945957", "josm_url": "http://127.0.0.1:8111/load_object?new_layer=false&objects=n10154945957", "id_url": "https://www.openstreetmap.org/edit?editor=id&node=10154945957#map=20/45.4222135/9.1772854"}}, {"type": "Feature", "geometry": {"type": "Point", "coordinates": [9.254745610022773, 45.4468318]}, "properties": {"id": 257167910, "feat_type": "way", "quality_categories": "improper_geometries, uncanny_keys", "issue_ids": "[2, 1]", "osm_url": "https://www.openstreetmap.org/way/257167910", "josm_url": "http://127.0.0.1:8111/load_object?new_layer=false&objects=w257167910", "id_url": "https://www.openstreetmap.org/edit?editor=id&way=257167910#map=20/45.4468318/9.254745610022773"}}, {"type": "Feature", "geometry": {"type": "Point", "coordinates": [9.254799916100499, 45.44676075]}, "properties": {"id": 257167912, "feat_type": "way", "quality_categories": "improper_geometries, uncanny_keys", "issue_ids": "[2, 1]", "osm_url": "https://www.openstreetmap.org/way/257167912", "josm_url": "http://127.0.0.1:8111/load_object?new_layer=false&objects=w257167912", "id_url": "https://www.openstreetmap.org/edit?editor=id&way=257167912#map=20/45.44676075/9.254799916100499"}}, {"type": "Feature", "geometry": {"type": "Point", "coordinates": [9.1967673, 45.4187979]}, "properties": {"id": 2711495015, "feat_type": "node", "quality_categories": "improper_geometries", "issue_ids": "[1]", "osm_url": "https://www.openstreetmap.org/node/2711495015", "josm_url": "http://127.0.0.1:8111/load_object?new_layer=false&objects=n2711495015", "id_url": "https://www.openstreetmap.org/edit?editor=id&node=2711495015#map=20/45.4187979/9.1967673"}}, {"type": "Feature", "geometry": {"type": "Point", "coordinates": [9.25920713495359, 45.506806499999996]}, "properties": {"id": 522479201, "feat_type": "way", "quality_categories": "improper_geometries", "issue_ids": "[1]", "osm_url": "https://www.openstreetmap.org/way/522479201", "josm_url": "http://127.0.0.1:8111/load_object?new_layer=false&objects=w522479201", "id_url": "https://www.openstreetmap.org/edit?editor=id&way=522479201#map=20/45.506806499999996/9.25920713495359"}}, {"type": "Feature", "geometry": {"type": "Point", "coordinates": [9.189210949385082, 45.479993050000004]}, "properties": {"id": 1029619648, "feat_type": "way", "quality_categories": "improper_geometries", "issue_ids": "[1]", "osm_url": "https://www.openstreetmap.org/way/1029619648", "josm_url": "http://127.0.0.1:8111/load_object?new_layer=false&objects=w1029619648", "id_url": "https://www.openstreetmap.org/edit?editor=id&way=1029619648#map=20/45.479993050000004/9.189210949385082"}}]}