{"type": "FeatureCollection", "features": [{"type": "Feature", "geometry": {"type": "Point", "coordinates": [9.1695557, 45.475961]}, "properties": {"id": 755861239, "feat_type": "way", "quality_categories": "improper_keys, missing_tags", "issue_ids": "[0, 1]", "osm_url": "https://www.openstreetmap.org/way/755861239", "josm_url": "http://127.0.0.1:8111/load_object?new_layer=false&objects=w755861239", "id_url": "https://www.openstreetmap.org/edit?editor=id&way=755861239#map=20/45.475961/9.1695557"}}, {"type": "Feature", "geometry": {"type": "Point", "coordinates": [9.1694971, 45.4759623]}, "properties": {"id": 755861240, "feat_type": "way", "quality_categories": "improper_keys, missing_tags", "issue_ids": "[0, 1]", "osm_url": "https://www.openstreetmap.org/way/755861240", "josm_url": "http://127.0.0.1:8111/load_object?new_layer=false&objects=w755861240", "id_url": "https://www.openstreetmap.org/edit?editor=id&way=755861240#map=20/45.4759623/9.1694971"}}, {"type": "Feature", "geometry": {"type": "Point", "coordinates": [9.1444648, 45.4784939]}, "properties": {"id": 982015591, "feat_type": "way", "quality_categories": "improper_keys", "issue_ids": "[0]", "osm_url": "https://www.openstreetmap.org/way/982015591", "josm_url": "http://127.0.0.1:8111/load_object?new_layer=false&objects=w982015591", "id_url": "https://www.openstreetmap.org/edit?editor=id&way=982015591#map=20/45.4784939/9.1444648"}}, {"type": "Feature", "geometry": {"type": "Point", "coordinates": [9.1337469, 45.4697881]}, "properties": {"id": 1031311514, "feat_type": "way", "quality_categories": "improper_keys", "issue_ids": "[0]", "osm_url": "https://www.openstreetmap.org/way/1031311514", "josm_url": "http://127.0.0.1:8111/load_object?new_layer=false&objects=w1031311514", "id_url": "https://www.openstreetmap.org/edit?editor=id&way=1031311514#map=20/45.4697881/9.1337469"}}, {"type": "Feature", "geometry": {"type": "Point", "coordinates": [9.2104119, 45.4887019]}, "properties": {"id": 1031696467, "feat_type": "way", "quality_categories": "improper_keys, missing_tags", "issue_ids": "[2, 1]", "osm_url": "https://www.openstreetmap.org/way/1031696467", "josm_url": "http://127.0.0.1:8111/load_object?new_layer=false&objects=w1031696467", "id_url": "https://www.openstreetmap.org/edit?editor=id&way=1031696467#map=20/45.4887019/9.2104119"}}, {"type": "Feature", "geometry": {"type": "Point", "coordinates": [9.2099766, 45.4267461]}, "properties": {"id": 1185999075, "feat_type": "way", "quality_categories": "improper_keys", "issue_ids": "[3]", "osm_url": "https://www.openstreetmap.org/way/1185999075", "josm_url": "http://127.0.0.1:8111/load_object?new_layer=false&objects=w1185999075", "id_url": "https://www.openstreetmap.org/edit?editor=id&way=1185999075#map=20/45.4267461/9.2099766"}}, {"type": "Feature", "geometry": {"type": "Point", "coordinates": [9.2619793, 45.5126515]}, "properties": {"id": 1448021677, "feat_type": "way", "quality_categories": "improper_keys", "issue_ids": "[2]", "osm_url": "https://www.openstreetmap.org/way/1448021677", "josm_url": "http://127.0.0.1:8111/load_object?new_layer=false&objects=w1448021677", "id_url": "https://www.openstreetmap.org/edit?editor=id&way=1448021677#map=20/45.5126515/9.2619793"}}, {"type": "Feature", "geometry": {"type": "Point", "coordinates": [9.2238362, 45.475032]}, "properties": {"id": 1448065050, "feat_type": "way", "quality_categories": "improper_keys", "issue_ids": "[0]", "osm_url": "https://www.openstreetmap.org/way/1448065050", "josm_url": "http://127.0.0.1:8111/load_object?new_layer=false&objects=w1448065050", "id_url": "https://www.openstreetmap.org/edit?editor=id&way=1448065050#map=20/45.475032/9.2238362"}}, {"type": "Feature", "geometry": {"type": "Point", "coordinates": [9.2238258, 45.4757528]}, "properties": {"id": 1448067175, "feat_type": "way", "quality_categories": "improper_keys", "issue_ids": "[0]", "osm_url": "https://www.openstreetmap.org/way/1448067175", "josm_url": "http://127.0.0.1:8111/load_object?new_layer=false&objects=w1448067175", "id_url": "https://www.openstreetmap.org/edit?editor=id&way=1448067175#map=20/45.4757528/9.2238258"}}, {"type": "Feature", "geometry": {"type": "Point", "coordinates": [9.1373245, 45.4872943]}, "properties": {"id": 1546922622, "feat_type": "way", "quality_categories": "improper_keys", "issue_ids": "[0]", "osm_url": "https://www.openstreetmap.org/way/1546922622", "josm_url": "http://127.0.0.1:8111/load_object?new_layer=false&objects=w1546922622", "id_url": "https://www.openstreetmap.org/edit?editor=id&way=1546922622#map=20/45.4872943/9.1373245"}}]}