{"type": "FeatureCollection", "features": [{"type": "Feature", "geometry": {"type": "Point", "coordinates": [-49.3049969, -25.4022753]}, "properties": {"id": 46736210, "feat_type": "way", "quality_categories": "wrong_mispelled_or_unlisted_values", "issue_ids": "[0]", "osm_url": "https://www.openstreetmap.org/way/46736210", "josm_url": "http://127.0.0.1:8111/load_object?new_layer=false&objects=w46736210", "id_url": "https://www.openstreetmap.org/edit?editor=id&way=46736210#map=20/-25.4022753/-49.3049969"}}, {"type": "Feature", "geometry": {"type": "Point", "coordinates": [-49.3061048, -25.3916207]}, "properties": {"id": 543881321, "feat_type": "way", "quality_categories": "older_than_five_years, wrong_mispelled_or_unlisted_values", "issue_ids": "[1, 2]", "osm_url": "https://www.openstreetmap.org/way/543881321", "josm_url": "http://127.0.0.1:8111/load_object?new_layer=false&objects=w543881321", "id_url": "https://www.openstreetmap.org/edit?editor=id&way=543881321#map=20/-25.3916207/-49.3061048"}}, {"type": "Feature", "geometry": {"type": "Point", "coordinates": [-49.3049699, -25.4023564]}, "properties": {"id": 543883295, "feat_type": "way", "quality_categories": "wrong_mispelled_or_unlisted_values", "issue_ids": "[0]", "osm_url": "https://www.openstreetmap.org/way/543883295", "josm_url": "http://127.0.0.1:8111/load_object?new_layer=false&objects=w543883295", "id_url": "https://www.openstreetmap.org/edit?editor=id&way=543883295#map=20/-25.4023564/-49.3049699"}}, {"type": "Feature", "geometry": {"type": "Point", "coordinates": [-49.3048125, -25.4023049]}, "properties": {"id": 543883296, "feat_type": "way", "quality_categories": "wrong_mispelled_or_unlisted_values", "issue_ids": "[0]", "osm_url": "https://www.openstreetmap.org/way/543883296", "josm_url": "http://127.0.0.1:8111/load_object?new_layer=false&objects=w543883296", "id_url": "https://www.openstreetmap.org/edit?editor=id&way=543883296#map=20/-25.4023049/-49.3048125"}}, {"type": "Feature", "geometry": {"type": "Point", "coordinates": [-49.3047308, -25.4021545]}, "properties": {"id": 543883298, "feat_type": "way", "quality_categories": "wrong_mispelled_or_unlisted_values", "issue_ids": "[0]", "osm_url": "https://www.openstreetmap.org/way/543883298", "josm_url": "http://127.0.0.1:8111/load_object?new_layer=false&objects=w543883298", "id_url": "https://www.openstreetmap.org/edit?editor=id&way=543883298#map=20/-25.4021545/-49.3047308"}}, {"type": "Feature", "geometry": {"type": "Point", "coordinates": [-49.3045898, -25.4021286]}, "properties": {"id": 543883299, "feat_type": "way", "quality_categories": "wrong_mispelled_or_unlisted_values", "issue_ids": "[0]", "osm_url": "https://www.openstreetmap.org/way/543883299", "josm_url": "http://127.0.0.1:8111/load_object?new_layer=false&objects=w543883299", "id_url": "https://www.openstreetmap.org/edit?editor=id&way=543883299#map=20/-25.4021286/-49.3045898"}}, {"type": "Feature", "geometry": {"type": "Point", "coordinates": [-49.3085092, -25.4268893]}, "properties": {"id": 544002453, "feat_type": "way", "quality_categories": "older_than_five_years, wrong_mispelled_or_unlisted_values", "issue_ids": "[0, 3]", "osm_url": "https://www.openstreetmap.org/way/544002453", "josm_url": "http://127.0.0.1:8111/load_object?new_layer=false&objects=w544002453", "id_url": "https://www.openstreetmap.org/edit?editor=id&way=544002453#map=20/-25.4268893/-49.3085092"}}, {"type": "Feature", "geometry": {"type": "Point", "coordinates": [-49.2297208, -25.4718268]}, "properties": {"id": 958628466, "feat_type": "way", "quality_categories": "wrong_mispelled_or_unlisted_values", "issue_ids": "[4]", "osm_url": "https://www.openstreetmap.org/way/958628466", "josm_url": "http://127.0.0.1:8111/load_object?new_layer=false&objects=w958628466", "id_url": "https://www.openstreetmap.org/edit?editor=id&way=958628466#map=20/-25.4718268/-49.2297208"}}, {"type": "Feature", "geometry": {"type": "Point", "coordinates": [-49.2261717, -25.4732828]}, "properties": {"id": 961136437, "feat_type": "way", "quality_categories": "older_than_five_years, wrong_mispelled_or_unlisted_values", "issue_ids": "[5, 6]", "osm_url": "https://www.openstreetmap.org/way/961136437", "josm_url": "http://127.0.0.1:8111/load_object?new_layer=false&objects=w961136437", "id_url": "https://www.openstreetmap.org/edit?editor=id&way=961136437#map=20/-25.4732828/-49.2261717"}}, {"type": "Feature", "geometry": {"type": "Point", "coordinates": [-49.2267462, -25.4733839]}, "properties": {"id": 961136442, "feat_type": "way", "quality_categories": "older_than_five_years, wrong_mispelled_or_unlisted_values", "issue_ids": "[5, 6]", "osm_url": "https://www.openstreetmap.org/way/961136442", "josm_url": "http://127.0.0.1:8111/load_object?new_layer=false&objects=w961136442", "id_url": "https://www.openstreetmap.org/edit?editor=id&way=961136442#map=20/-25.4733839/-49.2267462"}}, {"type": "Feature", "geometry": {"type": "Point", "coordinates": [-49.2318607, -25.4618267]}, "properties": {"id": 985652905, "feat_type": "way", "quality_categories": "wrong_mispelled_or_unlisted_values", "issue_ids": "[7]", "osm_url": "https://www.openstreetmap.org/way/985652905", "josm_url": "http://127.0.0.1:8111/load_object?new_layer=false&objects=w985652905", "id_url": "https://www.openstreetmap.org/edit?editor=id&way=985652905#map=20/-25.4618267/-49.2318607"}}, {"type": "Feature", "geometry": {"type": "Point", "coordinates": [-49.2318607, -25.4618267]}, "properties": {"id": 985652906, "feat_type": "way", "quality_categories": "wrong_mispelled_or_unlisted_values", "issue_ids": "[7]", "osm_url": "https://www.openstreetmap.org/way/985652906", "josm_url": "http://127.0.0.1:8111/load_object?new_layer=false&objects=w985652906", "id_url": "https://www.openstreetmap.org/edit?editor=id&way=985652906#map=20/-25.4618267/-49.2318607"}}, {"type": "Feature", "geometry": {"type": "Point", "coordinates": [-49.2316339, -25.4614105]}, "properties": {"id": 985652907, "feat_type": "way", "quality_categories": "wrong_mispelled_or_unlisted_values", "issue_ids": "[7]", "osm_url": "https://www.openstreetmap.org/way/985652907", "josm_url": "http://127.0.0.1:8111/load_object?new_layer=false&objects=w985652907", "id_url": "https://www.openstreetmap.org/edit?editor=id&way=985652907#map=20/-25.4614105/-49.2316339"}}, {"type": "Feature", "geometry": {"type": "Point", "coordinates": [-49.2335346, -25.454137]}, "properties": {"id": 1042695846, "feat_type": "way", "quality_categories": "wrong_mispelled_or_unlisted_values", "issue_ids": "[8]", "osm_url": "https://www.openstreetmap.org/way/1042695846", "josm_url": "http://127.0.0.1:8111/load_object?new_layer=false&objects=w1042695846", "id_url": "https://www.openstreetmap.org/edit?editor=id&way=1042695846#map=20/-25.454137/-49.2335346"}}, {"type": "Feature", "geometry": {"type": "Point", "coordinates": [-49.232838, -25.4487028]}, "properties": {"id": 1051403775, "feat_type": "way", "quality_categories": "improper_keys, wrong_mispelled_or_unlisted_values", "issue_ids": "[9, 7]", "osm_url": "https://www.openstreetmap.org/way/1051403775", "josm_url": "http://127.0.0.1:8111/load_object?new_layer=false&objects=w1051403775", "id_url": "https://www.openstreetmap.org/edit?editor=id&way=1051403775#map=20/-25.4487028/-49.232838"}}, {"type": "Feature", "geometry": {"type": "Point", "coordinates": [-49.2232996, -25.4549853]}, "properties": {"id": 1064650923, "feat_type": "way", "quality_categories": "wrong_mispelled_or_unlisted_values", "issue_ids": "[10]", "osm_url": "https://www.openstreetmap.org/way/1064650923", "josm_url": "http://127.0.0.1:8111/load_object?new_layer=false&objects=w1064650923", "id_url": "https://www.openstreetmap.org/edit?editor=id&way=1064650923#map=20/-25.4549853/-49.2232996"}}, {"type": "Feature", "geometry": {"type": "Point", "coordinates": [-49.2262463, -25.4542452]}, "properties": {"id": 1065936128, "feat_type": "way", "quality_categories": "wrong_mispelled_or_unlisted_values", "issue_ids": "[11]", "osm_url": "https://www.openstreetmap.org/way/1065936128", "josm_url": "http://127.0.0.1:8111/load_object?new_layer=false&objects=w1065936128", "id_url": "https://www.openstreetmap.org/edit?editor=id&way=1065936128#map=20/-25.4542452/-49.2262463"}}, {"type": "Feature", "geometry": {"type": "Point", "coordinates": [-49.225993, -25.4541643]}, "properties": {"id": 1065936130, "feat_type": "way", "quality_categories": "wrong_mispelled_or_unlisted_values", "issue_ids": "[7]", "osm_url": "https://www.openstreetmap.org/way/1065936130", "josm_url": "http://127.0.0.1:8111/load_object?new_layer=false&objects=w1065936130", "id_url": "https://www.openstreetmap.org/edit?editor=id&way=1065936130#map=20/-25.4541643/-49.225993"}}, {"type": "Feature", "geometry": {"type": "Point", "coordinates": [-49.2258215, -25.45402]}, "properties": {"id": 1065936131, "feat_type": "way", "quality_categories": "wrong_mispelled_or_unlisted_values", "issue_ids": "[11]", "osm_url": "https://www.openstreetmap.org/way/1065936131", "josm_url": "http://127.0.0.1:8111/load_object?new_layer=false&objects=w1065936131", "id_url": "https://www.openstreetmap.org/edit?editor=id&way=1065936131#map=20/-25.45402/-49.2258215"}}, {"type": "Feature", "geometry": {"type": "Point", "coordinates": [-49.2262261, -25.4541486]}, "properties": {"id": 1065936133, "feat_type": "way", "quality_categories": "wrong_mispelled_or_unlisted_values", "issue_ids": "[11]", "osm_url": "https://www.openstreetmap.org/way/1065936133", "josm_url": "http://127.0.0.1:8111/load_object?new_layer=false&objects=w1065936133", "id_url": "https://www.openstreetmap.org/edit?editor=id&way=1065936133#map=20/-25.4541486/-49.2262261"}}, {"type": "Feature", "geometry": {"type": "Point", "coordinates": [-49.2265586, -25.4542521]}, "properties": {"id": 1065936135, "feat_type": "way", "quality_categories": "wrong_mispelled_or_unlisted_values", "issue_ids": "[11]", "osm_url": "https://www.openstreetmap.org/way/1065936135", "josm_url": "http://127.0.0.1:8111/load_object?new_layer=false&objects=w1065936135", "id_url": "https://www.openstreetmap.org/edit?editor=id&way=1065936135#map=20/-25.4542521/-49.2265586"}}, {"type": "Feature", "geometry": {"type": "Point", "coordinates": [-49.2265884, -25.4536479]}, "properties": {"id": 1065936139, "feat_type": "way", "quality_categories": "wrong_mispelled_or_unlisted_values", "issue_ids": "[11]", "osm_url": "https://www.openstreetmap.org/way/1065936139", "josm_url": "http://127.0.0.1:8111/load_object?new_layer=false&objects=w1065936139", "id_url": "https://www.openstreetmap.org/edit?editor=id&way=1065936139#map=20/-25.4536479/-49.2265884"}}, {"type": "Feature", "geometry": {"type": "Point", "coordinates": [-49.2268383, -25.4537285]}, "properties": {"id": 1065936141, "feat_type": "way", "quality_categories": "wrong_mispelled_or_unlisted_values", "issue_ids": "[11]", "osm_url": "https://www.openstreetmap.org/way/1065936141", "josm_url": "http://127.0.0.1:8111/load_object?new_layer=false&objects=w1065936141", "id_url": "https://www.openstreetmap.org/edit?editor=id&way=1065936141#map=20/-25.4537285/-49.2268383"}}, {"type": "Feature", "geometry": {"type": "Point", "coordinates": [-49.2396591, -25.4593874]}, "properties": {"id": 1068081323, "feat_type": "way", "quality_categories": "wrong_mispelled_or_unlisted_values", "issue_ids": "[5]", "osm_url": "https://www.openstreetmap.org/way/1068081323", "josm_url": "http://127.0.0.1:8111/load_object?new_layer=false&objects=w1068081323", "id_url": "https://www.openstreetmap.org/edit?editor=id&way=1068081323#map=20/-25.4593874/-49.2396591"}}, {"type": "Feature", "geometry": {"type": "Point", "coordinates": [-49.2399569, -25.4588575]}, "properties": {"id": 1068081328, "feat_type": "way", "quality_categories": "wrong_mispelled_or_unlisted_values", "issue_ids": "[5]", "osm_url": "https://www.openstreetmap.org/way/1068081328", "josm_url": "http://127.0.0.1:8111/load_object?new_layer=false&objects=w1068081328", "id_url": "https://www.openstreetmap.org/edit?editor=id&way=1068081328#map=20/-25.4588575/-49.2399569"}}, {"type": "Feature", "geometry": {"type": "Point", "coordinates": [-49.2251339, -25.4554036]}, "properties": {"id": 1069598569, "feat_type": "way", "quality_categories": "wrong_mispelled_or_unlisted_values", "issue_ids": "[7]", "osm_url": "https://www.openstreetmap.org/way/1069598569", "josm_url": "http://127.0.0.1:8111/load_object?new_layer=false&objects=w1069598569", "id_url": "https://www.openstreetmap.org/edit?editor=id&way=1069598569#map=20/-25.4554036/-49.2251339"}}, {"type": "Feature", "geometry": {"type": "Point", "coordinates": [-49.2257285, -25.4544977]}, "properties": {"id": 1069598585, "feat_type": "way", "quality_categories": "wrong_mispelled_or_unlisted_values", "issue_ids": "[7]", "osm_url": "https://www.openstreetmap.org/way/1069598585", "josm_url": "http://127.0.0.1:8111/load_object?new_layer=false&objects=w1069598585", "id_url": "https://www.openstreetmap.org/edit?editor=id&way=1069598585#map=20/-25.4544977/-49.2257285"}}, {"type": "Feature", "geometry": {"type": "Point", "coordinates": [-49.2254527, -25.4545987]}, "properties": {"id": 1069598587, "feat_type": "way", "quality_categories": "wrong_mispelled_or_unlisted_values", "issue_ids": "[7]", "osm_url": "https://www.openstreetmap.org/way/1069598587", "josm_url": "http://127.0.0.1:8111/load_object?new_layer=false&objects=w1069598587", "id_url": "https://www.openstreetmap.org/edit?editor=id&way=1069598587#map=20/-25.4545987/-49.2254527"}}, {"type": "Feature", "geometry": {"type": "Point", "coordinates": [-49.2253723, -25.4548033]}, "properties": {"id": 1069598589, "feat_type": "way", "quality_categories": "wrong_mispelled_or_unlisted_values", "issue_ids": "[7]", "osm_url": "https://www.openstreetmap.org/way/1069598589", "josm_url": "http://127.0.0.1:8111/load_object?new_layer=false&objects=w1069598589", "id_url": "https://www.openstreetmap.org/edit?editor=id&way=1069598589#map=20/-25.4548033/-49.2253723"}}, {"type": "Feature", "geometry": {"type": "Point", "coordinates": [-49.2253268, -25.4549147]}, "properties": {"id": 1069598591, "feat_type": "way", "quality_categories": "wrong_mispelled_or_unlisted_values", "issue_ids": "[7]", "osm_url": "https://www.openstreetmap.org/way/1069598591", "josm_url": "http://127.0.0.1:8111/load_object?new_layer=false&objects=w1069598591", "id_url": "https://www.openstreetmap.org/edit?editor=id&way=1069598591#map=20/-25.4549147/-49.2253268"}}, {"type": "Feature", "geometry": {"type": "Point", "coordinates": [-49.225256, -25.4550953]}, "properties": {"id": 1069598593, "feat_type": "way", "quality_categories": "wrong_mispelled_or_unlisted_values", "issue_ids": "[7]", "osm_url": "https://www.openstreetmap.org/way/1069598593", "josm_url": "http://127.0.0.1:8111/load_object?new_layer=false&objects=w1069598593", "id_url": "https://www.openstreetmap.org/edit?editor=id&way=1069598593#map=20/-25.4550953/-49.225256"}}, {"type": "Feature", "geometry": {"type": "Point", "coordinates": [-49.2250085, -25.4558543]}, "properties": {"id": 1069598595, "feat_type": "way", "quality_categories": "wrong_mispelled_or_unlisted_values", "issue_ids": "[7]", "osm_url": "https://www.openstreetmap.org/way/1069598595", "josm_url": "http://127.0.0.1:8111/load_object?new_layer=false&objects=w1069598595", "id_url": "https://www.openstreetmap.org/edit?editor=id&way=1069598595#map=20/-25.4558543/-49.2250085"}}, {"type": "Feature", "geometry": {"type": "Point", "coordinates": [-49.2262655, -25.45639]}, "properties": {"id": 1069794093, "feat_type": "way", "quality_categories": "wrong_mispelled_or_unlisted_values", "issue_ids": "[7]", "osm_url": "https://www.openstreetmap.org/way/1069794093", "josm_url": "http://127.0.0.1:8111/load_object?new_layer=false&objects=w1069794093", "id_url": "https://www.openstreetmap.org/edit?editor=id&way=1069794093#map=20/-25.45639/-49.2262655"}}, {"type": "Feature", "geometry": {"type": "Point", "coordinates": [-49.2268035, -25.4559487]}, "properties": {"id": 1069794097, "feat_type": "way", "quality_categories": "wrong_mispelled_or_unlisted_values", "issue_ids": "[7]", "osm_url": "https://www.openstreetmap.org/way/1069794097", "josm_url": "http://127.0.0.1:8111/load_object?new_layer=false&objects=w1069794097", "id_url": "https://www.openstreetmap.org/edit?editor=id&way=1069794097#map=20/-25.4559487/-49.2268035"}}, {"type": "Feature", "geometry": {"type": "Point", "coordinates": [-49.226492, -25.4553169]}, "properties": {"id": 1069794101, "feat_type": "way", "quality_categories": "wrong_mispelled_or_unlisted_values", "issue_ids": "[7]", "osm_url": "https://www.openstreetmap.org/way/1069794101", "josm_url": "http://127.0.0.1:8111/load_object?new_layer=false&objects=w1069794101", "id_url": "https://www.openstreetmap.org/edit?editor=id&way=1069794101#map=20/-25.4553169/-49.226492"}}, {"type": "Feature", "geometry": {"type": "Point", "coordinates": [-49.2263065, -25.4553632]}, "properties": {"id": 1069794102, "feat_type": "way", "quality_categories": "wrong_mispelled_or_unlisted_values", "issue_ids": "[7]", "osm_url": "https://www.openstreetmap.org/way/1069794102", "josm_url": "http://127.0.0.1:8111/load_object?new_layer=false&objects=w1069794102", "id_url": "https://www.openstreetmap.org/edit?editor=id&way=1069794102#map=20/-25.4553632/-49.2263065"}}, {"type": "Feature", "geometry": {"type": "Point", "coordinates": [-49.2262285, -25.4555782]}, "properties": {"id": 1069794103, "feat_type": "way", "quality_categories": "wrong_mispelled_or_unlisted_values", "issue_ids": "[7]", "osm_url": "https://www.openstreetmap.org/way/1069794103", "josm_url": "http://127.0.0.1:8111/load_object?new_layer=false&objects=w1069794103", "id_url": "https://www.openstreetmap.org/edit?editor=id&way=1069794103#map=20/-25.4555782/-49.2262285"}}, {"type": "Feature", "geometry": {"type": "Point", "coordinates": [-49.2260705, -25.4559432]}, "properties": {"id": 1069794106, "feat_type": "way", "quality_categories": "wrong_mispelled_or_unlisted_values", "issue_ids": "[7]", "osm_url": "https://www.openstreetmap.org/way/1069794106", "josm_url": "http://127.0.0.1:8111/load_object?new_layer=false&objects=w1069794106", "id_url": "https://www.openstreetmap.org/edit?editor=id&way=1069794106#map=20/-25.4559432/-49.2260705"}}, {"type": "Feature", "geometry": {"type": "Point", "coordinates": [-49.2431452, -25.4546948]}, "properties": {"id": 1069800457, "feat_type": "way", "quality_categories": "wrong_mispelled_or_unlisted_values", "issue_ids": "[8]", "osm_url": "https://www.openstreetmap.org/way/1069800457", "josm_url": "http://127.0.0.1:8111/load_object?new_layer=false&objects=w1069800457", "id_url": "https://www.openstreetmap.org/edit?editor=id&way=1069800457#map=20/-25.4546948/-49.2431452"}}, {"type": "Feature", "geometry": {"type": "Point", "coordinates": [-49.24351, -25.4543926]}, "properties": {"id": 1069800458, "feat_type": "way", "quality_categories": "wrong_mispelled_or_unlisted_values", "issue_ids": "[8]", "osm_url": "https://www.openstreetmap.org/way/1069800458", "josm_url": "http://127.0.0.1:8111/load_object?new_layer=false&objects=w1069800458", "id_url": "https://www.openstreetmap.org/edit?editor=id&way=1069800458#map=20/-25.4543926/-49.24351"}}, {"type": "Feature", "geometry": {"type": "Point", "coordinates": [-49.2429006, -25.4546445]}, "properties": {"id": 1069804009, "feat_type": "way", "quality_categories": "wrong_mispelled_or_unlisted_values", "issue_ids": "[8]", "osm_url": "https://www.openstreetmap.org/way/1069804009", "josm_url": "http://127.0.0.1:8111/load_object?new_layer=false&objects=w1069804009", "id_url": "https://www.openstreetmap.org/edit?editor=id&way=1069804009#map=20/-25.4546445/-49.2429006"}}, {"type": "Feature", "geometry": {"type": "Point", "coordinates": [-49.2429435, -25.4551678]}, "properties": {"id": 1069804010, "feat_type": "way", "quality_categories": "wrong_mispelled_or_unlisted_values", "issue_ids": "[8]", "osm_url": "https://www.openstreetmap.org/way/1069804010", "josm_url": "http://127.0.0.1:8111/load_object?new_layer=false&objects=w1069804010", "id_url": "https://www.openstreetmap.org/edit?editor=id&way=1069804010#map=20/-25.4551678/-49.2429435"}}, {"type": "Feature", "geometry": {"type": "Point", "coordinates": [-49.2378888, -25.4591934]}, "properties": {"id": 1070404336, "feat_type": "way", "quality_categories": "wrong_mispelled_or_unlisted_values", "issue_ids": "[12]", "osm_url": "https://www.openstreetmap.org/way/1070404336", "josm_url": "http://127.0.0.1:8111/load_object?new_layer=false&objects=w1070404336", "id_url": "https://www.openstreetmap.org/edit?editor=id&way=1070404336#map=20/-25.4591934/-49.2378888"}}, {"type": "Feature", "geometry": {"type": "Point", "coordinates": [-49.2419374, -25.4543445]}, "properties": {"id": 1070687538, "feat_type": "way", "quality_categories": "wrong_mispelled_or_unlisted_values", "issue_ids": "[13]", "osm_url": "https://www.openstreetmap.org/way/1070687538", "josm_url": "http://127.0.0.1:8111/load_object?new_layer=false&objects=w1070687538", "id_url": "https://www.openstreetmap.org/edit?editor=id&way=1070687538#map=20/-25.4543445/-49.2419374"}}, {"type": "Feature", "geometry": {"type": "Point", "coordinates": [-49.2780014, -25.45287]}, "properties": {"id": 1120692118, "feat_type": "way", "quality_categories": "wrong_mispelled_or_unlisted_values", "issue_ids": "[4]", "osm_url": "https://www.openstreetmap.org/way/1120692118", "josm_url": "http://127.0.0.1:8111/load_object?new_layer=false&objects=w1120692118", "id_url": "https://www.openstreetmap.org/edit?editor=id&way=1120692118#map=20/-25.45287/-49.2780014"}}, {"type": "Feature", "geometry": {"type": "Point", "coordinates": [-49.242612, -25.4542902]}, "properties": {"id": 1193601313, "feat_type": "way", "quality_categories": "wrong_mispelled_or_unlisted_values", "issue_ids": "[8]", "osm_url": "https://www.openstreetmap.org/way/1193601313", "josm_url": "http://127.0.0.1:8111/load_object?new_layer=false&objects=w1193601313", "id_url": "https://www.openstreetmap.org/edit?editor=id&way=1193601313#map=20/-25.4542902/-49.242612"}}, {"type": "Feature", "geometry": {"type": "Point", "coordinates": [-49.2425055, -25.4544403]}, "properties": {"id": 1193601314, "feat_type": "way", "quality_categories": "wrong_mispelled_or_unlisted_values", "issue_ids": "[8]", "osm_url": "https://www.openstreetmap.org/way/1193601314", "josm_url": "http://127.0.0.1:8111/load_object?new_layer=false&objects=w1193601314", "id_url": "https://www.openstreetmap.org/edit?editor=id&way=1193601314#map=20/-25.4544403/-49.2425055"}}, {"type": "Feature", "geometry": {"type": "Point", "coordinates": [-49.2426985, -25.4282033]}, "properties": {"id": 1222266163, "feat_type": "way", "quality_categories": "wrong_mispelled_or_unlisted_values", "issue_ids": "[14]", "osm_url": "https://www.openstreetmap.org/way/1222266163", "josm_url": "http://127.0.0.1:8111/load_object?new_layer=false&objects=w1222266163", "id_url": "https://www.openstreetmap.org/edit?editor=id&way=1222266163#map=20/-25.4282033/-49.2426985"}}, {"type": "Feature", "geometry": {"type": "Point", "coordinates": [-49.2204968, -25.4674002]}, "properties": {"id": 1451493621, "feat_type": "way", "quality_categories": "wrong_mispelled_or_unlisted_values", "issue_ids": "[15]", "osm_url": "https://www.openstreetmap.org/way/1451493621", "josm_url": "http://127.0.0.1:8111/load_object?new_layer=false&objects=w1451493621", "id_url": "https://www.openstreetmap.org/edit?editor=id&way=1451493621#map=20/-25.4674002/-49.2204968"}}, {"type": "Feature", "geometry": {"type": "Point", "coordinates": [-49.3047308, -25.4021545]}, "properties": {"id": 1526205759, "feat_type": "way", "quality_categories": "wrong_mispelled_or_unlisted_values", "issue_ids": "[0]", "osm_url": "https://www.openstreetmap.org/way/1526205759", "josm_url": "http://127.0.0.1:8111/load_object?new_layer=false&objects=w1526205759", "id_url": "https://www.openstreetmap.org/edit?editor=id&way=1526205759#map=20/-25.4021545/-49.3047308"}}, {"type": "Feature", "geometry": {"type": "Point", "coordinates": [-49.3046256, -25.4020489]}, "properties": {"id": 1526205760, "feat_type": "way", "quality_categories": "wrong_mispelled_or_unlisted_values", "issue_ids": "[0]", "osm_url": "https://www.openstreetmap.org/way/1526205760", "josm_url": "http://127.0.0.1:8111/load_object?new_layer=false&objects=w1526205760", "id_url": "https://www.openstreetmap.org/edit?editor=id&way=1526205760#map=20/-25.4020489/-49.3046256"}}, {"type": "Feature", "geometry": {"type": "Point", "coordinates": [-49.3049239, -25.4023534]}, "properties": {"id": 1526205761, "feat_type": "way", "quality_categories": "wrong_mispelled_or_unlisted_values", "issue_ids": "[0]", "osm_url": "https://www.openstreetmap.org/way/1526205761", "josm_url": "http://127.0.0.1:8111/load_object?new_layer=false&objects=w1526205761", "id_url": "https://www.openstreetmap.org/edit?editor=id&way=1526205761#map=20/-25.4023534/-49.3049239"}}]}