{"type": "FeatureCollection", "features": [{"type": "Feature", "geometry": {"type": "Point", "coordinates": [9.2304065, 45.4474011]}, "properties": {"id": 944686591, "feat_type": "way", "quality_categories": "disjointed_geometries, missing_tags", "issue_ids": "[0, 1]", "osm_url": "https://www.openstreetmap.org/way/944686591", "josm_url": "http://127.0.0.1:8111/load_object?new_layer=false&objects=w944686591", "id_url": "https://www.openstreetmap.org/edit?editor=id&way=944686591#map=20/45.4474011/9.2304065"}}, {"type": "Feature", "geometry": {"type": "Point", "coordinates": [9.1888225, 45.5104464]}, "properties": {"id": 1222988496, "feat_type": "way", "quality_categories": "disjointed_geometries, replaceable_values", "issue_ids": "[2, 1]", "osm_url": "https://www.openstreetmap.org/way/1222988496", "josm_url": "http://127.0.0.1:8111/load_object?new_layer=false&objects=w1222988496", "id_url": "https://www.openstreetmap.org/edit?editor=id&way=1222988496#map=20/45.5104464/9.1888225"}}, {"type": "Feature", "geometry": {"type": "Point", "coordinates": [9.1884299, 45.5096824]}, "properties": {"id": 1222988497, "feat_type": "way", "quality_categories": "disjointed_geometries, replaceable_values", "issue_ids": "[2, 1]", "osm_url": "https://www.openstreetmap.org/way/1222988497", "josm_url": "http://127.0.0.1:8111/load_object?new_layer=false&objects=w1222988497", "id_url": "https://www.openstreetmap.org/edit?editor=id&way=1222988497#map=20/45.5096824/9.1884299"}}, {"type": "Feature", "geometry": {"type": "Point", "coordinates": [9.188648, 45.5100813]}, "properties": {"id": 1222988498, "feat_type": "way", "quality_categories": "disjointed_geometries, replaceable_values", "issue_ids": "[2, 1]", "osm_url": "https://www.openstreetmap.org/way/1222988498", "josm_url": "http://127.0.0.1:8111/load_object?new_layer=false&objects=w1222988498", "id_url": "https://www.openstreetmap.org/edit?editor=id&way=1222988498#map=20/45.5100813/9.188648"}}, {"type": "Feature", "geometry": {"type": "Point", "coordinates": [9.1612434, 45.433229]}, "properties": {"id": 1284372290, "feat_type": "way", "quality_categories": "disjointed_geometries, missing_tags", "issue_ids": "[0, 1]", "osm_url": "https://www.openstreetmap.org/way/1284372290", "josm_url": "http://127.0.0.1:8111/load_object?new_layer=false&objects=w1284372290", "id_url": "https://www.openstreetmap.org/edit?editor=id&way=1284372290#map=20/45.433229/9.1612434"}}, {"type": "Feature", "geometry": {"type": "Point", "coordinates": [9.1612162, 45.433379]}, "properties": {"id": 1284372293, "feat_type": "way", "quality_categories": "disjointed_geometries, missing_tags", "issue_ids": "[0, 1]", "osm_url": "https://www.openstreetmap.org/way/1284372293", "josm_url": "http://127.0.0.1:8111/load_object?new_layer=false&objects=w1284372293", "id_url": "https://www.openstreetmap.org/edit?editor=id&way=1284372293#map=20/45.433379/9.1612162"}}, {"type": "Feature", "geometry": {"type": "Point", "coordinates": [9.1613021, 45.4333559]}, "properties": {"id": 1284372294, "feat_type": "way", "quality_categories": "disjointed_geometries, missing_tags", "issue_ids": "[0, 1]", "osm_url": "https://www.openstreetmap.org/way/1284372294", "josm_url": "http://127.0.0.1:8111/load_object?new_layer=false&objects=w1284372294", "id_url": "https://www.openstreetmap.org/edit?editor=id&way=1284372294#map=20/45.4333559/9.1613021"}}, {"type": "Feature", "geometry": {"type": "Point", "coordinates": [9.1835231, 45.5100193]}, "properties": {"id": 1318074075, "feat_type": "way", "quality_categories": "disjointed_geometries, replaceable_values", "issue_ids": "[2, 1]", "osm_url": "https://www.openstreetmap.org/way/1318074075", "josm_url": "http://127.0.0.1:8111/load_object?new_layer=false&objects=w1318074075", "id_url": "https://www.openstreetmap.org/edit?editor=id&way=1318074075#map=20/45.5100193/9.1835231"}}, {"type": "Feature", "geometry": {"type": "Point", "coordinates": [9.0936669, 45.5253903]}, "properties": {"id": 1348509230, "feat_type": "way", "quality_categories": "disjointed_geometries, missing_tags", "issue_ids": "[0, 1]", "osm_url": "https://www.openstreetmap.org/way/1348509230", "josm_url": "http://127.0.0.1:8111/load_object?new_layer=false&objects=w1348509230", "id_url": "https://www.openstreetmap.org/edit?editor=id&way=1348509230#map=20/45.5253903/9.0936669"}}, {"type": "Feature", "geometry": {"type": "Point", "coordinates": [9.0732938, 45.5016968]}, "properties": {"id": 1360064971, "feat_type": "way", "quality_categories": "disjointed_geometries, missing_tags", "issue_ids": "[0, 1]", "osm_url": "https://www.openstreetmap.org/way/1360064971", "josm_url": "http://127.0.0.1:8111/load_object?new_layer=false&objects=w1360064971", "id_url": "https://www.openstreetmap.org/edit?editor=id&way=1360064971#map=20/45.5016968/9.0732938"}}, {"type": "Feature", "geometry": {"type": "Point", "coordinates": [9.0735546, 45.501145]}, "properties": {"id": 1360064972, "feat_type": "way", "quality_categories": "disjointed_geometries, missing_tags", "issue_ids": "[0, 1]", "osm_url": "https://www.openstreetmap.org/way/1360064972", "josm_url": "http://127.0.0.1:8111/load_object?new_layer=false&objects=w1360064972", "id_url": "https://www.openstreetmap.org/edit?editor=id&way=1360064972#map=20/45.501145/9.0735546"}}, {"type": "Feature", "geometry": {"type": "Point", "coordinates": [9.0730713, 45.5014304]}, "properties": {"id": 1360064973, "feat_type": "way", "quality_categories": "disjointed_geometries, missing_tags", "issue_ids": "[0, 1]", "osm_url": "https://www.openstreetmap.org/way/1360064973", "josm_url": "http://127.0.0.1:8111/load_object?new_layer=false&objects=w1360064973", "id_url": "https://www.openstreetmap.org/edit?editor=id&way=1360064973#map=20/45.5014304/9.0730713"}}, {"type": "Feature", "geometry": {"type": "Point", "coordinates": [9.1865882, 45.4852467]}, "properties": {"id": 1364637672, "feat_type": "way", "quality_categories": "disjointed_geometries, replaceable_values", "issue_ids": "[2, 1]", "osm_url": "https://www.openstreetmap.org/way/1364637672", "josm_url": "http://127.0.0.1:8111/load_object?new_layer=false&objects=w1364637672", "id_url": "https://www.openstreetmap.org/edit?editor=id&way=1364637672#map=20/45.4852467/9.1865882"}}, {"type": "Feature", "geometry": {"type": "Point", "coordinates": [9.1148436, 45.4690792]}, "properties": {"id": 1416184672, "feat_type": "way", "quality_categories": "disjointed_geometries, missing_tags", "issue_ids": "[0, 1]", "osm_url": "https://www.openstreetmap.org/way/1416184672", "josm_url": "http://127.0.0.1:8111/load_object?new_layer=false&objects=w1416184672", "id_url": "https://www.openstreetmap.org/edit?editor=id&way=1416184672#map=20/45.4690792/9.1148436"}}, {"type": "Feature", "geometry": {"type": "Point", "coordinates": [9.1149685, 45.4692771]}, "properties": {"id": 1416184673, "feat_type": "way", "quality_categories": "disjointed_geometries, missing_tags", "issue_ids": "[0, 1]", "osm_url": "https://www.openstreetmap.org/way/1416184673", "josm_url": "http://127.0.0.1:8111/load_object?new_layer=false&objects=w1416184673", "id_url": "https://www.openstreetmap.org/edit?editor=id&way=1416184673#map=20/45.4692771/9.1149685"}}, {"type": "Feature", "geometry": {"type": "Point", "coordinates": [9.115887, 45.4685136]}, "properties": {"id": 1416184677, "feat_type": "way", "quality_categories": "disjointed_geometries, missing_tags", "issue_ids": "[0, 1]", "osm_url": "https://www.openstreetmap.org/way/1416184677", "josm_url": "http://127.0.0.1:8111/load_object?new_layer=false&objects=w1416184677", "id_url": "https://www.openstreetmap.org/edit?editor=id&way=1416184677#map=20/45.4685136/9.115887"}}, {"type": "Feature", "geometry": {"type": "Point", "coordinates": [9.1158346, 45.4684356]}, "properties": {"id": 1416184678, "feat_type": "way", "quality_categories": "disjointed_geometries, missing_tags", "issue_ids": "[0, 1]", "osm_url": "https://www.openstreetmap.org/way/1416184678", "josm_url": "http://127.0.0.1:8111/load_object?new_layer=false&objects=w1416184678", "id_url": "https://www.openstreetmap.org/edit?editor=id&way=1416184678#map=20/45.4684356/9.1158346"}}, {"type": "Feature", "geometry": {"type": "Point", "coordinates": [9.1154221, 45.4683275]}, "properties": {"id": 1416184679, "feat_type": "way", "quality_categories": "disjointed_geometries, missing_tags", "issue_ids": "[0, 1]", "osm_url": "https://www.openstreetmap.org/way/1416184679", "josm_url": "http://127.0.0.1:8111/load_object?new_layer=false&objects=w1416184679", "id_url": "https://www.openstreetmap.org/edit?editor=id&way=1416184679#map=20/45.4683275/9.1154221"}}, {"type": "Feature", "geometry": {"type": "Point", "coordinates": [9.1157052, 45.4679328]}, "properties": {"id": 1416184680, "feat_type": "way", "quality_categories": "disjointed_geometries, missing_tags", "issue_ids": "[0, 1]", "osm_url": "https://www.openstreetmap.org/way/1416184680", "josm_url": "http://127.0.0.1:8111/load_object?new_layer=false&objects=w1416184680", "id_url": "https://www.openstreetmap.org/edit?editor=id&way=1416184680#map=20/45.4679328/9.1157052"}}, {"type": "Feature", "geometry": {"type": "Point", "coordinates": [9.1160196, 45.4680517]}, "properties": {"id": 1416184682, "feat_type": "way", "quality_categories": "disjointed_geometries, missing_tags", "issue_ids": "[0, 1]", "osm_url": "https://www.openstreetmap.org/way/1416184682", "josm_url": "http://127.0.0.1:8111/load_object?new_layer=false&objects=w1416184682", "id_url": "https://www.openstreetmap.org/edit?editor=id&way=1416184682#map=20/45.4680517/9.1160196"}}, {"type": "Feature", "geometry": {"type": "Point", "coordinates": [9.141824, 45.4917603]}, "properties": {"id": 1446873062, "feat_type": "way", "quality_categories": "disjointed_geometries, missing_tags", "issue_ids": "[0, 1]", "osm_url": "https://www.openstreetmap.org/way/1446873062", "josm_url": "http://127.0.0.1:8111/load_object?new_layer=false&objects=w1446873062", "id_url": "https://www.openstreetmap.org/edit?editor=id&way=1446873062#map=20/45.4917603/9.141824"}}, {"type": "Feature", "geometry": {"type": "Point", "coordinates": [9.1417056, 45.4921072]}, "properties": {"id": 1446873063, "feat_type": "way", "quality_categories": "disjointed_geometries, missing_tags", "issue_ids": "[0, 1]", "osm_url": "https://www.openstreetmap.org/way/1446873063", "josm_url": "http://127.0.0.1:8111/load_object?new_layer=false&objects=w1446873063", "id_url": "https://www.openstreetmap.org/edit?editor=id&way=1446873063#map=20/45.4921072/9.1417056"}}, {"type": "Feature", "geometry": {"type": "Point", "coordinates": [9.0641616, 45.4884327]}, "properties": {"id": 1546691324, "feat_type": "way", "quality_categories": "disjointed_geometries, missing_tags", "issue_ids": "[0, 1]", "osm_url": "https://www.openstreetmap.org/way/1546691324", "josm_url": "http://127.0.0.1:8111/load_object?new_layer=false&objects=w1546691324", "id_url": "https://www.openstreetmap.org/edit?editor=id&way=1546691324#map=20/45.4884327/9.0641616"}}, {"type": "Feature", "geometry": {"type": "Point", "coordinates": [9.2057433, 45.4158401]}, "properties": {"id": 556527752, "feat_type": "way", "quality_categories": "disjointed_geometries", "issue_ids": "[1]", "osm_url": "https://www.openstreetmap.org/way/556527752", "josm_url": "http://127.0.0.1:8111/load_object?new_layer=false&objects=w556527752", "id_url": "https://www.openstreetmap.org/edit?editor=id&way=556527752#map=20/45.4158401/9.2057433"}}, {"type": "Feature", "geometry": {"type": "Point", "coordinates": [9.1888009, 45.5105704]}, "properties": {"id": 998428085, "feat_type": "way", "quality_categories": "disjointed_geometries", "issue_ids": "[1]", "osm_url": "https://www.openstreetmap.org/way/998428085", "josm_url": "http://127.0.0.1:8111/load_object?new_layer=false&objects=w998428085", "id_url": "https://www.openstreetmap.org/edit?editor=id&way=998428085#map=20/45.5105704/9.1888009"}}, {"type": "Feature", "geometry": {"type": "Point", "coordinates": [9.267592, 45.5130984]}, "properties": {"id": 1020253929, "feat_type": "way", "quality_categories": "disjointed_geometries", "issue_ids": "[1]", "osm_url": "https://www.openstreetmap.org/way/1020253929", "josm_url": "http://127.0.0.1:8111/load_object?new_layer=false&objects=w1020253929", "id_url": "https://www.openstreetmap.org/edit?editor=id&way=1020253929#map=20/45.5130984/9.267592"}}, {"type": "Feature", "geometry": {"type": "Point", "coordinates": [9.2058155, 45.4163557]}, "properties": {"id": 1134825512, "feat_type": "way", "quality_categories": "disjointed_geometries", "issue_ids": "[1]", "osm_url": "https://www.openstreetmap.org/way/1134825512", "josm_url": "http://127.0.0.1:8111/load_object?new_layer=false&objects=w1134825512", "id_url": "https://www.openstreetmap.org/edit?editor=id&way=1134825512#map=20/45.4163557/9.2058155"}}, {"type": "Feature", "geometry": {"type": "Point", "coordinates": [9.1904117, 45.4847379]}, "properties": {"id": 1184947790, "feat_type": "way", "quality_categories": "disjointed_geometries", "issue_ids": "[1]", "osm_url": "https://www.openstreetmap.org/way/1184947790", "josm_url": "http://127.0.0.1:8111/load_object?new_layer=false&objects=w1184947790", "id_url": "https://www.openstreetmap.org/edit?editor=id&way=1184947790#map=20/45.4847379/9.1904117"}}, {"type": "Feature", "geometry": {"type": "Point", "coordinates": [9.1904422, 45.4844727]}, "properties": {"id": 1184947792, "feat_type": "way", "quality_categories": "disjointed_geometries", "issue_ids": "[1]", "osm_url": "https://www.openstreetmap.org/way/1184947792", "josm_url": "http://127.0.0.1:8111/load_object?new_layer=false&objects=w1184947792", "id_url": "https://www.openstreetmap.org/edit?editor=id&way=1184947792#map=20/45.4844727/9.1904422"}}, {"type": "Feature", "geometry": {"type": "Point", "coordinates": [9.2635864, 45.505879]}, "properties": {"id": 1193816560, "feat_type": "way", "quality_categories": "disjointed_geometries", "issue_ids": "[1]", "osm_url": "https://www.openstreetmap.org/way/1193816560", "josm_url": "http://127.0.0.1:8111/load_object?new_layer=false&objects=w1193816560", "id_url": "https://www.openstreetmap.org/edit?editor=id&way=1193816560#map=20/45.505879/9.2635864"}}, {"type": "Feature", "geometry": {"type": "Point", "coordinates": [9.2637106, 45.5054118]}, "properties": {"id": 1193816564, "feat_type": "way", "quality_categories": "disjointed_geometries", "issue_ids": "[1]", "osm_url": "https://www.openstreetmap.org/way/1193816564", "josm_url": "http://127.0.0.1:8111/load_object?new_layer=false&objects=w1193816564", "id_url": "https://www.openstreetmap.org/edit?editor=id&way=1193816564#map=20/45.5054118/9.2637106"}}, {"type": "Feature", "geometry": {"type": "Point", "coordinates": [9.1885355, 45.5100253]}, "properties": {"id": 1222988493, "feat_type": "way", "quality_categories": "disjointed_geometries", "issue_ids": "[1]", "osm_url": "https://www.openstreetmap.org/way/1222988493", "josm_url": "http://127.0.0.1:8111/load_object?new_layer=false&objects=w1222988493", "id_url": "https://www.openstreetmap.org/edit?editor=id&way=1222988493#map=20/45.5100253/9.1885355"}}, {"type": "Feature", "geometry": {"type": "Point", "coordinates": [9.1889983, 45.5108044]}, "properties": {"id": 1264497154, "feat_type": "way", "quality_categories": "disjointed_geometries", "issue_ids": "[1]", "osm_url": "https://www.openstreetmap.org/way/1264497154", "josm_url": "http://127.0.0.1:8111/load_object?new_layer=false&objects=w1264497154", "id_url": "https://www.openstreetmap.org/edit?editor=id&way=1264497154#map=20/45.5108044/9.1889983"}}, {"type": "Feature", "geometry": {"type": "Point", "coordinates": [9.2664699, 45.5061055]}, "properties": {"id": 1343576473, "feat_type": "way", "quality_categories": "disjointed_geometries", "issue_ids": "[1]", "osm_url": "https://www.openstreetmap.org/way/1343576473", "josm_url": "http://127.0.0.1:8111/load_object?new_layer=false&objects=w1343576473", "id_url": "https://www.openstreetmap.org/edit?editor=id&way=1343576473#map=20/45.5061055/9.2664699"}}, {"type": "Feature", "geometry": {"type": "Point", "coordinates": [9.1719879, 45.4179437]}, "properties": {"id": 1458386084, "feat_type": "way", "quality_categories": "disjointed_geometries", "issue_ids": "[1]", "osm_url": "https://www.openstreetmap.org/way/1458386084", "josm_url": "http://127.0.0.1:8111/load_object?new_layer=false&objects=w1458386084", "id_url": "https://www.openstreetmap.org/edit?editor=id&way=1458386084#map=20/45.4179437/9.1719879"}}, {"type": "Feature", "geometry": {"type": "Point", "coordinates": [9.1720328, 45.418241]}, "properties": {"id": 1458386093, "feat_type": "way", "quality_categories": "disjointed_geometries", "issue_ids": "[1]", "osm_url": "https://www.openstreetmap.org/way/1458386093", "josm_url": "http://127.0.0.1:8111/load_object?new_layer=false&objects=w1458386093", "id_url": "https://www.openstreetmap.org/edit?editor=id&way=1458386093#map=20/45.418241/9.1720328"}}, {"type": "Feature", "geometry": {"type": "Point", "coordinates": [9.2063496, 45.4131207]}, "properties": {"id": 1511254919, "feat_type": "way", "quality_categories": "disjointed_geometries", "issue_ids": "[1]", "osm_url": "https://www.openstreetmap.org/way/1511254919", "josm_url": "http://127.0.0.1:8111/load_object?new_layer=false&objects=w1511254919", "id_url": "https://www.openstreetmap.org/edit?editor=id&way=1511254919#map=20/45.4131207/9.2063496"}}, {"type": "Feature", "geometry": {"type": "Point", "coordinates": [9.2082893, 45.4067678]}, "properties": {"id": 1511254925, "feat_type": "way", "quality_categories": "disjointed_geometries", "issue_ids": "[1]", "osm_url": "https://www.openstreetmap.org/way/1511254925", "josm_url": "http://127.0.0.1:8111/load_object?new_layer=false&objects=w1511254925", "id_url": "https://www.openstreetmap.org/edit?editor=id&way=1511254925#map=20/45.4067678/9.2082893"}}, {"type": "Feature", "geometry": {"type": "Point", "coordinates": [9.2079578, 45.4067271]}, "properties": {"id": 1511254926, "feat_type": "way", "quality_categories": "disjointed_geometries", "issue_ids": "[1]", "osm_url": "https://www.openstreetmap.org/way/1511254926", "josm_url": "http://127.0.0.1:8111/load_object?new_layer=false&objects=w1511254926", "id_url": "https://www.openstreetmap.org/edit?editor=id&way=1511254926#map=20/45.4067271/9.2079578"}}, {"type": "Feature", "geometry": {"type": "Point", "coordinates": [9.2087291, 45.4036887]}, "properties": {"id": 1511254927, "feat_type": "way", "quality_categories": "disjointed_geometries", "issue_ids": "[1]", "osm_url": "https://www.openstreetmap.org/way/1511254927", "josm_url": "http://127.0.0.1:8111/load_object?new_layer=false&objects=w1511254927", "id_url": "https://www.openstreetmap.org/edit?editor=id&way=1511254927#map=20/45.4036887/9.2087291"}}, {"type": "Feature", "geometry": {"type": "Point", "coordinates": [9.2090371, 45.4037238]}, "properties": {"id": 1511254928, "feat_type": "way", "quality_categories": "disjointed_geometries", "issue_ids": "[1]", "osm_url": "https://www.openstreetmap.org/way/1511254928", "josm_url": "http://127.0.0.1:8111/load_object?new_layer=false&objects=w1511254928", "id_url": "https://www.openstreetmap.org/edit?editor=id&way=1511254928#map=20/45.4037238/9.2090371"}}, {"type": "Feature", "geometry": {"type": "Point", "coordinates": [9.2096016, 45.4004657]}, "properties": {"id": 1511254931, "feat_type": "way", "quality_categories": "disjointed_geometries", "issue_ids": "[1]", "osm_url": "https://www.openstreetmap.org/way/1511254931", "josm_url": "http://127.0.0.1:8111/load_object?new_layer=false&objects=w1511254931", "id_url": "https://www.openstreetmap.org/edit?editor=id&way=1511254931#map=20/45.4004657/9.2096016"}}, {"type": "Feature", "geometry": {"type": "Point", "coordinates": [9.2092998, 45.4004197]}, "properties": {"id": 1511254932, "feat_type": "way", "quality_categories": "disjointed_geometries", "issue_ids": "[1]", "osm_url": "https://www.openstreetmap.org/way/1511254932", "josm_url": "http://127.0.0.1:8111/load_object?new_layer=false&objects=w1511254932", "id_url": "https://www.openstreetmap.org/edit?editor=id&way=1511254932#map=20/45.4004197/9.2092998"}}, {"type": "Feature", "geometry": {"type": "Point", "coordinates": [9.1263169, 45.4652759]}, "properties": {"id": 1535022196, "feat_type": "way", "quality_categories": "disjointed_geometries", "issue_ids": "[1]", "osm_url": "https://www.openstreetmap.org/way/1535022196", "josm_url": "http://127.0.0.1:8111/load_object?new_layer=false&objects=w1535022196", "id_url": "https://www.openstreetmap.org/edit?editor=id&way=1535022196#map=20/45.4652759/9.1263169"}}, {"type": "Feature", "geometry": {"type": "Point", "coordinates": [9.1262909, 45.4653851]}, "properties": {"id": 1535022197, "feat_type": "way", "quality_categories": "disjointed_geometries", "issue_ids": "[1]", "osm_url": "https://www.openstreetmap.org/way/1535022197", "josm_url": "http://127.0.0.1:8111/load_object?new_layer=false&objects=w1535022197", "id_url": "https://www.openstreetmap.org/edit?editor=id&way=1535022197#map=20/45.4653851/9.1262909"}}]}