{"type": "FeatureCollection", "features": [{"type": "Feature", "geometry": {"type": "Point", "coordinates": [9.1650751, 45.4885218]}, "properties": {"id": 4681905, "feat_type": "way", "quality_categories": "improper_keys, missing_tags", "issue_ids": "[0, 1]", "osm_url": "https://www.openstreetmap.org/way/4681905", "josm_url": "http://127.0.0.1:8111/load_object?new_layer=false&objects=w4681905", "id_url": "https://www.openstreetmap.org/edit?editor=id&way=4681905#map=20/45.4885218/9.1650751"}}, {"type": "Feature", "geometry": {"type": "Point", "coordinates": [9.1892546, 45.4656092]}, "properties": {"id": 23227664, "feat_type": "way", "quality_categories": "improper_keys, missing_tags", "issue_ids": "[2, 1]", "osm_url": "https://www.openstreetmap.org/way/23227664", "josm_url": "http://127.0.0.1:8111/load_object?new_layer=false&objects=w23227664", "id_url": "https://www.openstreetmap.org/edit?editor=id&way=23227664#map=20/45.4656092/9.1892546"}}, {"type": "Feature", "geometry": {"type": "Point", "coordinates": [9.1753711, 45.523584]}, "properties": {"id": 113517742, "feat_type": "way", "quality_categories": "improper_keys", "issue_ids": "[3]", "osm_url": "https://www.openstreetmap.org/way/113517742", "josm_url": "http://127.0.0.1:8111/load_object?new_layer=false&objects=w113517742", "id_url": "https://www.openstreetmap.org/edit?editor=id&way=113517742#map=20/45.523584/9.1753711"}}, {"type": "Feature", "geometry": {"type": "Point", "coordinates": [9.176052, 45.4781472]}, "properties": {"id": 115225698, "feat_type": "way", "quality_categories": "improper_keys", "issue_ids": "[4]", "osm_url": "https://www.openstreetmap.org/way/115225698", "josm_url": "http://127.0.0.1:8111/load_object?new_layer=false&objects=w115225698", "id_url": "https://www.openstreetmap.org/edit?editor=id&way=115225698#map=20/45.4781472/9.176052"}}, {"type": "Feature", "geometry": {"type": "Point", "coordinates": [9.2402631, 45.4996815]}, "properties": {"id": 152816524, "feat_type": "way", "quality_categories": "improper_keys", "issue_ids": "[5]", "osm_url": "https://www.openstreetmap.org/way/152816524", "josm_url": "http://127.0.0.1:8111/load_object?new_layer=false&objects=w152816524", "id_url": "https://www.openstreetmap.org/edit?editor=id&way=152816524#map=20/45.4996815/9.2402631"}}, {"type": "Feature", "geometry": {"type": "Point", "coordinates": [9.2404327, 45.49981]}, "properties": {"id": 186121497, "feat_type": "way", "quality_categories": "improper_keys", "issue_ids": "[5]", "osm_url": "https://www.openstreetmap.org/way/186121497", "josm_url": "http://127.0.0.1:8111/load_object?new_layer=false&objects=w186121497", "id_url": "https://www.openstreetmap.org/edit?editor=id&way=186121497#map=20/45.49981/9.2404327"}}, {"type": "Feature", "geometry": {"type": "Point", "coordinates": [9.2172139, 45.4369641]}, "properties": {"id": 297203177, "feat_type": "way", "quality_categories": "improper_keys", "issue_ids": "[6]", "osm_url": "https://www.openstreetmap.org/way/297203177", "josm_url": "http://127.0.0.1:8111/load_object?new_layer=false&objects=w297203177", "id_url": "https://www.openstreetmap.org/edit?editor=id&way=297203177#map=20/45.4369641/9.2172139"}}, {"type": "Feature", "geometry": {"type": "Point", "coordinates": [9.0941836, 45.5053564]}, "properties": {"id": 304559646, "feat_type": "way", "quality_categories": "crossings_lacking_kerbs, improper_keys", "issue_ids": "[7, 8]", "osm_url": "https://www.openstreetmap.org/way/304559646", "josm_url": "http://127.0.0.1:8111/load_object?new_layer=false&objects=w304559646", "id_url": "https://www.openstreetmap.org/edit?editor=id&way=304559646#map=20/45.5053564/9.0941836"}}, {"type": "Feature", "geometry": {"type": "Point", "coordinates": [9.1818887, 45.4894099]}, "properties": {"id": 304804062, "feat_type": "way", "quality_categories": "improper_keys", "issue_ids": "[9]", "osm_url": "https://www.openstreetmap.org/way/304804062", "josm_url": "http://127.0.0.1:8111/load_object?new_layer=false&objects=w304804062", "id_url": "https://www.openstreetmap.org/edit?editor=id&way=304804062#map=20/45.4894099/9.1818887"}}, {"type": "Feature", "geometry": {"type": "Point", "coordinates": [9.165081, 45.4884378]}, "properties": {"id": 306849458, "feat_type": "way", "quality_categories": "improper_keys, missing_tags", "issue_ids": "[0, 1]", "osm_url": "https://www.openstreetmap.org/way/306849458", "josm_url": "http://127.0.0.1:8111/load_object?new_layer=false&objects=w306849458", "id_url": "https://www.openstreetmap.org/edit?editor=id&way=306849458#map=20/45.4884378/9.165081"}}, {"type": "Feature", "geometry": {"type": "Point", "coordinates": [9.2341961, 45.4815572]}, "properties": {"id": 736649215, "feat_type": "way", "quality_categories": "improper_keys", "issue_ids": "[10]", "osm_url": "https://www.openstreetmap.org/way/736649215", "josm_url": "http://127.0.0.1:8111/load_object?new_layer=false&objects=w736649215", "id_url": "https://www.openstreetmap.org/edit?editor=id&way=736649215#map=20/45.4815572/9.2341961"}}, {"type": "Feature", "geometry": {"type": "Point", "coordinates": [9.2341877, 45.4826345]}, "properties": {"id": 736649241, "feat_type": "way", "quality_categories": "improper_keys", "issue_ids": "[10]", "osm_url": "https://www.openstreetmap.org/way/736649241", "josm_url": "http://127.0.0.1:8111/load_object?new_layer=false&objects=w736649241", "id_url": "https://www.openstreetmap.org/edit?editor=id&way=736649241#map=20/45.4826345/9.2341877"}}, {"type": "Feature", "geometry": {"type": "Point", "coordinates": [9.2341883, 45.4825199]}, "properties": {"id": 736649244, "feat_type": "way", "quality_categories": "improper_keys", "issue_ids": "[10]", "osm_url": "https://www.openstreetmap.org/way/736649244", "josm_url": "http://127.0.0.1:8111/load_object?new_layer=false&objects=w736649244", "id_url": "https://www.openstreetmap.org/edit?editor=id&way=736649244#map=20/45.4825199/9.2341883"}}, {"type": "Feature", "geometry": {"type": "Point", "coordinates": [9.2311065, 45.4806774]}, "properties": {"id": 736649259, "feat_type": "way", "quality_categories": "improper_keys", "issue_ids": "[11]", "osm_url": "https://www.openstreetmap.org/way/736649259", "josm_url": "http://127.0.0.1:8111/load_object?new_layer=false&objects=w736649259", "id_url": "https://www.openstreetmap.org/edit?editor=id&way=736649259#map=20/45.4806774/9.2311065"}}, {"type": "Feature", "geometry": {"type": "Point", "coordinates": [9.2308319, 45.4806593]}, "properties": {"id": 736649261, "feat_type": "way", "quality_categories": "improper_keys", "issue_ids": "[11]", "osm_url": "https://www.openstreetmap.org/way/736649261", "josm_url": "http://127.0.0.1:8111/load_object?new_layer=false&objects=w736649261", "id_url": "https://www.openstreetmap.org/edit?editor=id&way=736649261#map=20/45.4806593/9.2308319"}}, {"type": "Feature", "geometry": {"type": "Point", "coordinates": [9.1723959, 45.5212997]}, "properties": {"id": 835902553, "feat_type": "way", "quality_categories": "improper_keys, replaceable_values", "issue_ids": "[12, 13]", "osm_url": "https://www.openstreetmap.org/way/835902553", "josm_url": "http://127.0.0.1:8111/load_object?new_layer=false&objects=w835902553", "id_url": "https://www.openstreetmap.org/edit?editor=id&way=835902553#map=20/45.5212997/9.1723959"}}, {"type": "Feature", "geometry": {"type": "Point", "coordinates": [9.1384613, 45.5184041]}, "properties": {"id": 837542764, "feat_type": "way", "quality_categories": "improper_keys", "issue_ids": "[14]", "osm_url": "https://www.openstreetmap.org/way/837542764", "josm_url": "http://127.0.0.1:8111/load_object?new_layer=false&objects=w837542764", "id_url": "https://www.openstreetmap.org/edit?editor=id&way=837542764#map=20/45.5184041/9.1384613"}}, {"type": "Feature", "geometry": {"type": "Point", "coordinates": [9.1379701, 45.5183279]}, "properties": {"id": 837542768, "feat_type": "way", "quality_categories": "improper_keys", "issue_ids": "[14]", "osm_url": "https://www.openstreetmap.org/way/837542768", "josm_url": "http://127.0.0.1:8111/load_object?new_layer=false&objects=w837542768", "id_url": "https://www.openstreetmap.org/edit?editor=id&way=837542768#map=20/45.5183279/9.1379701"}}, {"type": "Feature", "geometry": {"type": "Point", "coordinates": [9.1875008, 45.4992821]}, "properties": {"id": 873063616, "feat_type": "way", "quality_categories": "improper_keys", "issue_ids": "[15]", "osm_url": "https://www.openstreetmap.org/way/873063616", "josm_url": "http://127.0.0.1:8111/load_object?new_layer=false&objects=w873063616", "id_url": "https://www.openstreetmap.org/edit?editor=id&way=873063616#map=20/45.4992821/9.1875008"}}, {"type": "Feature", "geometry": {"type": "Point", "coordinates": [9.1875396, 45.4993732]}, "properties": {"id": 873072913, "feat_type": "way", "quality_categories": "improper_keys", "issue_ids": "[15]", "osm_url": "https://www.openstreetmap.org/way/873072913", "josm_url": "http://127.0.0.1:8111/load_object?new_layer=false&objects=w873072913", "id_url": "https://www.openstreetmap.org/edit?editor=id&way=873072913#map=20/45.4993732/9.1875396"}}, {"type": "Feature", "geometry": {"type": "Point", "coordinates": [9.106784, 45.4794827]}, "properties": {"id": 925209214, "feat_type": "way", "quality_categories": "improper_keys", "issue_ids": "[16]", "osm_url": "https://www.openstreetmap.org/way/925209214", "josm_url": "http://127.0.0.1:8111/load_object?new_layer=false&objects=w925209214", "id_url": "https://www.openstreetmap.org/edit?editor=id&way=925209214#map=20/45.4794827/9.106784"}}, {"type": "Feature", "geometry": {"type": "Point", "coordinates": [9.2585517, 45.5110654]}, "properties": {"id": 955775779, "feat_type": "way", "quality_categories": "improper_keys", "issue_ids": "[5]", "osm_url": "https://www.openstreetmap.org/way/955775779", "josm_url": "http://127.0.0.1:8111/load_object?new_layer=false&objects=w955775779", "id_url": "https://www.openstreetmap.org/edit?editor=id&way=955775779#map=20/45.5110654/9.2585517"}}, {"type": "Feature", "geometry": {"type": "Point", "coordinates": [9.1514928, 45.4731312]}, "properties": {"id": 994964891, "feat_type": "way", "quality_categories": "improper_keys", "issue_ids": "[17]", "osm_url": "https://www.openstreetmap.org/way/994964891", "josm_url": "http://127.0.0.1:8111/load_object?new_layer=false&objects=w994964891", "id_url": "https://www.openstreetmap.org/edit?editor=id&way=994964891#map=20/45.4731312/9.1514928"}}, {"type": "Feature", "geometry": {"type": "Point", "coordinates": [9.2583482, 45.5119884]}, "properties": {"id": 1032053768, "feat_type": "way", "quality_categories": "improper_keys", "issue_ids": "[18]", "osm_url": "https://www.openstreetmap.org/way/1032053768", "josm_url": "http://127.0.0.1:8111/load_object?new_layer=false&objects=w1032053768", "id_url": "https://www.openstreetmap.org/edit?editor=id&way=1032053768#map=20/45.5119884/9.2583482"}}, {"type": "Feature", "geometry": {"type": "Point", "coordinates": [9.2584283, 45.5120845]}, "properties": {"id": 1032053772, "feat_type": "way", "quality_categories": "improper_keys", "issue_ids": "[18]", "osm_url": "https://www.openstreetmap.org/way/1032053772", "josm_url": "http://127.0.0.1:8111/load_object?new_layer=false&objects=w1032053772", "id_url": "https://www.openstreetmap.org/edit?editor=id&way=1032053772#map=20/45.5120845/9.2584283"}}, {"type": "Feature", "geometry": {"type": "Point", "coordinates": [9.2580737, 45.5120728]}, "properties": {"id": 1032053773, "feat_type": "way", "quality_categories": "improper_keys", "issue_ids": "[18]", "osm_url": "https://www.openstreetmap.org/way/1032053773", "josm_url": "http://127.0.0.1:8111/load_object?new_layer=false&objects=w1032053773", "id_url": "https://www.openstreetmap.org/edit?editor=id&way=1032053773#map=20/45.5120728/9.2580737"}}, {"type": "Feature", "geometry": {"type": "Point", "coordinates": [9.2302957, 45.4677801]}, "properties": {"id": 1032127109, "feat_type": "way", "quality_categories": "improper_keys", "issue_ids": "[19]", "osm_url": "https://www.openstreetmap.org/way/1032127109", "josm_url": "http://127.0.0.1:8111/load_object?new_layer=false&objects=w1032127109", "id_url": "https://www.openstreetmap.org/edit?editor=id&way=1032127109#map=20/45.4677801/9.2302957"}}, {"type": "Feature", "geometry": {"type": "Point", "coordinates": [9.1760336, 45.4780359]}, "properties": {"id": 1034836166, "feat_type": "way", "quality_categories": "improper_keys", "issue_ids": "[4]", "osm_url": "https://www.openstreetmap.org/way/1034836166", "josm_url": "http://127.0.0.1:8111/load_object?new_layer=false&objects=w1034836166", "id_url": "https://www.openstreetmap.org/edit?editor=id&way=1034836166#map=20/45.4780359/9.1760336"}}, {"type": "Feature", "geometry": {"type": "Point", "coordinates": [9.165199, 45.4886029]}, "properties": {"id": 1035071867, "feat_type": "way", "quality_categories": "improper_keys, missing_tags", "issue_ids": "[0, 1]", "osm_url": "https://www.openstreetmap.org/way/1035071867", "josm_url": "http://127.0.0.1:8111/load_object?new_layer=false&objects=w1035071867", "id_url": "https://www.openstreetmap.org/edit?editor=id&way=1035071867#map=20/45.4886029/9.165199"}}, {"type": "Feature", "geometry": {"type": "Point", "coordinates": [9.2335538, 45.4825295]}, "properties": {"id": 1036606982, "feat_type": "way", "quality_categories": "improper_keys", "issue_ids": "[10]", "osm_url": "https://www.openstreetmap.org/way/1036606982", "josm_url": "http://127.0.0.1:8111/load_object?new_layer=false&objects=w1036606982", "id_url": "https://www.openstreetmap.org/edit?editor=id&way=1036606982#map=20/45.4825295/9.2335538"}}, {"type": "Feature", "geometry": {"type": "Point", "coordinates": [9.2260707, 45.4888052]}, "properties": {"id": 1036607058, "feat_type": "way", "quality_categories": "improper_keys", "issue_ids": "[20]", "osm_url": "https://www.openstreetmap.org/way/1036607058", "josm_url": "http://127.0.0.1:8111/load_object?new_layer=false&objects=w1036607058", "id_url": "https://www.openstreetmap.org/edit?editor=id&way=1036607058#map=20/45.4888052/9.2260707"}}, {"type": "Feature", "geometry": {"type": "Point", "coordinates": [9.2264155, 45.4888686]}, "properties": {"id": 1036977294, "feat_type": "way", "quality_categories": "improper_keys", "issue_ids": "[20]", "osm_url": "https://www.openstreetmap.org/way/1036977294", "josm_url": "http://127.0.0.1:8111/load_object?new_layer=false&objects=w1036977294", "id_url": "https://www.openstreetmap.org/edit?editor=id&way=1036977294#map=20/45.4888686/9.2264155"}}, {"type": "Feature", "geometry": {"type": "Point", "coordinates": [9.2300281, 45.4677779]}, "properties": {"id": 1062943899, "feat_type": "way", "quality_categories": "improper_keys", "issue_ids": "[19]", "osm_url": "https://www.openstreetmap.org/way/1062943899", "josm_url": "http://127.0.0.1:8111/load_object?new_layer=false&objects=w1062943899", "id_url": "https://www.openstreetmap.org/edit?editor=id&way=1062943899#map=20/45.4677779/9.2300281"}}, {"type": "Feature", "geometry": {"type": "Point", "coordinates": [9.230154, 45.4677038]}, "properties": {"id": 1062943900, "feat_type": "way", "quality_categories": "improper_keys", "issue_ids": "[19]", "osm_url": "https://www.openstreetmap.org/way/1062943900", "josm_url": "http://127.0.0.1:8111/load_object?new_layer=false&objects=w1062943900", "id_url": "https://www.openstreetmap.org/edit?editor=id&way=1062943900#map=20/45.4677038/9.230154"}}, {"type": "Feature", "geometry": {"type": "Point", "coordinates": [9.2342994, 45.4817047]}, "properties": {"id": 1065272827, "feat_type": "way", "quality_categories": "improper_keys", "issue_ids": "[10]", "osm_url": "https://www.openstreetmap.org/way/1065272827", "josm_url": "http://127.0.0.1:8111/load_object?new_layer=false&objects=w1065272827", "id_url": "https://www.openstreetmap.org/edit?editor=id&way=1065272827#map=20/45.4817047/9.2342994"}}, {"type": "Feature", "geometry": {"type": "Point", "coordinates": [9.2206238, 45.4890294]}, "properties": {"id": 1092855022, "feat_type": "way", "quality_categories": "improper_keys", "issue_ids": "[21]", "osm_url": "https://www.openstreetmap.org/way/1092855022", "josm_url": "http://127.0.0.1:8111/load_object?new_layer=false&objects=w1092855022", "id_url": "https://www.openstreetmap.org/edit?editor=id&way=1092855022#map=20/45.4890294/9.2206238"}}, {"type": "Feature", "geometry": {"type": "Point", "coordinates": [9.1109236, 45.4964077]}, "properties": {"id": 1098839394, "feat_type": "way", "quality_categories": "improper_keys", "issue_ids": "[22]", "osm_url": "https://www.openstreetmap.org/way/1098839394", "josm_url": "http://127.0.0.1:8111/load_object?new_layer=false&objects=w1098839394", "id_url": "https://www.openstreetmap.org/edit?editor=id&way=1098839394#map=20/45.4964077/9.1109236"}}, {"type": "Feature", "geometry": {"type": "Point", "coordinates": [9.1100516, 45.4960942]}, "properties": {"id": 1098839647, "feat_type": "way", "quality_categories": "improper_keys", "issue_ids": "[22]", "osm_url": "https://www.openstreetmap.org/way/1098839647", "josm_url": "http://127.0.0.1:8111/load_object?new_layer=false&objects=w1098839647", "id_url": "https://www.openstreetmap.org/edit?editor=id&way=1098839647#map=20/45.4960942/9.1100516"}}, {"type": "Feature", "geometry": {"type": "Point", "coordinates": [9.1112643, 45.4963185]}, "properties": {"id": 1098840220, "feat_type": "way", "quality_categories": "improper_keys", "issue_ids": "[22]", "osm_url": "https://www.openstreetmap.org/way/1098840220", "josm_url": "http://127.0.0.1:8111/load_object?new_layer=false&objects=w1098840220", "id_url": "https://www.openstreetmap.org/edit?editor=id&way=1098840220#map=20/45.4963185/9.1112643"}}, {"type": "Feature", "geometry": {"type": "Point", "coordinates": [9.1115543, 45.4962606]}, "properties": {"id": 1098840755, "feat_type": "way", "quality_categories": "improper_keys", "issue_ids": "[22]", "osm_url": "https://www.openstreetmap.org/way/1098840755", "josm_url": "http://127.0.0.1:8111/load_object?new_layer=false&objects=w1098840755", "id_url": "https://www.openstreetmap.org/edit?editor=id&way=1098840755#map=20/45.4962606/9.1115543"}}, {"type": "Feature", "geometry": {"type": "Point", "coordinates": [9.1721951, 45.5214724]}, "properties": {"id": 1103128476, "feat_type": "way", "quality_categories": "improper_keys, replaceable_values", "issue_ids": "[12, 13]", "osm_url": "https://www.openstreetmap.org/way/1103128476", "josm_url": "http://127.0.0.1:8111/load_object?new_layer=false&objects=w1103128476", "id_url": "https://www.openstreetmap.org/edit?editor=id&way=1103128476#map=20/45.5214724/9.1721951"}}, {"type": "Feature", "geometry": {"type": "Point", "coordinates": [9.0934686, 45.5054483]}, "properties": {"id": 1118070345, "feat_type": "way", "quality_categories": "improper_keys", "issue_ids": "[7]", "osm_url": "https://www.openstreetmap.org/way/1118070345", "josm_url": "http://127.0.0.1:8111/load_object?new_layer=false&objects=w1118070345", "id_url": "https://www.openstreetmap.org/edit?editor=id&way=1118070345#map=20/45.5054483/9.0934686"}}, {"type": "Feature", "geometry": {"type": "Point", "coordinates": [9.2510792, 45.4273652]}, "properties": {"id": 1134754471, "feat_type": "way", "quality_categories": "improper_keys", "issue_ids": "[23]", "osm_url": "https://www.openstreetmap.org/way/1134754471", "josm_url": "http://127.0.0.1:8111/load_object?new_layer=false&objects=w1134754471", "id_url": "https://www.openstreetmap.org/edit?editor=id&way=1134754471#map=20/45.4273652/9.2510792"}}, {"type": "Feature", "geometry": {"type": "Point", "coordinates": [9.0940613, 45.5055027]}, "properties": {"id": 1152893851, "feat_type": "way", "quality_categories": "crossings_lacking_kerbs, improper_keys", "issue_ids": "[7, 8]", "osm_url": "https://www.openstreetmap.org/way/1152893851", "josm_url": "http://127.0.0.1:8111/load_object?new_layer=false&objects=w1152893851", "id_url": "https://www.openstreetmap.org/edit?editor=id&way=1152893851#map=20/45.5055027/9.0940613"}}, {"type": "Feature", "geometry": {"type": "Point", "coordinates": [9.1747575, 45.478824]}, "properties": {"id": 1284814430, "feat_type": "way", "quality_categories": "improper_keys", "issue_ids": "[24]", "osm_url": "https://www.openstreetmap.org/way/1284814430", "josm_url": "http://127.0.0.1:8111/load_object?new_layer=false&objects=w1284814430", "id_url": "https://www.openstreetmap.org/edit?editor=id&way=1284814430#map=20/45.478824/9.1747575"}}, {"type": "Feature", "geometry": {"type": "Point", "coordinates": [9.1398702, 45.5138276]}, "properties": {"id": 1446128154, "feat_type": "way", "quality_categories": "crossings_lacking_kerbs, improper_keys", "issue_ids": "[14, 8]", "osm_url": "https://www.openstreetmap.org/way/1446128154", "josm_url": "http://127.0.0.1:8111/load_object?new_layer=false&objects=w1446128154", "id_url": "https://www.openstreetmap.org/edit?editor=id&way=1446128154#map=20/45.5138276/9.1398702"}}, {"type": "Feature", "geometry": {"type": "Point", "coordinates": [9.0934223, 45.5053399]}, "properties": {"id": 1474184007, "feat_type": "way", "quality_categories": "improper_keys", "issue_ids": "[7]", "osm_url": "https://www.openstreetmap.org/way/1474184007", "josm_url": "http://127.0.0.1:8111/load_object?new_layer=false&objects=w1474184007", "id_url": "https://www.openstreetmap.org/edit?editor=id&way=1474184007#map=20/45.5053399/9.0934223"}}]}