{"type": "FeatureCollection", "features": [{"type": "Feature", "geometry": {"type": "Point", "coordinates": [-49.276257, -25.4969384]}, "properties": {"id": 646016151, "feat_type": "way", "quality_categories": "crossings_lacking_kerbs, missing_tags, older_than_five_years, replaceable_values", "issue_ids": "[0, 1, 2, 3]", "osm_url": "https://www.openstreetmap.org/way/646016151", "josm_url": "http://127.0.0.1:8111/load_object?new_layer=false&objects=w646016151", "id_url": "https://www.openstreetmap.org/edit?editor=id&way=646016151#map=20/-25.4969384/-49.276257"}}, {"type": "Feature", "geometry": {"type": "Point", "coordinates": [-49.2762896, -25.4969165]}, "properties": {"id": 646016152, "feat_type": "way", "quality_categories": "crossings_lacking_kerbs, missing_tags, older_than_five_years, replaceable_values", "issue_ids": "[0, 1, 2, 3]", "osm_url": "https://www.openstreetmap.org/way/646016152", "josm_url": "http://127.0.0.1:8111/load_object?new_layer=false&objects=w646016152", "id_url": "https://www.openstreetmap.org/edit?editor=id&way=646016152#map=20/-25.4969165/-49.2762896"}}, {"type": "Feature", "geometry": {"type": "Point", "coordinates": [-49.2767189, -25.4975139]}, "properties": {"id": 646016154, "feat_type": "way", "quality_categories": "crossings_lacking_kerbs, missing_tags, older_than_five_years, replaceable_values", "issue_ids": "[0, 4, 2, 3]", "osm_url": "https://www.openstreetmap.org/way/646016154", "josm_url": "http://127.0.0.1:8111/load_object?new_layer=false&objects=w646016154", "id_url": "https://www.openstreetmap.org/edit?editor=id&way=646016154#map=20/-25.4975139/-49.2767189"}}, {"type": "Feature", "geometry": {"type": "Point", "coordinates": [-49.2766926, -25.4976405]}, "properties": {"id": 646016156, "feat_type": "way", "quality_categories": "crossings_lacking_kerbs, missing_tags, older_than_five_years, replaceable_values", "issue_ids": "[0, 4, 2, 3]", "osm_url": "https://www.openstreetmap.org/way/646016156", "josm_url": "http://127.0.0.1:8111/load_object?new_layer=false&objects=w646016156", "id_url": "https://www.openstreetmap.org/edit?editor=id&way=646016156#map=20/-25.4976405/-49.2766926"}}, {"type": "Feature", "geometry": {"type": "Point", "coordinates": [-49.3254945, -25.5118117]}, "properties": {"id": 657750853, "feat_type": "way", "quality_categories": "crossings_lacking_kerbs, missing_tags, older_than_five_years, replaceable_values", "issue_ids": "[5, 6, 2, 3]", "osm_url": "https://www.openstreetmap.org/way/657750853", "josm_url": "http://127.0.0.1:8111/load_object?new_layer=false&objects=w657750853", "id_url": "https://www.openstreetmap.org/edit?editor=id&way=657750853#map=20/-25.5118117/-49.3254945"}}, {"type": "Feature", "geometry": {"type": "Point", "coordinates": [-49.3237236, -25.5118121]}, "properties": {"id": 657750855, "feat_type": "way", "quality_categories": "crossings_lacking_kerbs, missing_tags, older_than_five_years, replaceable_values", "issue_ids": "[5, 6, 2, 3]", "osm_url": "https://www.openstreetmap.org/way/657750855", "josm_url": "http://127.0.0.1:8111/load_object?new_layer=false&objects=w657750855", "id_url": "https://www.openstreetmap.org/edit?editor=id&way=657750855#map=20/-25.5118121/-49.3237236"}}, {"type": "Feature", "geometry": {"type": "Point", "coordinates": [-49.230303, -25.5178188]}, "properties": {"id": 659435724, "feat_type": "way", "quality_categories": "crossings_lacking_kerbs, missing_tags, older_than_five_years, replaceable_values", "issue_ids": "[5, 7, 2, 3]", "osm_url": "https://www.openstreetmap.org/way/659435724", "josm_url": "http://127.0.0.1:8111/load_object?new_layer=false&objects=w659435724", "id_url": "https://www.openstreetmap.org/edit?editor=id&way=659435724#map=20/-25.5178188/-49.230303"}}, {"type": "Feature", "geometry": {"type": "Point", "coordinates": [-49.2105263, -25.5024532]}, "properties": {"id": 663339788, "feat_type": "way", "quality_categories": "crossings_lacking_kerbs, missing_tags, older_than_five_years, replaceable_values", "issue_ids": "[5, 8, 2, 3]", "osm_url": "https://www.openstreetmap.org/way/663339788", "josm_url": "http://127.0.0.1:8111/load_object?new_layer=false&objects=w663339788", "id_url": "https://www.openstreetmap.org/edit?editor=id&way=663339788#map=20/-25.5024532/-49.2105263"}}, {"type": "Feature", "geometry": {"type": "Point", "coordinates": [-49.2107794, -25.501253]}, "properties": {"id": 663339792, "feat_type": "way", "quality_categories": "crossings_lacking_kerbs, missing_tags, older_than_five_years, replaceable_values", "issue_ids": "[5, 8, 2, 3]", "osm_url": "https://www.openstreetmap.org/way/663339792", "josm_url": "http://127.0.0.1:8111/load_object?new_layer=false&objects=w663339792", "id_url": "https://www.openstreetmap.org/edit?editor=id&way=663339792#map=20/-25.501253/-49.2107794"}}, {"type": "Feature", "geometry": {"type": "Point", "coordinates": [-49.2338736, -25.461886]}, "properties": {"id": 676395036, "feat_type": "way", "quality_categories": "crossings_lacking_kerbs, missing_tags, older_than_five_years, replaceable_values", "issue_ids": "[5, 9, 2, 3]", "osm_url": "https://www.openstreetmap.org/way/676395036", "josm_url": "http://127.0.0.1:8111/load_object?new_layer=false&objects=w676395036", "id_url": "https://www.openstreetmap.org/edit?editor=id&way=676395036#map=20/-25.461886/-49.2338736"}}, {"type": "Feature", "geometry": {"type": "Point", "coordinates": [-49.2330525, -25.3854189]}, "properties": {"id": 692641636, "feat_type": "way", "quality_categories": "crossings_lacking_kerbs, missing_tags, older_than_five_years, replaceable_values", "issue_ids": "[0, 10, 2, 3]", "osm_url": "https://www.openstreetmap.org/way/692641636", "josm_url": "http://127.0.0.1:8111/load_object?new_layer=false&objects=w692641636", "id_url": "https://www.openstreetmap.org/edit?editor=id&way=692641636#map=20/-25.3854189/-49.2330525"}}, {"type": "Feature", "geometry": {"type": "Point", "coordinates": [-49.2849405, -25.4446444]}, "properties": {"id": 738988647, "feat_type": "way", "quality_categories": "crossings_lacking_kerbs, missing_tags, older_than_five_years", "issue_ids": "[11, 2, 3]", "osm_url": "https://www.openstreetmap.org/way/738988647", "josm_url": "http://127.0.0.1:8111/load_object?new_layer=false&objects=w738988647", "id_url": "https://www.openstreetmap.org/edit?editor=id&way=738988647#map=20/-25.4446444/-49.2849405"}}, {"type": "Feature", "geometry": {"type": "Point", "coordinates": [-49.2697601, -25.4574104]}, "properties": {"id": 759294592, "feat_type": "way", "quality_categories": "crossings_lacking_kerbs, improper_keys, missing_tags, older_than_five_years", "issue_ids": "[12, 13, 2, 3]", "osm_url": "https://www.openstreetmap.org/way/759294592", "josm_url": "http://127.0.0.1:8111/load_object?new_layer=false&objects=w759294592", "id_url": "https://www.openstreetmap.org/edit?editor=id&way=759294592#map=20/-25.4574104/-49.2697601"}}, {"type": "Feature", "geometry": {"type": "Point", "coordinates": [-49.2277848, -25.460096]}, "properties": {"id": 952179489, "feat_type": "way", "quality_categories": "crossings_lacking_kerbs, missing_tags, older_than_five_years", "issue_ids": "[14, 2, 3]", "osm_url": "https://www.openstreetmap.org/way/952179489", "josm_url": "http://127.0.0.1:8111/load_object?new_layer=false&objects=w952179489", "id_url": "https://www.openstreetmap.org/edit?editor=id&way=952179489#map=20/-25.460096/-49.2277848"}}, {"type": "Feature", "geometry": {"type": "Point", "coordinates": [-49.2278626, -25.4598962]}, "properties": {"id": 952179492, "feat_type": "way", "quality_categories": "crossings_lacking_kerbs, missing_tags, older_than_five_years", "issue_ids": "[14, 2, 3]", "osm_url": "https://www.openstreetmap.org/way/952179492", "josm_url": "http://127.0.0.1:8111/load_object?new_layer=false&objects=w952179492", "id_url": "https://www.openstreetmap.org/edit?editor=id&way=952179492#map=20/-25.4598962/-49.2278626"}}, {"type": "Feature", "geometry": {"type": "Point", "coordinates": [-49.2276617, -25.4598425]}, "properties": {"id": 952179493, "feat_type": "way", "quality_categories": "crossings_lacking_kerbs, missing_tags, older_than_five_years", "issue_ids": "[14, 2, 3]", "osm_url": "https://www.openstreetmap.org/way/952179493", "josm_url": "http://127.0.0.1:8111/load_object?new_layer=false&objects=w952179493", "id_url": "https://www.openstreetmap.org/edit?editor=id&way=952179493#map=20/-25.4598425/-49.2276617"}}, {"type": "Feature", "geometry": {"type": "Point", "coordinates": [-49.2287092, -25.4597103]}, "properties": {"id": 952179494, "feat_type": "way", "quality_categories": "crossings_lacking_kerbs, missing_tags, older_than_five_years", "issue_ids": "[14, 2, 3]", "osm_url": "https://www.openstreetmap.org/way/952179494", "josm_url": "http://127.0.0.1:8111/load_object?new_layer=false&objects=w952179494", "id_url": "https://www.openstreetmap.org/edit?editor=id&way=952179494#map=20/-25.4597103/-49.2287092"}}, {"type": "Feature", "geometry": {"type": "Point", "coordinates": [-49.2293301, -25.4584327]}, "properties": {"id": 952179507, "feat_type": "way", "quality_categories": "crossings_lacking_kerbs, missing_tags, older_than_five_years", "issue_ids": "[14, 2, 3]", "osm_url": "https://www.openstreetmap.org/way/952179507", "josm_url": "http://127.0.0.1:8111/load_object?new_layer=false&objects=w952179507", "id_url": "https://www.openstreetmap.org/edit?editor=id&way=952179507#map=20/-25.4584327/-49.2293301"}}, {"type": "Feature", "geometry": {"type": "Point", "coordinates": [-49.2317517, -25.454276]}, "properties": {"id": 953197230, "feat_type": "way", "quality_categories": "crossings_lacking_kerbs, missing_tags, older_than_five_years, replaceable_values", "issue_ids": "[5, 15, 2, 3]", "osm_url": "https://www.openstreetmap.org/way/953197230", "josm_url": "http://127.0.0.1:8111/load_object?new_layer=false&objects=w953197230", "id_url": "https://www.openstreetmap.org/edit?editor=id&way=953197230#map=20/-25.454276/-49.2317517"}}, {"type": "Feature", "geometry": {"type": "Point", "coordinates": [-49.2316249, -25.4543237]}, "properties": {"id": 953197231, "feat_type": "way", "quality_categories": "crossings_lacking_kerbs, missing_tags, older_than_five_years, replaceable_values", "issue_ids": "[5, 15, 2, 3]", "osm_url": "https://www.openstreetmap.org/way/953197231", "josm_url": "http://127.0.0.1:8111/load_object?new_layer=false&objects=w953197231", "id_url": "https://www.openstreetmap.org/edit?editor=id&way=953197231#map=20/-25.4543237/-49.2316249"}}, {"type": "Feature", "geometry": {"type": "Point", "coordinates": [-49.2321719, -25.4553712]}, "properties": {"id": 953197235, "feat_type": "way", "quality_categories": "crossings_lacking_kerbs, missing_tags, older_than_five_years, replaceable_values", "issue_ids": "[5, 15, 2, 3]", "osm_url": "https://www.openstreetmap.org/way/953197235", "josm_url": "http://127.0.0.1:8111/load_object?new_layer=false&objects=w953197235", "id_url": "https://www.openstreetmap.org/edit?editor=id&way=953197235#map=20/-25.4553712/-49.2321719"}}, {"type": "Feature", "geometry": {"type": "Point", "coordinates": [-49.2356611, -25.4577123]}, "properties": {"id": 953197274, "feat_type": "way", "quality_categories": "crossings_lacking_kerbs, missing_tags, older_than_five_years", "issue_ids": "[15, 2, 3]", "osm_url": "https://www.openstreetmap.org/way/953197274", "josm_url": "http://127.0.0.1:8111/load_object?new_layer=false&objects=w953197274", "id_url": "https://www.openstreetmap.org/edit?editor=id&way=953197274#map=20/-25.4577123/-49.2356611"}}, {"type": "Feature", "geometry": {"type": "Point", "coordinates": [-49.2359479, -25.457281]}, "properties": {"id": 953197276, "feat_type": "way", "quality_categories": "crossings_lacking_kerbs, missing_tags, older_than_five_years", "issue_ids": "[15, 2, 3]", "osm_url": "https://www.openstreetmap.org/way/953197276", "josm_url": "http://127.0.0.1:8111/load_object?new_layer=false&objects=w953197276", "id_url": "https://www.openstreetmap.org/edit?editor=id&way=953197276#map=20/-25.457281/-49.2359479"}}, {"type": "Feature", "geometry": {"type": "Point", "coordinates": [-49.2354561, -25.4569661]}, "properties": {"id": 953197278, "feat_type": "way", "quality_categories": "crossings_lacking_kerbs, missing_tags, older_than_five_years", "issue_ids": "[15, 2, 3]", "osm_url": "https://www.openstreetmap.org/way/953197278", "josm_url": "http://127.0.0.1:8111/load_object?new_layer=false&objects=w953197278", "id_url": "https://www.openstreetmap.org/edit?editor=id&way=953197278#map=20/-25.4569661/-49.2354561"}}, {"type": "Feature", "geometry": {"type": "Point", "coordinates": [-49.2265694, -25.4602755]}, "properties": {"id": 953197357, "feat_type": "way", "quality_categories": "crossings_lacking_kerbs, missing_tags, older_than_five_years, replaceable_values", "issue_ids": "[5, 15, 2, 3]", "osm_url": "https://www.openstreetmap.org/way/953197357", "josm_url": "http://127.0.0.1:8111/load_object?new_layer=false&objects=w953197357", "id_url": "https://www.openstreetmap.org/edit?editor=id&way=953197357#map=20/-25.4602755/-49.2265694"}}, {"type": "Feature", "geometry": {"type": "Point", "coordinates": [-49.2267331, -25.4603453]}, "properties": {"id": 953197358, "feat_type": "way", "quality_categories": "crossings_lacking_kerbs, missing_tags, older_than_five_years, replaceable_values", "issue_ids": "[5, 15, 2, 3]", "osm_url": "https://www.openstreetmap.org/way/953197358", "josm_url": "http://127.0.0.1:8111/load_object?new_layer=false&objects=w953197358", "id_url": "https://www.openstreetmap.org/edit?editor=id&way=953197358#map=20/-25.4603453/-49.2267331"}}, {"type": "Feature", "geometry": {"type": "Point", "coordinates": [-49.2306217, -25.4614142]}, "properties": {"id": 953199153, "feat_type": "way", "quality_categories": "crossings_lacking_kerbs, missing_tags, older_than_five_years", "issue_ids": "[15, 2, 3]", "osm_url": "https://www.openstreetmap.org/way/953199153", "josm_url": "http://127.0.0.1:8111/load_object?new_layer=false&objects=w953199153", "id_url": "https://www.openstreetmap.org/edit?editor=id&way=953199153#map=20/-25.4614142/-49.2306217"}}, {"type": "Feature", "geometry": {"type": "Point", "coordinates": [-49.2299801, -25.4606452]}, "properties": {"id": 953199155, "feat_type": "way", "quality_categories": "crossings_lacking_kerbs, missing_tags, older_than_five_years", "issue_ids": "[15, 2, 3]", "osm_url": "https://www.openstreetmap.org/way/953199155", "josm_url": "http://127.0.0.1:8111/load_object?new_layer=false&objects=w953199155", "id_url": "https://www.openstreetmap.org/edit?editor=id&way=953199155#map=20/-25.4606452/-49.2299801"}}, {"type": "Feature", "geometry": {"type": "Point", "coordinates": [-49.2260589, -25.4652376]}, "properties": {"id": 953199746, "feat_type": "way", "quality_categories": "crossings_lacking_kerbs, missing_tags, older_than_five_years", "issue_ids": "[15, 2, 3]", "osm_url": "https://www.openstreetmap.org/way/953199746", "josm_url": "http://127.0.0.1:8111/load_object?new_layer=false&objects=w953199746", "id_url": "https://www.openstreetmap.org/edit?editor=id&way=953199746#map=20/-25.4652376/-49.2260589"}}, {"type": "Feature", "geometry": {"type": "Point", "coordinates": [-49.2252138, -25.4650384]}, "properties": {"id": 953199748, "feat_type": "way", "quality_categories": "crossings_lacking_kerbs, missing_tags, older_than_five_years", "issue_ids": "[15, 2, 3]", "osm_url": "https://www.openstreetmap.org/way/953199748", "josm_url": "http://127.0.0.1:8111/load_object?new_layer=false&objects=w953199748", "id_url": "https://www.openstreetmap.org/edit?editor=id&way=953199748#map=20/-25.4650384/-49.2252138"}}, {"type": "Feature", "geometry": {"type": "Point", "coordinates": [-49.2264476, -25.4638287]}, "properties": {"id": 953199756, "feat_type": "way", "quality_categories": "missing_tags, older_than_five_years", "issue_ids": "[15, 2]", "osm_url": "https://www.openstreetmap.org/way/953199756", "josm_url": "http://127.0.0.1:8111/load_object?new_layer=false&objects=w953199756", "id_url": "https://www.openstreetmap.org/edit?editor=id&way=953199756#map=20/-25.4638287/-49.2264476"}}, {"type": "Feature", "geometry": {"type": "Point", "coordinates": [-49.2265381, -25.4639747]}, "properties": {"id": 953199757, "feat_type": "way", "quality_categories": "missing_tags, older_than_five_years", "issue_ids": "[15, 2]", "osm_url": "https://www.openstreetmap.org/way/953199757", "josm_url": "http://127.0.0.1:8111/load_object?new_layer=false&objects=w953199757", "id_url": "https://www.openstreetmap.org/edit?editor=id&way=953199757#map=20/-25.4639747/-49.2265381"}}, {"type": "Feature", "geometry": {"type": "Point", "coordinates": [-49.2263357, -25.4639016]}, "properties": {"id": 953199758, "feat_type": "way", "quality_categories": "missing_tags, older_than_five_years", "issue_ids": "[15, 2]", "osm_url": "https://www.openstreetmap.org/way/953199758", "josm_url": "http://127.0.0.1:8111/load_object?new_layer=false&objects=w953199758", "id_url": "https://www.openstreetmap.org/edit?editor=id&way=953199758#map=20/-25.4639016/-49.2263357"}}, {"type": "Feature", "geometry": {"type": "Point", "coordinates": [-49.2265731, -25.4633756]}, "properties": {"id": 953199762, "feat_type": "way", "quality_categories": "missing_tags, older_than_five_years", "issue_ids": "[15, 2]", "osm_url": "https://www.openstreetmap.org/way/953199762", "josm_url": "http://127.0.0.1:8111/load_object?new_layer=false&objects=w953199762", "id_url": "https://www.openstreetmap.org/edit?editor=id&way=953199762#map=20/-25.4633756/-49.2265731"}}, {"type": "Feature", "geometry": {"type": "Point", "coordinates": [-49.2267708, -25.4654924]}, "properties": {"id": 953199764, "feat_type": "way", "quality_categories": "missing_tags, older_than_five_years", "issue_ids": "[15, 2]", "osm_url": "https://www.openstreetmap.org/way/953199764", "josm_url": "http://127.0.0.1:8111/load_object?new_layer=false&objects=w953199764", "id_url": "https://www.openstreetmap.org/edit?editor=id&way=953199764#map=20/-25.4654924/-49.2267708"}}, {"type": "Feature", "geometry": {"type": "Point", "coordinates": [-49.2253146, -25.465161]}, "properties": {"id": 953199765, "feat_type": "way", "quality_categories": "crossings_lacking_kerbs, missing_tags, older_than_five_years", "issue_ids": "[15, 2, 3]", "osm_url": "https://www.openstreetmap.org/way/953199765", "josm_url": "http://127.0.0.1:8111/load_object?new_layer=false&objects=w953199765", "id_url": "https://www.openstreetmap.org/edit?editor=id&way=953199765#map=20/-25.465161/-49.2253146"}}, {"type": "Feature", "geometry": {"type": "Point", "coordinates": [-49.225097, -25.4651115]}, "properties": {"id": 953199766, "feat_type": "way", "quality_categories": "crossings_lacking_kerbs, missing_tags, older_than_five_years", "issue_ids": "[15, 2, 3]", "osm_url": "https://www.openstreetmap.org/way/953199766", "josm_url": "http://127.0.0.1:8111/load_object?new_layer=false&objects=w953199766", "id_url": "https://www.openstreetmap.org/edit?editor=id&way=953199766#map=20/-25.4651115/-49.225097"}}, {"type": "Feature", "geometry": {"type": "Point", "coordinates": [-49.2251634, -25.4652196]}, "properties": {"id": 953199767, "feat_type": "way", "quality_categories": "crossings_lacking_kerbs, missing_tags, older_than_five_years", "issue_ids": "[15, 2, 3]", "osm_url": "https://www.openstreetmap.org/way/953199767", "josm_url": "http://127.0.0.1:8111/load_object?new_layer=false&objects=w953199767", "id_url": "https://www.openstreetmap.org/edit?editor=id&way=953199767#map=20/-25.4652196/-49.2251634"}}, {"type": "Feature", "geometry": {"type": "Point", "coordinates": [-49.2261703, -25.4653558]}, "properties": {"id": 953199770, "feat_type": "way", "quality_categories": "crossings_lacking_kerbs, missing_tags, older_than_five_years", "issue_ids": "[15, 2, 3]", "osm_url": "https://www.openstreetmap.org/way/953199770", "josm_url": "http://127.0.0.1:8111/load_object?new_layer=false&objects=w953199770", "id_url": "https://www.openstreetmap.org/edit?editor=id&way=953199770#map=20/-25.4653558/-49.2261703"}}, {"type": "Feature", "geometry": {"type": "Point", "coordinates": [-49.2259322, -25.4653016]}, "properties": {"id": 953199771, "feat_type": "way", "quality_categories": "crossings_lacking_kerbs, missing_tags, older_than_five_years", "issue_ids": "[15, 2, 3]", "osm_url": "https://www.openstreetmap.org/way/953199771", "josm_url": "http://127.0.0.1:8111/load_object?new_layer=false&objects=w953199771", "id_url": "https://www.openstreetmap.org/edit?editor=id&way=953199771#map=20/-25.4653016/-49.2259322"}}, {"type": "Feature", "geometry": {"type": "Point", "coordinates": [-49.2230782, -25.4634376]}, "properties": {"id": 953199776, "feat_type": "way", "quality_categories": "crossings_lacking_kerbs, missing_tags, older_than_five_years", "issue_ids": "[15, 2, 3]", "osm_url": "https://www.openstreetmap.org/way/953199776", "josm_url": "http://127.0.0.1:8111/load_object?new_layer=false&objects=w953199776", "id_url": "https://www.openstreetmap.org/edit?editor=id&way=953199776#map=20/-25.4634376/-49.2230782"}}, {"type": "Feature", "geometry": {"type": "Point", "coordinates": [-49.2244616, -25.4644983]}, "properties": {"id": 953199777, "feat_type": "way", "quality_categories": "crossings_lacking_kerbs, missing_tags, older_than_five_years", "issue_ids": "[15, 2, 3]", "osm_url": "https://www.openstreetmap.org/way/953199777", "josm_url": "http://127.0.0.1:8111/load_object?new_layer=false&objects=w953199777", "id_url": "https://www.openstreetmap.org/edit?editor=id&way=953199777#map=20/-25.4644983/-49.2244616"}}, {"type": "Feature", "geometry": {"type": "Point", "coordinates": [-49.2340757, -25.4700207]}, "properties": {"id": 953200034, "feat_type": "way", "quality_categories": "crossings_lacking_kerbs, missing_tags, older_than_five_years", "issue_ids": "[15, 2, 3]", "osm_url": "https://www.openstreetmap.org/way/953200034", "josm_url": "http://127.0.0.1:8111/load_object?new_layer=false&objects=w953200034", "id_url": "https://www.openstreetmap.org/edit?editor=id&way=953200034#map=20/-25.4700207/-49.2340757"}}, {"type": "Feature", "geometry": {"type": "Point", "coordinates": [-49.2333862, -25.4709574]}, "properties": {"id": 953200036, "feat_type": "way", "quality_categories": "crossings_lacking_kerbs, missing_tags, older_than_five_years", "issue_ids": "[15, 2, 3]", "osm_url": "https://www.openstreetmap.org/way/953200036", "josm_url": "http://127.0.0.1:8111/load_object?new_layer=false&objects=w953200036", "id_url": "https://www.openstreetmap.org/edit?editor=id&way=953200036#map=20/-25.4709574/-49.2333862"}}, {"type": "Feature", "geometry": {"type": "Point", "coordinates": [-49.2349263, -25.470455]}, "properties": {"id": 953200038, "feat_type": "way", "quality_categories": "crossings_lacking_kerbs, missing_tags, older_than_five_years", "issue_ids": "[15, 2, 3]", "osm_url": "https://www.openstreetmap.org/way/953200038", "josm_url": "http://127.0.0.1:8111/load_object?new_layer=false&objects=w953200038", "id_url": "https://www.openstreetmap.org/edit?editor=id&way=953200038#map=20/-25.470455/-49.2349263"}}, {"type": "Feature", "geometry": {"type": "Point", "coordinates": [-49.2341878, -25.4700124]}, "properties": {"id": 953200039, "feat_type": "way", "quality_categories": "crossings_lacking_kerbs, missing_tags, older_than_five_years", "issue_ids": "[15, 2, 3]", "osm_url": "https://www.openstreetmap.org/way/953200039", "josm_url": "http://127.0.0.1:8111/load_object?new_layer=false&objects=w953200039", "id_url": "https://www.openstreetmap.org/edit?editor=id&way=953200039#map=20/-25.4700124/-49.2341878"}}, {"type": "Feature", "geometry": {"type": "Point", "coordinates": [-49.2341499, -25.4699181]}, "properties": {"id": 953200041, "feat_type": "way", "quality_categories": "crossings_lacking_kerbs, missing_tags, older_than_five_years", "issue_ids": "[15, 2, 3]", "osm_url": "https://www.openstreetmap.org/way/953200041", "josm_url": "http://127.0.0.1:8111/load_object?new_layer=false&objects=w953200041", "id_url": "https://www.openstreetmap.org/edit?editor=id&way=953200041#map=20/-25.4699181/-49.2341499"}}, {"type": "Feature", "geometry": {"type": "Point", "coordinates": [-49.2348601, -25.4689263]}, "properties": {"id": 953200042, "feat_type": "way", "quality_categories": "crossings_lacking_kerbs, missing_tags, older_than_five_years", "issue_ids": "[15, 2, 3]", "osm_url": "https://www.openstreetmap.org/way/953200042", "josm_url": "http://127.0.0.1:8111/load_object?new_layer=false&objects=w953200042", "id_url": "https://www.openstreetmap.org/edit?editor=id&way=953200042#map=20/-25.4689263/-49.2348601"}}, {"type": "Feature", "geometry": {"type": "Point", "coordinates": [-49.2341304, -25.4683436]}, "properties": {"id": 953200044, "feat_type": "way", "quality_categories": "crossings_lacking_kerbs, missing_tags, older_than_five_years", "issue_ids": "[15, 2, 3]", "osm_url": "https://www.openstreetmap.org/way/953200044", "josm_url": "http://127.0.0.1:8111/load_object?new_layer=false&objects=w953200044", "id_url": "https://www.openstreetmap.org/edit?editor=id&way=953200044#map=20/-25.4683436/-49.2341304"}}, {"type": "Feature", "geometry": {"type": "Point", "coordinates": [-49.234849, -25.4687749]}, "properties": {"id": 953200045, "feat_type": "way", "quality_categories": "crossings_lacking_kerbs, missing_tags, older_than_five_years", "issue_ids": "[15, 2, 3]", "osm_url": "https://www.openstreetmap.org/way/953200045", "josm_url": "http://127.0.0.1:8111/load_object?new_layer=false&objects=w953200045", "id_url": "https://www.openstreetmap.org/edit?editor=id&way=953200045#map=20/-25.4687749/-49.234849"}}, {"type": "Feature", "geometry": {"type": "Point", "coordinates": [-49.2340604, -25.469936]}, "properties": {"id": 953200046, "feat_type": "way", "quality_categories": "crossings_lacking_kerbs, missing_tags, older_than_five_years", "issue_ids": "[15, 2, 3]", "osm_url": "https://www.openstreetmap.org/way/953200046", "josm_url": "http://127.0.0.1:8111/load_object?new_layer=false&objects=w953200046", "id_url": "https://www.openstreetmap.org/edit?editor=id&way=953200046#map=20/-25.469936/-49.2340604"}}, {"type": "Feature", "geometry": {"type": "Point", "coordinates": [-49.23327, -25.4694622]}, "properties": {"id": 953200047, "feat_type": "way", "quality_categories": "crossings_lacking_kerbs, missing_tags, older_than_five_years", "issue_ids": "[15, 2, 3]", "osm_url": "https://www.openstreetmap.org/way/953200047", "josm_url": "http://127.0.0.1:8111/load_object?new_layer=false&objects=w953200047", "id_url": "https://www.openstreetmap.org/edit?editor=id&way=953200047#map=20/-25.4694622/-49.23327"}}, {"type": "Feature", "geometry": {"type": "Point", "coordinates": [-49.2331552, -25.4693934]}, "properties": {"id": 953200050, "feat_type": "way", "quality_categories": "crossings_lacking_kerbs, missing_tags, older_than_five_years", "issue_ids": "[15, 2, 3]", "osm_url": "https://www.openstreetmap.org/way/953200050", "josm_url": "http://127.0.0.1:8111/load_object?new_layer=false&objects=w953200050", "id_url": "https://www.openstreetmap.org/edit?editor=id&way=953200050#map=20/-25.4693934/-49.2331552"}}, {"type": "Feature", "geometry": {"type": "Point", "coordinates": [-49.2332535, -25.46938]}, "properties": {"id": 953200051, "feat_type": "way", "quality_categories": "crossings_lacking_kerbs, missing_tags, older_than_five_years", "issue_ids": "[15, 2, 3]", "osm_url": "https://www.openstreetmap.org/way/953200051", "josm_url": "http://127.0.0.1:8111/load_object?new_layer=false&objects=w953200051", "id_url": "https://www.openstreetmap.org/edit?editor=id&way=953200051#map=20/-25.46938/-49.2332535"}}, {"type": "Feature", "geometry": {"type": "Point", "coordinates": [-49.2331615, -25.4694998]}, "properties": {"id": 953200052, "feat_type": "way", "quality_categories": "crossings_lacking_kerbs, missing_tags, older_than_five_years", "issue_ids": "[15, 2, 3]", "osm_url": "https://www.openstreetmap.org/way/953200052", "josm_url": "http://127.0.0.1:8111/load_object?new_layer=false&objects=w953200052", "id_url": "https://www.openstreetmap.org/edit?editor=id&way=953200052#map=20/-25.4694998/-49.2331615"}}, {"type": "Feature", "geometry": {"type": "Point", "coordinates": [-49.2341065, -25.468252]}, "properties": {"id": 953200055, "feat_type": "way", "quality_categories": "crossings_lacking_kerbs, missing_tags, older_than_five_years", "issue_ids": "[15, 2, 3]", "osm_url": "https://www.openstreetmap.org/way/953200055", "josm_url": "http://127.0.0.1:8111/load_object?new_layer=false&objects=w953200055", "id_url": "https://www.openstreetmap.org/edit?editor=id&way=953200055#map=20/-25.468252/-49.2341065"}}, {"type": "Feature", "geometry": {"type": "Point", "coordinates": [-49.2339986, -25.4682645]}, "properties": {"id": 953200056, "feat_type": "way", "quality_categories": "crossings_lacking_kerbs, missing_tags, older_than_five_years", "issue_ids": "[15, 2, 3]", "osm_url": "https://www.openstreetmap.org/way/953200056", "josm_url": "http://127.0.0.1:8111/load_object?new_layer=false&objects=w953200056", "id_url": "https://www.openstreetmap.org/edit?editor=id&way=953200056#map=20/-25.4682645/-49.2339986"}}, {"type": "Feature", "geometry": {"type": "Point", "coordinates": [-49.2340153, -25.4683772]}, "properties": {"id": 953200057, "feat_type": "way", "quality_categories": "crossings_lacking_kerbs, missing_tags, older_than_five_years", "issue_ids": "[15, 2, 3]", "osm_url": "https://www.openstreetmap.org/way/953200057", "josm_url": "http://127.0.0.1:8111/load_object?new_layer=false&objects=w953200057", "id_url": "https://www.openstreetmap.org/edit?editor=id&way=953200057#map=20/-25.4683772/-49.2340153"}}, {"type": "Feature", "geometry": {"type": "Point", "coordinates": [-49.2315572, -25.4651545]}, "properties": {"id": 953200480, "feat_type": "way", "quality_categories": "crossings_lacking_kerbs, missing_tags, older_than_five_years, replaceable_values", "issue_ids": "[5, 15, 2, 3]", "osm_url": "https://www.openstreetmap.org/way/953200480", "josm_url": "http://127.0.0.1:8111/load_object?new_layer=false&objects=w953200480", "id_url": "https://www.openstreetmap.org/edit?editor=id&way=953200480#map=20/-25.4651545/-49.2315572"}}, {"type": "Feature", "geometry": {"type": "Point", "coordinates": [-49.2289851, -25.4684775]}, "properties": {"id": 953202359, "feat_type": "way", "quality_categories": "crossings_lacking_kerbs, missing_tags, older_than_five_years", "issue_ids": "[16, 2, 3]", "osm_url": "https://www.openstreetmap.org/way/953202359", "josm_url": "http://127.0.0.1:8111/load_object?new_layer=false&objects=w953202359", "id_url": "https://www.openstreetmap.org/edit?editor=id&way=953202359#map=20/-25.4684775/-49.2289851"}}, {"type": "Feature", "geometry": {"type": "Point", "coordinates": [-49.2291945, -25.4699929]}, "properties": {"id": 953202363, "feat_type": "way", "quality_categories": "missing_tags, older_than_five_years", "issue_ids": "[16, 2]", "osm_url": "https://www.openstreetmap.org/way/953202363", "josm_url": "http://127.0.0.1:8111/load_object?new_layer=false&objects=w953202363", "id_url": "https://www.openstreetmap.org/edit?editor=id&way=953202363#map=20/-25.4699929/-49.2291945"}}, {"type": "Feature", "geometry": {"type": "Point", "coordinates": [-49.2290824, -25.468344]}, "properties": {"id": 953202370, "feat_type": "way", "quality_categories": "crossings_lacking_kerbs, missing_tags, older_than_five_years", "issue_ids": "[16, 2, 3]", "osm_url": "https://www.openstreetmap.org/way/953202370", "josm_url": "http://127.0.0.1:8111/load_object?new_layer=false&objects=w953202370", "id_url": "https://www.openstreetmap.org/edit?editor=id&way=953202370#map=20/-25.468344/-49.2290824"}}, {"type": "Feature", "geometry": {"type": "Point", "coordinates": [-49.229195, -25.4701445]}, "properties": {"id": 953202374, "feat_type": "way", "quality_categories": "missing_tags, older_than_five_years", "issue_ids": "[16, 2]", "osm_url": "https://www.openstreetmap.org/way/953202374", "josm_url": "http://127.0.0.1:8111/load_object?new_layer=false&objects=w953202374", "id_url": "https://www.openstreetmap.org/edit?editor=id&way=953202374#map=20/-25.4701445/-49.229195"}}, {"type": "Feature", "geometry": {"type": "Point", "coordinates": [-49.2293313, -25.4701107]}, "properties": {"id": 953202378, "feat_type": "way", "quality_categories": "missing_tags, older_than_five_years", "issue_ids": "[16, 2]", "osm_url": "https://www.openstreetmap.org/way/953202378", "josm_url": "http://127.0.0.1:8111/load_object?new_layer=false&objects=w953202378", "id_url": "https://www.openstreetmap.org/edit?editor=id&way=953202378#map=20/-25.4701107/-49.2293313"}}, {"type": "Feature", "geometry": {"type": "Point", "coordinates": [-49.2293145, -25.4699803]}, "properties": {"id": 953202379, "feat_type": "way", "quality_categories": "missing_tags, older_than_five_years", "issue_ids": "[16, 2]", "osm_url": "https://www.openstreetmap.org/way/953202379", "josm_url": "http://127.0.0.1:8111/load_object?new_layer=false&objects=w953202379", "id_url": "https://www.openstreetmap.org/edit?editor=id&way=953202379#map=20/-25.4699803/-49.2293145"}}, {"type": "Feature", "geometry": {"type": "Point", "coordinates": [-49.2307101, -25.468065]}, "properties": {"id": 953202380, "feat_type": "way", "quality_categories": "crossings_lacking_kerbs, missing_tags, older_than_five_years", "issue_ids": "[16, 2, 3]", "osm_url": "https://www.openstreetmap.org/way/953202380", "josm_url": "http://127.0.0.1:8111/load_object?new_layer=false&objects=w953202380", "id_url": "https://www.openstreetmap.org/edit?editor=id&way=953202380#map=20/-25.468065/-49.2307101"}}, {"type": "Feature", "geometry": {"type": "Point", "coordinates": [-49.2268943, -25.4713487]}, "properties": {"id": 954761087, "feat_type": "way", "quality_categories": "older_than_five_years", "issue_ids": "[17]", "osm_url": "https://www.openstreetmap.org/way/954761087", "josm_url": "http://127.0.0.1:8111/load_object?new_layer=false&objects=w954761087", "id_url": "https://www.openstreetmap.org/edit?editor=id&way=954761087#map=20/-25.4713487/-49.2268943"}}, {"type": "Feature", "geometry": {"type": "Point", "coordinates": [-49.2275012, -25.4705153]}, "properties": {"id": 954761088, "feat_type": "way", "quality_categories": "older_than_five_years", "issue_ids": "[17]", "osm_url": "https://www.openstreetmap.org/way/954761088", "josm_url": "http://127.0.0.1:8111/load_object?new_layer=false&objects=w954761088", "id_url": "https://www.openstreetmap.org/edit?editor=id&way=954761088#map=20/-25.4705153/-49.2275012"}}, {"type": "Feature", "geometry": {"type": "Point", "coordinates": [-49.2278919, -25.4719348]}, "properties": {"id": 954761094, "feat_type": "way", "quality_categories": "older_than_five_years", "issue_ids": "[17]", "osm_url": "https://www.openstreetmap.org/way/954761094", "josm_url": "http://127.0.0.1:8111/load_object?new_layer=false&objects=w954761094", "id_url": "https://www.openstreetmap.org/edit?editor=id&way=954761094#map=20/-25.4719348/-49.2278919"}}, {"type": "Feature", "geometry": {"type": "Point", "coordinates": [-49.2279329, -25.4720463]}, "properties": {"id": 954761096, "feat_type": "way", "quality_categories": "older_than_five_years", "issue_ids": "[17]", "osm_url": "https://www.openstreetmap.org/way/954761096", "josm_url": "http://127.0.0.1:8111/load_object?new_layer=false&objects=w954761096", "id_url": "https://www.openstreetmap.org/edit?editor=id&way=954761096#map=20/-25.4720463/-49.2279329"}}, {"type": "Feature", "geometry": {"type": "Point", "coordinates": [-49.2277582, -25.4719408]}, "properties": {"id": 954761099, "feat_type": "way", "quality_categories": "older_than_five_years", "issue_ids": "[18]", "osm_url": "https://www.openstreetmap.org/way/954761099", "josm_url": "http://127.0.0.1:8111/load_object?new_layer=false&objects=w954761099", "id_url": "https://www.openstreetmap.org/edit?editor=id&way=954761099#map=20/-25.4719408/-49.2277582"}}, {"type": "Feature", "geometry": {"type": "Point", "coordinates": [-49.2277789, -25.4720902]}, "properties": {"id": 954761100, "feat_type": "way", "quality_categories": "older_than_five_years", "issue_ids": "[17]", "osm_url": "https://www.openstreetmap.org/way/954761100", "josm_url": "http://127.0.0.1:8111/load_object?new_layer=false&objects=w954761100", "id_url": "https://www.openstreetmap.org/edit?editor=id&way=954761100#map=20/-25.4720902/-49.2277789"}}, {"type": "Feature", "geometry": {"type": "Point", "coordinates": [-49.2269439, -25.471449]}, "properties": {"id": 954761101, "feat_type": "way", "quality_categories": "older_than_five_years", "issue_ids": "[17]", "osm_url": "https://www.openstreetmap.org/way/954761101", "josm_url": "http://127.0.0.1:8111/load_object?new_layer=false&objects=w954761101", "id_url": "https://www.openstreetmap.org/edit?editor=id&way=954761101#map=20/-25.471449/-49.2269439"}}, {"type": "Feature", "geometry": {"type": "Point", "coordinates": [-49.2243774, -25.4680448]}, "properties": {"id": 955077698, "feat_type": "way", "quality_categories": "crossings_lacking_kerbs, missing_tags, older_than_five_years", "issue_ids": "[19, 2, 3]", "osm_url": "https://www.openstreetmap.org/way/955077698", "josm_url": "http://127.0.0.1:8111/load_object?new_layer=false&objects=w955077698", "id_url": "https://www.openstreetmap.org/edit?editor=id&way=955077698#map=20/-25.4680448/-49.2243774"}}, {"type": "Feature", "geometry": {"type": "Point", "coordinates": [-49.2264371, -25.4678867]}, "properties": {"id": 955077701, "feat_type": "way", "quality_categories": "crossings_lacking_kerbs, missing_tags, older_than_five_years", "issue_ids": "[19, 2, 3]", "osm_url": "https://www.openstreetmap.org/way/955077701", "josm_url": "http://127.0.0.1:8111/load_object?new_layer=false&objects=w955077701", "id_url": "https://www.openstreetmap.org/edit?editor=id&way=955077701#map=20/-25.4678867/-49.2264371"}}, {"type": "Feature", "geometry": {"type": "Point", "coordinates": [-49.2236169, -25.4678626]}, "properties": {"id": 955086493, "feat_type": "way", "quality_categories": "crossings_lacking_kerbs, missing_tags, older_than_five_years", "issue_ids": "[19, 2, 3]", "osm_url": "https://www.openstreetmap.org/way/955086493", "josm_url": "http://127.0.0.1:8111/load_object?new_layer=false&objects=w955086493", "id_url": "https://www.openstreetmap.org/edit?editor=id&way=955086493#map=20/-25.4678626/-49.2236169"}}, {"type": "Feature", "geometry": {"type": "Point", "coordinates": [-49.2235122, -25.4679308]}, "properties": {"id": 955086494, "feat_type": "way", "quality_categories": "crossings_lacking_kerbs, missing_tags, older_than_five_years", "issue_ids": "[19, 2, 3]", "osm_url": "https://www.openstreetmap.org/way/955086494", "josm_url": "http://127.0.0.1:8111/load_object?new_layer=false&objects=w955086494", "id_url": "https://www.openstreetmap.org/edit?editor=id&way=955086494#map=20/-25.4679308/-49.2235122"}}, {"type": "Feature", "geometry": {"type": "Point", "coordinates": [-49.2235555, -25.4677745]}, "properties": {"id": 955086495, "feat_type": "way", "quality_categories": "crossings_lacking_kerbs, missing_tags, older_than_five_years", "issue_ids": "[19, 2, 3]", "osm_url": "https://www.openstreetmap.org/way/955086495", "josm_url": "http://127.0.0.1:8111/load_object?new_layer=false&objects=w955086495", "id_url": "https://www.openstreetmap.org/edit?editor=id&way=955086495#map=20/-25.4677745/-49.2235555"}}, {"type": "Feature", "geometry": {"type": "Point", "coordinates": [-49.2239853, -25.4665025]}, "properties": {"id": 955086496, "feat_type": "way", "quality_categories": "missing_tags, older_than_five_years", "issue_ids": "[19, 2]", "osm_url": "https://www.openstreetmap.org/way/955086496", "josm_url": "http://127.0.0.1:8111/load_object?new_layer=false&objects=w955086496", "id_url": "https://www.openstreetmap.org/edit?editor=id&way=955086496#map=20/-25.4665025/-49.2239853"}}, {"type": "Feature", "geometry": {"type": "Point", "coordinates": [-49.2238842, -25.4665861]}, "properties": {"id": 955086497, "feat_type": "way", "quality_categories": "missing_tags, older_than_five_years", "issue_ids": "[20, 2]", "osm_url": "https://www.openstreetmap.org/way/955086497", "josm_url": "http://127.0.0.1:8111/load_object?new_layer=false&objects=w955086497", "id_url": "https://www.openstreetmap.org/edit?editor=id&way=955086497#map=20/-25.4665861/-49.2238842"}}, {"type": "Feature", "geometry": {"type": "Point", "coordinates": [-49.2239297, -25.4664215]}, "properties": {"id": 955086498, "feat_type": "way", "quality_categories": "missing_tags, older_than_five_years", "issue_ids": "[19, 2]", "osm_url": "https://www.openstreetmap.org/way/955086498", "josm_url": "http://127.0.0.1:8111/load_object?new_layer=false&objects=w955086498", "id_url": "https://www.openstreetmap.org/edit?editor=id&way=955086498#map=20/-25.4664215/-49.2239297"}}, {"type": "Feature", "geometry": {"type": "Point", "coordinates": [-49.2237923, -25.4664579]}, "properties": {"id": 955086499, "feat_type": "way", "quality_categories": "missing_tags, older_than_five_years", "issue_ids": "[19, 2]", "osm_url": "https://www.openstreetmap.org/way/955086499", "josm_url": "http://127.0.0.1:8111/load_object?new_layer=false&objects=w955086499", "id_url": "https://www.openstreetmap.org/edit?editor=id&way=955086499#map=20/-25.4664579/-49.2237923"}}, {"type": "Feature", "geometry": {"type": "Point", "coordinates": [-49.2342719, -25.4559944]}, "properties": {"id": 955446113, "feat_type": "way", "quality_categories": "crossings_lacking_kerbs, missing_tags, older_than_five_years", "issue_ids": "[21, 2, 3]", "osm_url": "https://www.openstreetmap.org/way/955446113", "josm_url": "http://127.0.0.1:8111/load_object?new_layer=false&objects=w955446113", "id_url": "https://www.openstreetmap.org/edit?editor=id&way=955446113#map=20/-25.4559944/-49.2342719"}}, {"type": "Feature", "geometry": {"type": "Point", "coordinates": [-49.2336797, -25.4562176]}, "properties": {"id": 955446114, "feat_type": "way", "quality_categories": "crossings_lacking_kerbs, missing_tags, older_than_five_years", "issue_ids": "[21, 2, 3]", "osm_url": "https://www.openstreetmap.org/way/955446114", "josm_url": "http://127.0.0.1:8111/load_object?new_layer=false&objects=w955446114", "id_url": "https://www.openstreetmap.org/edit?editor=id&way=955446114#map=20/-25.4562176/-49.2336797"}}, {"type": "Feature", "geometry": {"type": "Point", "coordinates": [-49.2266736, -25.4633185]}, "properties": {"id": 955847250, "feat_type": "way", "quality_categories": "missing_tags, older_than_five_years", "issue_ids": "[22, 2]", "osm_url": "https://www.openstreetmap.org/way/955847250", "josm_url": "http://127.0.0.1:8111/load_object?new_layer=false&objects=w955847250", "id_url": "https://www.openstreetmap.org/edit?editor=id&way=955847250#map=20/-25.4633185/-49.2266736"}}, {"type": "Feature", "geometry": {"type": "Point", "coordinates": [-49.2265367, -25.4632873]}, "properties": {"id": 955847251, "feat_type": "way", "quality_categories": "missing_tags, older_than_five_years", "issue_ids": "[22, 2]", "osm_url": "https://www.openstreetmap.org/way/955847251", "josm_url": "http://127.0.0.1:8111/load_object?new_layer=false&objects=w955847251", "id_url": "https://www.openstreetmap.org/edit?editor=id&way=955847251#map=20/-25.4632873/-49.2265367"}}, {"type": "Feature", "geometry": {"type": "Point", "coordinates": [-49.2274618, -25.4633936]}, "properties": {"id": 955847257, "feat_type": "way", "quality_categories": "missing_tags, older_than_five_years", "issue_ids": "[22, 2]", "osm_url": "https://www.openstreetmap.org/way/955847257", "josm_url": "http://127.0.0.1:8111/load_object?new_layer=false&objects=w955847257", "id_url": "https://www.openstreetmap.org/edit?editor=id&way=955847257#map=20/-25.4633936/-49.2274618"}}, {"type": "Feature", "geometry": {"type": "Point", "coordinates": [-49.2270623, -25.4616032]}, "properties": {"id": 955847258, "feat_type": "way", "quality_categories": "missing_tags, older_than_five_years", "issue_ids": "[22, 2]", "osm_url": "https://www.openstreetmap.org/way/955847258", "josm_url": "http://127.0.0.1:8111/load_object?new_layer=false&objects=w955847258", "id_url": "https://www.openstreetmap.org/edit?editor=id&way=955847258#map=20/-25.4616032/-49.2270623"}}, {"type": "Feature", "geometry": {"type": "Point", "coordinates": [-49.2317833, -25.4597128]}, "properties": {"id": 957990296, "feat_type": "way", "quality_categories": "crossings_lacking_kerbs, missing_tags, older_than_five_years", "issue_ids": "[23, 2, 3]", "osm_url": "https://www.openstreetmap.org/way/957990296", "josm_url": "http://127.0.0.1:8111/load_object?new_layer=false&objects=w957990296", "id_url": "https://www.openstreetmap.org/edit?editor=id&way=957990296#map=20/-25.4597128/-49.2317833"}}, {"type": "Feature", "geometry": {"type": "Point", "coordinates": [-49.2320436, -25.4596104]}, "properties": {"id": 957990305, "feat_type": "way", "quality_categories": "crossings_lacking_kerbs, missing_tags, older_than_five_years", "issue_ids": "[23, 2, 3]", "osm_url": "https://www.openstreetmap.org/way/957990305", "josm_url": "http://127.0.0.1:8111/load_object?new_layer=false&objects=w957990305", "id_url": "https://www.openstreetmap.org/edit?editor=id&way=957990305#map=20/-25.4596104/-49.2320436"}}, {"type": "Feature", "geometry": {"type": "Point", "coordinates": [-49.2310808, -25.460145]}, "properties": {"id": 957990317, "feat_type": "way", "quality_categories": "crossings_lacking_kerbs, missing_tags, older_than_five_years", "issue_ids": "[23, 2, 3]", "osm_url": "https://www.openstreetmap.org/way/957990317", "josm_url": "http://127.0.0.1:8111/load_object?new_layer=false&objects=w957990317", "id_url": "https://www.openstreetmap.org/edit?editor=id&way=957990317#map=20/-25.460145/-49.2310808"}}, {"type": "Feature", "geometry": {"type": "Point", "coordinates": [-49.2298436, -25.4604759]}, "properties": {"id": 957990321, "feat_type": "way", "quality_categories": "crossings_lacking_kerbs, missing_tags, older_than_five_years", "issue_ids": "[23, 2, 3]", "osm_url": "https://www.openstreetmap.org/way/957990321", "josm_url": "http://127.0.0.1:8111/load_object?new_layer=false&objects=w957990321", "id_url": "https://www.openstreetmap.org/edit?editor=id&way=957990321#map=20/-25.4604759/-49.2298436"}}, {"type": "Feature", "geometry": {"type": "Point", "coordinates": [-49.2301539, -25.4705717]}, "properties": {"id": 958015405, "feat_type": "way", "quality_categories": "missing_tags, older_than_five_years", "issue_ids": "[23, 2]", "osm_url": "https://www.openstreetmap.org/way/958015405", "josm_url": "http://127.0.0.1:8111/load_object?new_layer=false&objects=w958015405", "id_url": "https://www.openstreetmap.org/edit?editor=id&way=958015405#map=20/-25.4705717/-49.2301539"}}, {"type": "Feature", "geometry": {"type": "Point", "coordinates": [-49.226798, -25.4734377]}, "properties": {"id": 958624053, "feat_type": "way", "quality_categories": "missing_tags, older_than_five_years", "issue_ids": "[24, 2]", "osm_url": "https://www.openstreetmap.org/way/958624053", "josm_url": "http://127.0.0.1:8111/load_object?new_layer=false&objects=w958624053", "id_url": "https://www.openstreetmap.org/edit?editor=id&way=958624053#map=20/-25.4734377/-49.226798"}}, {"type": "Feature", "geometry": {"type": "Point", "coordinates": [-49.22681, -25.4715171]}, "properties": {"id": 960107182, "feat_type": "way", "quality_categories": "crossings_lacking_kerbs, missing_tags, older_than_five_years", "issue_ids": "[25, 2, 3]", "osm_url": "https://www.openstreetmap.org/way/960107182", "josm_url": "http://127.0.0.1:8111/load_object?new_layer=false&objects=w960107182", "id_url": "https://www.openstreetmap.org/edit?editor=id&way=960107182#map=20/-25.4715171/-49.22681"}}, {"type": "Feature", "geometry": {"type": "Point", "coordinates": [-49.2265809, -25.4735025]}, "properties": {"id": 960107185, "feat_type": "way", "quality_categories": "missing_tags, older_than_five_years", "issue_ids": "[18, 2]", "osm_url": "https://www.openstreetmap.org/way/960107185", "josm_url": "http://127.0.0.1:8111/load_object?new_layer=false&objects=w960107185", "id_url": "https://www.openstreetmap.org/edit?editor=id&way=960107185#map=20/-25.4735025/-49.2265809"}}, {"type": "Feature", "geometry": {"type": "Point", "coordinates": [-49.2266837, -25.4735993]}, "properties": {"id": 960107187, "feat_type": "way", "quality_categories": "crossings_lacking_kerbs, missing_tags, older_than_five_years", "issue_ids": "[25, 2, 3]", "osm_url": "https://www.openstreetmap.org/way/960107187", "josm_url": "http://127.0.0.1:8111/load_object?new_layer=false&objects=w960107187", "id_url": "https://www.openstreetmap.org/edit?editor=id&way=960107187#map=20/-25.4735993/-49.2266837"}}, {"type": "Feature", "geometry": {"type": "Point", "coordinates": [-49.2268689, -25.4735525]}, "properties": {"id": 960107188, "feat_type": "way", "quality_categories": "missing_tags, older_than_five_years", "issue_ids": "[18, 2]", "osm_url": "https://www.openstreetmap.org/way/960107188", "josm_url": "http://127.0.0.1:8111/load_object?new_layer=false&objects=w960107188", "id_url": "https://www.openstreetmap.org/edit?editor=id&way=960107188#map=20/-25.4735525/-49.2268689"}}, {"type": "Feature", "geometry": {"type": "Point", "coordinates": [-49.2256498, -25.4706674]}, "properties": {"id": 960107190, "feat_type": "way", "quality_categories": "crossings_lacking_kerbs, missing_tags, older_than_five_years", "issue_ids": "[25, 2, 3]", "osm_url": "https://www.openstreetmap.org/way/960107190", "josm_url": "http://127.0.0.1:8111/load_object?new_layer=false&objects=w960107190", "id_url": "https://www.openstreetmap.org/edit?editor=id&way=960107190#map=20/-25.4706674/-49.2256498"}}, {"type": "Feature", "geometry": {"type": "Point", "coordinates": [-49.2255056, -25.4706761]}, "properties": {"id": 960107191, "feat_type": "way", "quality_categories": "crossings_lacking_kerbs, missing_tags, older_than_five_years", "issue_ids": "[25, 2, 3]", "osm_url": "https://www.openstreetmap.org/way/960107191", "josm_url": "http://127.0.0.1:8111/load_object?new_layer=false&objects=w960107191", "id_url": "https://www.openstreetmap.org/edit?editor=id&way=960107191#map=20/-25.4706761/-49.2255056"}}, {"type": "Feature", "geometry": {"type": "Point", "coordinates": [-49.2305549, -25.466326]}, "properties": {"id": 960112722, "feat_type": "way", "quality_categories": "crossings_lacking_kerbs, missing_tags, older_than_five_years", "issue_ids": "[25, 2, 3]", "osm_url": "https://www.openstreetmap.org/way/960112722", "josm_url": "http://127.0.0.1:8111/load_object?new_layer=false&objects=w960112722", "id_url": "https://www.openstreetmap.org/edit?editor=id&way=960112722#map=20/-25.466326/-49.2305549"}}, {"type": "Feature", "geometry": {"type": "Point", "coordinates": [-49.2305348, -25.4661855]}, "properties": {"id": 960112723, "feat_type": "way", "quality_categories": "crossings_lacking_kerbs, missing_tags, older_than_five_years", "issue_ids": "[25, 2, 3]", "osm_url": "https://www.openstreetmap.org/way/960112723", "josm_url": "http://127.0.0.1:8111/load_object?new_layer=false&objects=w960112723", "id_url": "https://www.openstreetmap.org/edit?editor=id&way=960112723#map=20/-25.4661855/-49.2305348"}}, {"type": "Feature", "geometry": {"type": "Point", "coordinates": [-49.2306744, -25.4661576]}, "properties": {"id": 960112724, "feat_type": "way", "quality_categories": "crossings_lacking_kerbs, missing_tags, older_than_five_years", "issue_ids": "[25, 2, 3]", "osm_url": "https://www.openstreetmap.org/way/960112724", "josm_url": "http://127.0.0.1:8111/load_object?new_layer=false&objects=w960112724", "id_url": "https://www.openstreetmap.org/edit?editor=id&way=960112724#map=20/-25.4661576/-49.2306744"}}, {"type": "Feature", "geometry": {"type": "Point", "coordinates": [-49.2307254, -25.4662998]}, "properties": {"id": 960112725, "feat_type": "way", "quality_categories": "crossings_lacking_kerbs, missing_tags, older_than_five_years", "issue_ids": "[25, 2, 3]", "osm_url": "https://www.openstreetmap.org/way/960112725", "josm_url": "http://127.0.0.1:8111/load_object?new_layer=false&objects=w960112725", "id_url": "https://www.openstreetmap.org/edit?editor=id&way=960112725#map=20/-25.4662998/-49.2307254"}}, {"type": "Feature", "geometry": {"type": "Point", "coordinates": [-49.2315063, -25.4667686]}, "properties": {"id": 960112726, "feat_type": "way", "quality_categories": "crossings_lacking_kerbs, missing_tags, older_than_five_years", "issue_ids": "[25, 2, 3]", "osm_url": "https://www.openstreetmap.org/way/960112726", "josm_url": "http://127.0.0.1:8111/load_object?new_layer=false&objects=w960112726", "id_url": "https://www.openstreetmap.org/edit?editor=id&way=960112726#map=20/-25.4667686/-49.2315063"}}, {"type": "Feature", "geometry": {"type": "Point", "coordinates": [-49.2316726, -25.4667404]}, "properties": {"id": 960112727, "feat_type": "way", "quality_categories": "crossings_lacking_kerbs, missing_tags, older_than_five_years", "issue_ids": "[25, 2, 3]", "osm_url": "https://www.openstreetmap.org/way/960112727", "josm_url": "http://127.0.0.1:8111/load_object?new_layer=false&objects=w960112727", "id_url": "https://www.openstreetmap.org/edit?editor=id&way=960112727#map=20/-25.4667404/-49.2316726"}}, {"type": "Feature", "geometry": {"type": "Point", "coordinates": [-49.2308554, -25.4680151]}, "properties": {"id": 960112729, "feat_type": "way", "quality_categories": "crossings_lacking_kerbs, missing_tags, older_than_five_years", "issue_ids": "[25, 2, 3]", "osm_url": "https://www.openstreetmap.org/way/960112729", "josm_url": "http://127.0.0.1:8111/load_object?new_layer=false&objects=w960112729", "id_url": "https://www.openstreetmap.org/edit?editor=id&way=960112729#map=20/-25.4680151/-49.2308554"}}, {"type": "Feature", "geometry": {"type": "Point", "coordinates": [-49.2316715, -25.4668677]}, "properties": {"id": 960112731, "feat_type": "way", "quality_categories": "crossings_lacking_kerbs, missing_tags, older_than_five_years", "issue_ids": "[25, 2, 3]", "osm_url": "https://www.openstreetmap.org/way/960112731", "josm_url": "http://127.0.0.1:8111/load_object?new_layer=false&objects=w960112731", "id_url": "https://www.openstreetmap.org/edit?editor=id&way=960112731#map=20/-25.4668677/-49.2316715"}}, {"type": "Feature", "geometry": {"type": "Point", "coordinates": [-49.231547, -25.466913]}, "properties": {"id": 960112732, "feat_type": "way", "quality_categories": "crossings_lacking_kerbs, missing_tags, older_than_five_years", "issue_ids": "[25, 2, 3]", "osm_url": "https://www.openstreetmap.org/way/960112732", "josm_url": "http://127.0.0.1:8111/load_object?new_layer=false&objects=w960112732", "id_url": "https://www.openstreetmap.org/edit?editor=id&way=960112732#map=20/-25.466913/-49.231547"}}, {"type": "Feature", "geometry": {"type": "Point", "coordinates": [-49.2325259, -25.4657382]}, "properties": {"id": 960112733, "feat_type": "way", "quality_categories": "crossings_lacking_kerbs, missing_tags, older_than_five_years", "issue_ids": "[25, 2, 3]", "osm_url": "https://www.openstreetmap.org/way/960112733", "josm_url": "http://127.0.0.1:8111/load_object?new_layer=false&objects=w960112733", "id_url": "https://www.openstreetmap.org/edit?editor=id&way=960112733#map=20/-25.4657382/-49.2325259"}}, {"type": "Feature", "geometry": {"type": "Point", "coordinates": [-49.2323729, -25.4657781]}, "properties": {"id": 960112734, "feat_type": "way", "quality_categories": "crossings_lacking_kerbs, missing_tags, older_than_five_years", "issue_ids": "[25, 2, 3]", "osm_url": "https://www.openstreetmap.org/way/960112734", "josm_url": "http://127.0.0.1:8111/load_object?new_layer=false&objects=w960112734", "id_url": "https://www.openstreetmap.org/edit?editor=id&way=960112734#map=20/-25.4657781/-49.2323729"}}, {"type": "Feature", "geometry": {"type": "Point", "coordinates": [-49.228293, -25.4615891]}, "properties": {"id": 960901471, "feat_type": "way", "quality_categories": "crossings_lacking_kerbs, missing_tags, older_than_five_years", "issue_ids": "[18, 2, 3]", "osm_url": "https://www.openstreetmap.org/way/960901471", "josm_url": "http://127.0.0.1:8111/load_object?new_layer=false&objects=w960901471", "id_url": "https://www.openstreetmap.org/edit?editor=id&way=960901471#map=20/-25.4615891/-49.228293"}}, {"type": "Feature", "geometry": {"type": "Point", "coordinates": [-49.2350481, -25.4587748]}, "properties": {"id": 961034061, "feat_type": "way", "quality_categories": "crossings_lacking_kerbs, missing_tags, older_than_five_years", "issue_ids": "[18, 2, 3]", "osm_url": "https://www.openstreetmap.org/way/961034061", "josm_url": "http://127.0.0.1:8111/load_object?new_layer=false&objects=w961034061", "id_url": "https://www.openstreetmap.org/edit?editor=id&way=961034061#map=20/-25.4587748/-49.2350481"}}, {"type": "Feature", "geometry": {"type": "Point", "coordinates": [-49.2277369, -25.4738962]}, "properties": {"id": 961138319, "feat_type": "way", "quality_categories": "missing_tags, older_than_five_years", "issue_ids": "[18, 2]", "osm_url": "https://www.openstreetmap.org/way/961138319", "josm_url": "http://127.0.0.1:8111/load_object?new_layer=false&objects=w961138319", "id_url": "https://www.openstreetmap.org/edit?editor=id&way=961138319#map=20/-25.4738962/-49.2277369"}}, {"type": "Feature", "geometry": {"type": "Point", "coordinates": [-49.2256579, -25.4730467]}, "properties": {"id": 961140587, "feat_type": "way", "quality_categories": "missing_tags, older_than_five_years", "issue_ids": "[18, 2]", "osm_url": "https://www.openstreetmap.org/way/961140587", "josm_url": "http://127.0.0.1:8111/load_object?new_layer=false&objects=w961140587", "id_url": "https://www.openstreetmap.org/edit?editor=id&way=961140587#map=20/-25.4730467/-49.2256579"}}, {"type": "Feature", "geometry": {"type": "Point", "coordinates": [-49.2273768, -25.4634004]}, "properties": {"id": 961607829, "feat_type": "way", "quality_categories": "crossings_lacking_kerbs, missing_tags, older_than_five_years", "issue_ids": "[26, 2, 3]", "osm_url": "https://www.openstreetmap.org/way/961607829", "josm_url": "http://127.0.0.1:8111/load_object?new_layer=false&objects=w961607829", "id_url": "https://www.openstreetmap.org/edit?editor=id&way=961607829#map=20/-25.4634004/-49.2273768"}}, {"type": "Feature", "geometry": {"type": "Point", "coordinates": [-49.2363066, -25.4651868]}, "properties": {"id": 961712913, "feat_type": "way", "quality_categories": "crossings_lacking_kerbs, missing_tags, older_than_five_years", "issue_ids": "[26, 2, 3]", "osm_url": "https://www.openstreetmap.org/way/961712913", "josm_url": "http://127.0.0.1:8111/load_object?new_layer=false&objects=w961712913", "id_url": "https://www.openstreetmap.org/edit?editor=id&way=961712913#map=20/-25.4651868/-49.2363066"}}, {"type": "Feature", "geometry": {"type": "Point", "coordinates": [-49.2361507, -25.465398]}, "properties": {"id": 961712914, "feat_type": "way", "quality_categories": "crossings_lacking_kerbs, missing_tags, older_than_five_years", "issue_ids": "[26, 2, 3]", "osm_url": "https://www.openstreetmap.org/way/961712914", "josm_url": "http://127.0.0.1:8111/load_object?new_layer=false&objects=w961712914", "id_url": "https://www.openstreetmap.org/edit?editor=id&way=961712914#map=20/-25.465398/-49.2361507"}}, {"type": "Feature", "geometry": {"type": "Point", "coordinates": [-49.2350852, -25.4649358]}, "properties": {"id": 961712916, "feat_type": "way", "quality_categories": "crossings_lacking_kerbs, missing_tags, older_than_five_years", "issue_ids": "[26, 2, 3]", "osm_url": "https://www.openstreetmap.org/way/961712916", "josm_url": "http://127.0.0.1:8111/load_object?new_layer=false&objects=w961712916", "id_url": "https://www.openstreetmap.org/edit?editor=id&way=961712916#map=20/-25.4649358/-49.2350852"}}, {"type": "Feature", "geometry": {"type": "Point", "coordinates": [-49.2374147, -25.4663398]}, "properties": {"id": 961712919, "feat_type": "way", "quality_categories": "crossings_lacking_kerbs, missing_tags, older_than_five_years", "issue_ids": "[26, 2, 3]", "osm_url": "https://www.openstreetmap.org/way/961712919", "josm_url": "http://127.0.0.1:8111/load_object?new_layer=false&objects=w961712919", "id_url": "https://www.openstreetmap.org/edit?editor=id&way=961712919#map=20/-25.4663398/-49.2374147"}}, {"type": "Feature", "geometry": {"type": "Point", "coordinates": [-49.2411833, -25.4653187]}, "properties": {"id": 961721015, "feat_type": "way", "quality_categories": "crossings_lacking_kerbs, missing_tags, older_than_five_years", "issue_ids": "[26, 2, 3]", "osm_url": "https://www.openstreetmap.org/way/961721015", "josm_url": "http://127.0.0.1:8111/load_object?new_layer=false&objects=w961721015", "id_url": "https://www.openstreetmap.org/edit?editor=id&way=961721015#map=20/-25.4653187/-49.2411833"}}, {"type": "Feature", "geometry": {"type": "Point", "coordinates": [-49.2390097, -25.4644106]}, "properties": {"id": 961721017, "feat_type": "way", "quality_categories": "crossings_lacking_kerbs, missing_tags, older_than_five_years", "issue_ids": "[26, 2, 3]", "osm_url": "https://www.openstreetmap.org/way/961721017", "josm_url": "http://127.0.0.1:8111/load_object?new_layer=false&objects=w961721017", "id_url": "https://www.openstreetmap.org/edit?editor=id&way=961721017#map=20/-25.4644106/-49.2390097"}}, {"type": "Feature", "geometry": {"type": "Point", "coordinates": [-49.2393038, -25.4645923]}, "properties": {"id": 961721019, "feat_type": "way", "quality_categories": "crossings_lacking_kerbs, missing_tags, older_than_five_years", "issue_ids": "[26, 2, 3]", "osm_url": "https://www.openstreetmap.org/way/961721019", "josm_url": "http://127.0.0.1:8111/load_object?new_layer=false&objects=w961721019", "id_url": "https://www.openstreetmap.org/edit?editor=id&way=961721019#map=20/-25.4645923/-49.2393038"}}, {"type": "Feature", "geometry": {"type": "Point", "coordinates": [-49.239445, -25.4646796]}, "properties": {"id": 961721020, "feat_type": "way", "quality_categories": "crossings_lacking_kerbs, missing_tags, older_than_five_years", "issue_ids": "[26, 2, 3]", "osm_url": "https://www.openstreetmap.org/way/961721020", "josm_url": "http://127.0.0.1:8111/load_object?new_layer=false&objects=w961721020", "id_url": "https://www.openstreetmap.org/edit?editor=id&way=961721020#map=20/-25.4646796/-49.239445"}}, {"type": "Feature", "geometry": {"type": "Point", "coordinates": [-49.2397392, -25.4648614]}, "properties": {"id": 961721021, "feat_type": "way", "quality_categories": "crossings_lacking_kerbs, missing_tags, older_than_five_years", "issue_ids": "[26, 2, 3]", "osm_url": "https://www.openstreetmap.org/way/961721021", "josm_url": "http://127.0.0.1:8111/load_object?new_layer=false&objects=w961721021", "id_url": "https://www.openstreetmap.org/edit?editor=id&way=961721021#map=20/-25.4648614/-49.2397392"}}, {"type": "Feature", "geometry": {"type": "Point", "coordinates": [-49.2398787, -25.4649476]}, "properties": {"id": 961721022, "feat_type": "way", "quality_categories": "crossings_lacking_kerbs, missing_tags, older_than_five_years", "issue_ids": "[26, 2, 3]", "osm_url": "https://www.openstreetmap.org/way/961721022", "josm_url": "http://127.0.0.1:8111/load_object?new_layer=false&objects=w961721022", "id_url": "https://www.openstreetmap.org/edit?editor=id&way=961721022#map=20/-25.4649476/-49.2398787"}}, {"type": "Feature", "geometry": {"type": "Point", "coordinates": [-49.2401745, -25.4651304]}, "properties": {"id": 961721023, "feat_type": "way", "quality_categories": "crossings_lacking_kerbs, missing_tags, older_than_five_years", "issue_ids": "[26, 2, 3]", "osm_url": "https://www.openstreetmap.org/way/961721023", "josm_url": "http://127.0.0.1:8111/load_object?new_layer=false&objects=w961721023", "id_url": "https://www.openstreetmap.org/edit?editor=id&way=961721023#map=20/-25.4651304/-49.2401745"}}]}