{"type": "FeatureCollection", "features": [{"type": "Feature", "geometry": {"type": "Point", "coordinates": [9.1592318, 45.5021058]}, "properties": {"id": 1159672172, "feat_type": "way", "quality_categories": "crossings_lacking_kerbs, uncanny_keys", "issue_ids": "[0, 1]", "osm_url": "https://www.openstreetmap.org/way/1159672172", "josm_url": "http://127.0.0.1:8111/load_object?new_layer=false&objects=w1159672172", "id_url": "https://www.openstreetmap.org/edit?editor=id&way=1159672172#map=20/45.5021058/9.1592318"}}]}