{"type": "FeatureCollection", "features": [{"type": "Feature", "geometry": {"type": "Point", "coordinates": [9.1799625, 45.4523306]}, "properties": {"id": 334484101, "feat_type": "way", "quality_categories": "wrong_mispelled_or_unlisted_values", "issue_ids": "[0]", "osm_url": "https://www.openstreetmap.org/way/334484101", "josm_url": "http://127.0.0.1:8111/load_object?new_layer=false&objects=w334484101", "id_url": "https://www.openstreetmap.org/edit?editor=id&way=334484101#map=20/45.4523306/9.1799625"}}, {"type": "Feature", "geometry": {"type": "Point", "coordinates": [9.1810969, 45.4522524]}, "properties": {"id": 696353080, "feat_type": "way", "quality_categories": "wrong_mispelled_or_unlisted_values", "issue_ids": "[0]", "osm_url": "https://www.openstreetmap.org/way/696353080", "josm_url": "http://127.0.0.1:8111/load_object?new_layer=false&objects=w696353080", "id_url": "https://www.openstreetmap.org/edit?editor=id&way=696353080#map=20/45.4522524/9.1810969"}}, {"type": "Feature", "geometry": {"type": "Point", "coordinates": [9.1810819, 45.4521547]}, "properties": {"id": 699424595, "feat_type": "way", "quality_categories": "wrong_mispelled_or_unlisted_values", "issue_ids": "[0]", "osm_url": "https://www.openstreetmap.org/way/699424595", "josm_url": "http://127.0.0.1:8111/load_object?new_layer=false&objects=w699424595", "id_url": "https://www.openstreetmap.org/edit?editor=id&way=699424595#map=20/45.4521547/9.1810819"}}, {"type": "Feature", "geometry": {"type": "Point", "coordinates": [9.2465474, 45.4589598]}, "properties": {"id": 1106530679, "feat_type": "way", "quality_categories": "wrong_mispelled_or_unlisted_values", "issue_ids": "[1]", "osm_url": "https://www.openstreetmap.org/way/1106530679", "josm_url": "http://127.0.0.1:8111/load_object?new_layer=false&objects=w1106530679", "id_url": "https://www.openstreetmap.org/edit?editor=id&way=1106530679#map=20/45.4589598/9.2465474"}}, {"type": "Feature", "geometry": {"type": "Point", "coordinates": [9.1965396, 45.5211038]}, "properties": {"id": 1365387447, "feat_type": "way", "quality_categories": "crossings_lacking_kerbs, replaceable_values, wrong_mispelled_or_unlisted_values", "issue_ids": "[2, 1, 3]", "osm_url": "https://www.openstreetmap.org/way/1365387447", "josm_url": "http://127.0.0.1:8111/load_object?new_layer=false&objects=w1365387447", "id_url": "https://www.openstreetmap.org/edit?editor=id&way=1365387447#map=20/45.5211038/9.1965396"}}, {"type": "Feature", "geometry": {"type": "Point", "coordinates": [9.1799616, 45.4523975]}, "properties": {"id": 1416835208, "feat_type": "way", "quality_categories": "replaceable_values, wrong_mispelled_or_unlisted_values", "issue_ids": "[2, 0]", "osm_url": "https://www.openstreetmap.org/way/1416835208", "josm_url": "http://127.0.0.1:8111/load_object?new_layer=false&objects=w1416835208", "id_url": "https://www.openstreetmap.org/edit?editor=id&way=1416835208#map=20/45.4523975/9.1799616"}}, {"type": "Feature", "geometry": {"type": "Point", "coordinates": [9.1328523, 45.461649]}, "properties": {"id": 1419082958, "feat_type": "way", "quality_categories": "crossings_lacking_kerbs, wrong_mispelled_or_unlisted_values", "issue_ids": "[4, 3]", "osm_url": "https://www.openstreetmap.org/way/1419082958", "josm_url": "http://127.0.0.1:8111/load_object?new_layer=false&objects=w1419082958", "id_url": "https://www.openstreetmap.org/edit?editor=id&way=1419082958#map=20/45.461649/9.1328523"}}, {"type": "Feature", "geometry": {"type": "Point", "coordinates": [9.1329311, 45.4615991]}, "properties": {"id": 1419082959, "feat_type": "way", "quality_categories": "crossings_lacking_kerbs, wrong_mispelled_or_unlisted_values", "issue_ids": "[4, 3]", "osm_url": "https://www.openstreetmap.org/way/1419082959", "josm_url": "http://127.0.0.1:8111/load_object?new_layer=false&objects=w1419082959", "id_url": "https://www.openstreetmap.org/edit?editor=id&way=1419082959#map=20/45.4615991/9.1329311"}}, {"type": "Feature", "geometry": {"type": "Point", "coordinates": [9.1336938, 45.461869]}, "properties": {"id": 1419082960, "feat_type": "way", "quality_categories": "crossings_lacking_kerbs, wrong_mispelled_or_unlisted_values", "issue_ids": "[4, 3]", "osm_url": "https://www.openstreetmap.org/way/1419082960", "josm_url": "http://127.0.0.1:8111/load_object?new_layer=false&objects=w1419082960", "id_url": "https://www.openstreetmap.org/edit?editor=id&way=1419082960#map=20/45.461869/9.1336938"}}, {"type": "Feature", "geometry": {"type": "Point", "coordinates": [9.1337538, 45.4619309]}, "properties": {"id": 1419082961, "feat_type": "way", "quality_categories": "crossings_lacking_kerbs, wrong_mispelled_or_unlisted_values", "issue_ids": "[4, 3]", "osm_url": "https://www.openstreetmap.org/way/1419082961", "josm_url": "http://127.0.0.1:8111/load_object?new_layer=false&objects=w1419082961", "id_url": "https://www.openstreetmap.org/edit?editor=id&way=1419082961#map=20/45.4619309/9.1337538"}}, {"type": "Feature", "geometry": {"type": "Point", "coordinates": [9.1326869, 45.4513783]}, "properties": {"id": 1421046694, "feat_type": "way", "quality_categories": "crossings_lacking_kerbs, missing_tags, wrong_mispelled_or_unlisted_values", "issue_ids": "[4, 5, 3]", "osm_url": "https://www.openstreetmap.org/way/1421046694", "josm_url": "http://127.0.0.1:8111/load_object?new_layer=false&objects=w1421046694", "id_url": "https://www.openstreetmap.org/edit?editor=id&way=1421046694#map=20/45.4513783/9.1326869"}}, {"type": "Feature", "geometry": {"type": "Point", "coordinates": [9.1318764, 45.4514373]}, "properties": {"id": 1421046695, "feat_type": "way", "quality_categories": "crossings_lacking_kerbs, missing_tags, wrong_mispelled_or_unlisted_values", "issue_ids": "[4, 5, 3]", "osm_url": "https://www.openstreetmap.org/way/1421046695", "josm_url": "http://127.0.0.1:8111/load_object?new_layer=false&objects=w1421046695", "id_url": "https://www.openstreetmap.org/edit?editor=id&way=1421046695#map=20/45.4514373/9.1318764"}}, {"type": "Feature", "geometry": {"type": "Point", "coordinates": [9.1317329, 45.4516873]}, "properties": {"id": 1421046696, "feat_type": "way", "quality_categories": "crossings_lacking_kerbs, missing_tags, wrong_mispelled_or_unlisted_values", "issue_ids": "[4, 5, 3]", "osm_url": "https://www.openstreetmap.org/way/1421046696", "josm_url": "http://127.0.0.1:8111/load_object?new_layer=false&objects=w1421046696", "id_url": "https://www.openstreetmap.org/edit?editor=id&way=1421046696#map=20/45.4516873/9.1317329"}}, {"type": "Feature", "geometry": {"type": "Point", "coordinates": [9.1319107, 45.4514802]}, "properties": {"id": 1421046698, "feat_type": "way", "quality_categories": "crossings_lacking_kerbs, missing_tags, wrong_mispelled_or_unlisted_values", "issue_ids": "[4, 5, 3]", "osm_url": "https://www.openstreetmap.org/way/1421046698", "josm_url": "http://127.0.0.1:8111/load_object?new_layer=false&objects=w1421046698", "id_url": "https://www.openstreetmap.org/edit?editor=id&way=1421046698#map=20/45.4514802/9.1319107"}}, {"type": "Feature", "geometry": {"type": "Point", "coordinates": [9.1319509, 45.4514131]}, "properties": {"id": 1421046699, "feat_type": "way", "quality_categories": "crossings_lacking_kerbs, missing_tags, wrong_mispelled_or_unlisted_values", "issue_ids": "[4, 5, 3]", "osm_url": "https://www.openstreetmap.org/way/1421046699", "josm_url": "http://127.0.0.1:8111/load_object?new_layer=false&objects=w1421046699", "id_url": "https://www.openstreetmap.org/edit?editor=id&way=1421046699#map=20/45.4514131/9.1319509"}}, {"type": "Feature", "geometry": {"type": "Point", "coordinates": [9.1317654, 45.451728]}, "properties": {"id": 1421046700, "feat_type": "way", "quality_categories": "crossings_lacking_kerbs, missing_tags, wrong_mispelled_or_unlisted_values", "issue_ids": "[4, 5, 3]", "osm_url": "https://www.openstreetmap.org/way/1421046700", "josm_url": "http://127.0.0.1:8111/load_object?new_layer=false&objects=w1421046700", "id_url": "https://www.openstreetmap.org/edit?editor=id&way=1421046700#map=20/45.451728/9.1317654"}}, {"type": "Feature", "geometry": {"type": "Point", "coordinates": [9.1318017, 45.4516655]}, "properties": {"id": 1421046701, "feat_type": "way", "quality_categories": "crossings_lacking_kerbs, missing_tags, wrong_mispelled_or_unlisted_values", "issue_ids": "[4, 5, 3]", "osm_url": "https://www.openstreetmap.org/way/1421046701", "josm_url": "http://127.0.0.1:8111/load_object?new_layer=false&objects=w1421046701", "id_url": "https://www.openstreetmap.org/edit?editor=id&way=1421046701#map=20/45.4516655/9.1318017"}}, {"type": "Feature", "geometry": {"type": "Point", "coordinates": [9.1317666, 45.4518409]}, "properties": {"id": 1421046703, "feat_type": "way", "quality_categories": "crossings_lacking_kerbs, missing_tags, wrong_mispelled_or_unlisted_values", "issue_ids": "[4, 5, 3]", "osm_url": "https://www.openstreetmap.org/way/1421046703", "josm_url": "http://127.0.0.1:8111/load_object?new_layer=false&objects=w1421046703", "id_url": "https://www.openstreetmap.org/edit?editor=id&way=1421046703#map=20/45.4518409/9.1317666"}}, {"type": "Feature", "geometry": {"type": "Point", "coordinates": [9.1323094, 45.4520015]}, "properties": {"id": 1421046705, "feat_type": "way", "quality_categories": "crossings_lacking_kerbs, missing_tags, wrong_mispelled_or_unlisted_values", "issue_ids": "[4, 5, 3]", "osm_url": "https://www.openstreetmap.org/way/1421046705", "josm_url": "http://127.0.0.1:8111/load_object?new_layer=false&objects=w1421046705", "id_url": "https://www.openstreetmap.org/edit?editor=id&way=1421046705#map=20/45.4520015/9.1323094"}}, {"type": "Feature", "geometry": {"type": "Point", "coordinates": [9.1324959, 45.4519052]}, "properties": {"id": 1421046706, "feat_type": "way", "quality_categories": "crossings_lacking_kerbs, missing_tags, wrong_mispelled_or_unlisted_values", "issue_ids": "[4, 5, 3]", "osm_url": "https://www.openstreetmap.org/way/1421046706", "josm_url": "http://127.0.0.1:8111/load_object?new_layer=false&objects=w1421046706", "id_url": "https://www.openstreetmap.org/edit?editor=id&way=1421046706#map=20/45.4519052/9.1324959"}}, {"type": "Feature", "geometry": {"type": "Point", "coordinates": [9.1327616, 45.4513587]}, "properties": {"id": 1421046707, "feat_type": "way", "quality_categories": "crossings_lacking_kerbs, missing_tags, wrong_mispelled_or_unlisted_values", "issue_ids": "[4, 5, 3]", "osm_url": "https://www.openstreetmap.org/way/1421046707", "josm_url": "http://127.0.0.1:8111/load_object?new_layer=false&objects=w1421046707", "id_url": "https://www.openstreetmap.org/edit?editor=id&way=1421046707#map=20/45.4513587/9.1327616"}}, {"type": "Feature", "geometry": {"type": "Point", "coordinates": [9.1299223, 45.4526693]}, "properties": {"id": 1429540302, "feat_type": "way", "quality_categories": "crossings_lacking_kerbs, missing_tags, wrong_mispelled_or_unlisted_values", "issue_ids": "[4, 5, 3]", "osm_url": "https://www.openstreetmap.org/way/1429540302", "josm_url": "http://127.0.0.1:8111/load_object?new_layer=false&objects=w1429540302", "id_url": "https://www.openstreetmap.org/edit?editor=id&way=1429540302#map=20/45.4526693/9.1299223"}}, {"type": "Feature", "geometry": {"type": "Point", "coordinates": [9.2177676, 45.4960264]}, "properties": {"id": 1466190175, "feat_type": "way", "quality_categories": "crossings_lacking_kerbs, missing_tags, wrong_mispelled_or_unlisted_values", "issue_ids": "[4, 5, 3]", "osm_url": "https://www.openstreetmap.org/way/1466190175", "josm_url": "http://127.0.0.1:8111/load_object?new_layer=false&objects=w1466190175", "id_url": "https://www.openstreetmap.org/edit?editor=id&way=1466190175#map=20/45.4960264/9.2177676"}}, {"type": "Feature", "geometry": {"type": "Point", "coordinates": [9.1379017, 45.4616568]}, "properties": {"id": 1475272872, "feat_type": "way", "quality_categories": "wrong_mispelled_or_unlisted_values", "issue_ids": "[4]", "osm_url": "https://www.openstreetmap.org/way/1475272872", "josm_url": "http://127.0.0.1:8111/load_object?new_layer=false&objects=w1475272872", "id_url": "https://www.openstreetmap.org/edit?editor=id&way=1475272872#map=20/45.4616568/9.1379017"}}, {"type": "Feature", "geometry": {"type": "Point", "coordinates": [9.1726632, 45.4560276]}, "properties": {"id": 1532027939, "feat_type": "way", "quality_categories": "crossings_lacking_kerbs, missing_tags, wrong_mispelled_or_unlisted_values", "issue_ids": "[4, 5, 3]", "osm_url": "https://www.openstreetmap.org/way/1532027939", "josm_url": "http://127.0.0.1:8111/load_object?new_layer=false&objects=w1532027939", "id_url": "https://www.openstreetmap.org/edit?editor=id&way=1532027939#map=20/45.4560276/9.1726632"}}, {"type": "Feature", "geometry": {"type": "Point", "coordinates": [9.1326508, 45.4516591]}, "properties": {"id": 1532585314, "feat_type": "way", "quality_categories": "crossings_lacking_kerbs, missing_tags, wrong_mispelled_or_unlisted_values", "issue_ids": "[4, 5, 3]", "osm_url": "https://www.openstreetmap.org/way/1532585314", "josm_url": "http://127.0.0.1:8111/load_object?new_layer=false&objects=w1532585314", "id_url": "https://www.openstreetmap.org/edit?editor=id&way=1532585314#map=20/45.4516591/9.1326508"}}, {"type": "Feature", "geometry": {"type": "Point", "coordinates": [9.1328044, 45.4514123]}, "properties": {"id": 1532585315, "feat_type": "way", "quality_categories": "crossings_lacking_kerbs, missing_tags, wrong_mispelled_or_unlisted_values", "issue_ids": "[4, 5, 3]", "osm_url": "https://www.openstreetmap.org/way/1532585315", "josm_url": "http://127.0.0.1:8111/load_object?new_layer=false&objects=w1532585315", "id_url": "https://www.openstreetmap.org/edit?editor=id&way=1532585315#map=20/45.4514123/9.1328044"}}, {"type": "Feature", "geometry": {"type": "Point", "coordinates": [9.1316266, 45.4520789]}, "properties": {"id": 1532585317, "feat_type": "way", "quality_categories": "crossings_lacking_kerbs, missing_tags, wrong_mispelled_or_unlisted_values", "issue_ids": "[4, 5, 3]", "osm_url": "https://www.openstreetmap.org/way/1532585317", "josm_url": "http://127.0.0.1:8111/load_object?new_layer=false&objects=w1532585317", "id_url": "https://www.openstreetmap.org/edit?editor=id&way=1532585317#map=20/45.4520789/9.1316266"}}, {"type": "Feature", "geometry": {"type": "Point", "coordinates": [9.1321706, 45.4522373]}, "properties": {"id": 1532585319, "feat_type": "way", "quality_categories": "crossings_lacking_kerbs, missing_tags, wrong_mispelled_or_unlisted_values", "issue_ids": "[4, 5, 3]", "osm_url": "https://www.openstreetmap.org/way/1532585319", "josm_url": "http://127.0.0.1:8111/load_object?new_layer=false&objects=w1532585319", "id_url": "https://www.openstreetmap.org/edit?editor=id&way=1532585319#map=20/45.4522373/9.1321706"}}, {"type": "Feature", "geometry": {"type": "Point", "coordinates": [9.1300747, 45.4524093]}, "properties": {"id": 1532585320, "feat_type": "way", "quality_categories": "crossings_lacking_kerbs, missing_tags, wrong_mispelled_or_unlisted_values", "issue_ids": "[4, 5, 3]", "osm_url": "https://www.openstreetmap.org/way/1532585320", "josm_url": "http://127.0.0.1:8111/load_object?new_layer=false&objects=w1532585320", "id_url": "https://www.openstreetmap.org/edit?editor=id&way=1532585320#map=20/45.4524093/9.1300747"}}, {"type": "Feature", "geometry": {"type": "Point", "coordinates": [9.1706934, 45.470846]}, "properties": {"id": 1537785678, "feat_type": "way", "quality_categories": "crossings_lacking_kerbs, wrong_mispelled_or_unlisted_values", "issue_ids": "[4, 3]", "osm_url": "https://www.openstreetmap.org/way/1537785678", "josm_url": "http://127.0.0.1:8111/load_object?new_layer=false&objects=w1537785678", "id_url": "https://www.openstreetmap.org/edit?editor=id&way=1537785678#map=20/45.470846/9.1706934"}}, {"type": "Feature", "geometry": {"type": "Point", "coordinates": [9.1710254, 45.4709305]}, "properties": {"id": 1537785679, "feat_type": "way", "quality_categories": "crossings_lacking_kerbs, wrong_mispelled_or_unlisted_values", "issue_ids": "[4, 3]", "osm_url": "https://www.openstreetmap.org/way/1537785679", "josm_url": "http://127.0.0.1:8111/load_object?new_layer=false&objects=w1537785679", "id_url": "https://www.openstreetmap.org/edit?editor=id&way=1537785679#map=20/45.4709305/9.1710254"}}, {"type": "Feature", "geometry": {"type": "Point", "coordinates": [9.1713857, 45.470324]}, "properties": {"id": 1537785680, "feat_type": "way", "quality_categories": "crossings_lacking_kerbs, wrong_mispelled_or_unlisted_values", "issue_ids": "[4, 3]", "osm_url": "https://www.openstreetmap.org/way/1537785680", "josm_url": "http://127.0.0.1:8111/load_object?new_layer=false&objects=w1537785680", "id_url": "https://www.openstreetmap.org/edit?editor=id&way=1537785680#map=20/45.470324/9.1713857"}}, {"type": "Feature", "geometry": {"type": "Point", "coordinates": [9.1716075, 45.4705171]}, "properties": {"id": 1537785681, "feat_type": "way", "quality_categories": "crossings_lacking_kerbs, wrong_mispelled_or_unlisted_values", "issue_ids": "[4, 3]", "osm_url": "https://www.openstreetmap.org/way/1537785681", "josm_url": "http://127.0.0.1:8111/load_object?new_layer=false&objects=w1537785681", "id_url": "https://www.openstreetmap.org/edit?editor=id&way=1537785681#map=20/45.4705171/9.1716075"}}, {"type": "Feature", "geometry": {"type": "Point", "coordinates": [9.1710121, 45.4704226]}, "properties": {"id": 1537785682, "feat_type": "way", "quality_categories": "crossings_lacking_kerbs, wrong_mispelled_or_unlisted_values", "issue_ids": "[4, 3]", "osm_url": "https://www.openstreetmap.org/way/1537785682", "josm_url": "http://127.0.0.1:8111/load_object?new_layer=false&objects=w1537785682", "id_url": "https://www.openstreetmap.org/edit?editor=id&way=1537785682#map=20/45.4704226/9.1710121"}}, {"type": "Feature", "geometry": {"type": "Point", "coordinates": [9.1713165, 45.4706881]}, "properties": {"id": 1537785683, "feat_type": "way", "quality_categories": "crossings_lacking_kerbs, wrong_mispelled_or_unlisted_values", "issue_ids": "[4, 3]", "osm_url": "https://www.openstreetmap.org/way/1537785683", "josm_url": "http://127.0.0.1:8111/load_object?new_layer=false&objects=w1537785683", "id_url": "https://www.openstreetmap.org/edit?editor=id&way=1537785683#map=20/45.4706881/9.1713165"}}]}