{"type": "FeatureCollection", "features": [{"type": "Feature", "geometry": {"type": "Point", "coordinates": [9.193237364781517, 45.482196099999996]}, "properties": {"id": 3756419, "feat_type": "relation", "quality_categories": "improper_keys", "issue_ids": "[0]", "osm_url": "https://www.openstreetmap.org/relation/3756419", "josm_url": "http://127.0.0.1:8111/load_object?new_layer=false&objects=r3756419", "id_url": "https://www.openstreetmap.org/edit?editor=id&relation=3756419#map=20/45.482196099999996/9.193237364781517"}}, {"type": "Feature", "geometry": {"type": "Point", "coordinates": [9.124450241188525, 45.47694645]}, "properties": {"id": 218520507, "feat_type": "way", "quality_categories": "improper_keys, missing_tags", "issue_ids": "[0, 1]", "osm_url": "https://www.openstreetmap.org/way/218520507", "josm_url": "http://127.0.0.1:8111/load_object?new_layer=false&objects=w218520507", "id_url": "https://www.openstreetmap.org/edit?editor=id&way=218520507#map=20/45.47694645/9.124450241188525"}}, {"type": "Feature", "geometry": {"type": "Point", "coordinates": [9.122560942271384, 45.47793005]}, "properties": {"id": 218520508, "feat_type": "way", "quality_categories": "improper_keys, missing_tags", "issue_ids": "[0, 1]", "osm_url": "https://www.openstreetmap.org/way/218520508", "josm_url": "http://127.0.0.1:8111/load_object?new_layer=false&objects=w218520508", "id_url": "https://www.openstreetmap.org/edit?editor=id&way=218520508#map=20/45.47793005/9.122560942271384"}}, {"type": "Feature", "geometry": {"type": "Point", "coordinates": [9.123633041188524, 45.47918675]}, "properties": {"id": 218520509, "feat_type": "way", "quality_categories": "improper_keys, missing_tags", "issue_ids": "[0, 1]", "osm_url": "https://www.openstreetmap.org/way/218520509", "josm_url": "http://127.0.0.1:8111/load_object?new_layer=false&objects=w218520509", "id_url": "https://www.openstreetmap.org/edit?editor=id&way=218520509#map=20/45.47918675/9.123633041188524"}}, {"type": "Feature", "geometry": {"type": "Point", "coordinates": [9.124287091694246, 45.4794597]}, "properties": {"id": 218520510, "feat_type": "way", "quality_categories": "improper_keys, missing_tags", "issue_ids": "[0, 1]", "osm_url": "https://www.openstreetmap.org/way/218520510", "josm_url": "http://127.0.0.1:8111/load_object?new_layer=false&objects=w218520510", "id_url": "https://www.openstreetmap.org/edit?editor=id&way=218520510#map=20/45.4794597/9.124287091694246"}}, {"type": "Feature", "geometry": {"type": "Point", "coordinates": [9.123820491588065, 45.47945935]}, "properties": {"id": 218520513, "feat_type": "way", "quality_categories": "improper_keys, missing_tags", "issue_ids": "[0, 1]", "osm_url": "https://www.openstreetmap.org/way/218520513", "josm_url": "http://127.0.0.1:8111/load_object?new_layer=false&objects=w218520513", "id_url": "https://www.openstreetmap.org/edit?editor=id&way=218520513#map=20/45.47945935/9.123820491588065"}}, {"type": "Feature", "geometry": {"type": "Point", "coordinates": [9.122659641188523, 45.47744965]}, "properties": {"id": 218520514, "feat_type": "way", "quality_categories": "improper_keys, missing_tags", "issue_ids": "[0, 1]", "osm_url": "https://www.openstreetmap.org/way/218520514", "josm_url": "http://127.0.0.1:8111/load_object?new_layer=false&objects=w218520514", "id_url": "https://www.openstreetmap.org/edit?editor=id&way=218520514#map=20/45.47744965/9.122659641188523"}}, {"type": "Feature", "geometry": {"type": "Point", "coordinates": [9.121660941754, 45.4781777]}, "properties": {"id": 218520515, "feat_type": "way", "quality_categories": "improper_keys, missing_tags", "issue_ids": "[0, 1]", "osm_url": "https://www.openstreetmap.org/way/218520515", "josm_url": "http://127.0.0.1:8111/load_object?new_layer=false&objects=w218520515", "id_url": "https://www.openstreetmap.org/edit?editor=id&way=218520515#map=20/45.4781777/9.121660941754"}}, {"type": "Feature", "geometry": {"type": "Point", "coordinates": [9.122454250540766, 45.47909165]}, "properties": {"id": 218520516, "feat_type": "way", "quality_categories": "improper_keys, missing_tags", "issue_ids": "[0, 1]", "osm_url": "https://www.openstreetmap.org/way/218520516", "josm_url": "http://127.0.0.1:8111/load_object?new_layer=false&objects=w218520516", "id_url": "https://www.openstreetmap.org/edit?editor=id&way=218520516#map=20/45.47909165/9.122454250540766"}}, {"type": "Feature", "geometry": {"type": "Point", "coordinates": [9.121490000537783, 45.4778764]}, "properties": {"id": 218520517, "feat_type": "way", "quality_categories": "improper_keys, missing_tags", "issue_ids": "[0, 1]", "osm_url": "https://www.openstreetmap.org/way/218520517", "josm_url": "http://127.0.0.1:8111/load_object?new_layer=false&objects=w218520517", "id_url": "https://www.openstreetmap.org/edit?editor=id&way=218520517#map=20/45.4778764/9.121490000537783"}}, {"type": "Feature", "geometry": {"type": "Point", "coordinates": [9.123394291694247, 45.4770096]}, "properties": {"id": 218520518, "feat_type": "way", "quality_categories": "improper_keys, missing_tags", "issue_ids": "[0, 1]", "osm_url": "https://www.openstreetmap.org/way/218520518", "josm_url": "http://127.0.0.1:8111/load_object?new_layer=false&objects=w218520518", "id_url": "https://www.openstreetmap.org/edit?editor=id&way=218520518#map=20/45.4770096/9.123394291694247"}}, {"type": "Feature", "geometry": {"type": "Point", "coordinates": [9.124748091588064, 45.47946035]}, "properties": {"id": 218520519, "feat_type": "way", "quality_categories": "improper_keys, missing_tags", "issue_ids": "[0, 1]", "osm_url": "https://www.openstreetmap.org/way/218520519", "josm_url": "http://127.0.0.1:8111/load_object?new_layer=false&objects=w218520519", "id_url": "https://www.openstreetmap.org/edit?editor=id&way=218520519#map=20/45.47946035/9.124748091588064"}}, {"type": "Feature", "geometry": {"type": "Point", "coordinates": [9.124036842343514, 45.4768294]}, "properties": {"id": 218520520, "feat_type": "way", "quality_categories": "improper_keys, missing_tags", "issue_ids": "[0, 1]", "osm_url": "https://www.openstreetmap.org/way/218520520", "josm_url": "http://127.0.0.1:8111/load_object?new_layer=false&objects=w218520520", "id_url": "https://www.openstreetmap.org/edit?editor=id&way=218520520#map=20/45.4768294/9.124036842343514"}}, {"type": "Feature", "geometry": {"type": "Point", "coordinates": [9.121833941648148, 45.47848375]}, "properties": {"id": 218520521, "feat_type": "way", "quality_categories": "improper_keys, missing_tags", "issue_ids": "[0, 1]", "osm_url": "https://www.openstreetmap.org/way/218520521", "josm_url": "http://127.0.0.1:8111/load_object?new_layer=false&objects=w218520521", "id_url": "https://www.openstreetmap.org/edit?editor=id&way=218520521#map=20/45.47848375/9.121833941648148"}}, {"type": "Feature", "geometry": {"type": "Point", "coordinates": [9.125430841188525, 45.47867905]}, "properties": {"id": 218520523, "feat_type": "way", "quality_categories": "improper_keys, missing_tags", "issue_ids": "[0, 1]", "osm_url": "https://www.openstreetmap.org/way/218520523", "josm_url": "http://127.0.0.1:8111/load_object?new_layer=false&objects=w218520523", "id_url": "https://www.openstreetmap.org/edit?editor=id&way=218520523#map=20/45.47867905/9.125430841188525"}}, {"type": "Feature", "geometry": {"type": "Point", "coordinates": [9.122820741188525, 45.47839045]}, "properties": {"id": 218520524, "feat_type": "way", "quality_categories": "improper_keys, missing_tags", "issue_ids": "[0, 1]", "osm_url": "https://www.openstreetmap.org/way/218520524", "josm_url": "http://127.0.0.1:8111/load_object?new_layer=false&objects=w218520524", "id_url": "https://www.openstreetmap.org/edit?editor=id&way=218520524#map=20/45.47839045/9.122820741188525"}}, {"type": "Feature", "geometry": {"type": "Point", "coordinates": [9.123284191588064, 45.47939425]}, "properties": {"id": 218520525, "feat_type": "way", "quality_categories": "improper_keys, missing_tags", "issue_ids": "[0, 1]", "osm_url": "https://www.openstreetmap.org/way/218520525", "josm_url": "http://127.0.0.1:8111/load_object?new_layer=false&objects=w218520525", "id_url": "https://www.openstreetmap.org/edit?editor=id&way=218520525#map=20/45.47939425/9.123284191588064"}}, {"type": "Feature", "geometry": {"type": "Point", "coordinates": [9.122006941648149, 45.47878915]}, "properties": {"id": 218520526, "feat_type": "way", "quality_categories": "improper_keys, missing_tags", "issue_ids": "[0, 1]", "osm_url": "https://www.openstreetmap.org/way/218520526", "josm_url": "http://127.0.0.1:8111/load_object?new_layer=false&objects=w218520526", "id_url": "https://www.openstreetmap.org/edit?editor=id&way=218520526#map=20/45.47878915/9.122006941648149"}}, {"type": "Feature", "geometry": {"type": "Point", "coordinates": [9.122869441648149, 45.47924415]}, "properties": {"id": 218520527, "feat_type": "way", "quality_categories": "improper_keys, missing_tags", "issue_ids": "[0, 1]", "osm_url": "https://www.openstreetmap.org/way/218520527", "josm_url": "http://127.0.0.1:8111/load_object?new_layer=false&objects=w218520527", "id_url": "https://www.openstreetmap.org/edit?editor=id&way=218520527#map=20/45.47924415/9.122869441648149"}}, {"type": "Feature", "geometry": {"type": "Point", "coordinates": [9.123080941188524, 45.47884785]}, "properties": {"id": 218520528, "feat_type": "way", "quality_categories": "improper_keys, missing_tags", "issue_ids": "[0, 1]", "osm_url": "https://www.openstreetmap.org/way/218520528", "josm_url": "http://127.0.0.1:8111/load_object?new_layer=false&objects=w218520528", "id_url": "https://www.openstreetmap.org/edit?editor=id&way=218520528#map=20/45.47884785/9.123080941188524"}}, {"type": "Feature", "geometry": {"type": "Point", "coordinates": [9.122649668354992, 45.477220450000004]}, "properties": {"id": 218520529, "feat_type": "way", "quality_categories": "improper_keys, missing_tags", "issue_ids": "[0, 1]", "osm_url": "https://www.openstreetmap.org/way/218520529", "josm_url": "http://127.0.0.1:8111/load_object?new_layer=false&objects=w218520529", "id_url": "https://www.openstreetmap.org/edit?editor=id&way=218520529#map=20/45.477220450000004/9.122649668354992"}}, {"type": "Feature", "geometry": {"type": "Point", "coordinates": [9.121621395971273, 45.47752025]}, "properties": {"id": 218520530, "feat_type": "way", "quality_categories": "improper_keys, missing_tags", "issue_ids": "[0, 1]", "osm_url": "https://www.openstreetmap.org/way/218520530", "josm_url": "http://127.0.0.1:8111/load_object?new_layer=false&objects=w218520530", "id_url": "https://www.openstreetmap.org/edit?editor=id&way=218520530#map=20/45.47752025/9.121621395971273"}}, {"type": "Feature", "geometry": {"type": "Point", "coordinates": [9.122002736046511, 45.4774137]}, "properties": {"id": 218520531, "feat_type": "way", "quality_categories": "improper_keys, missing_tags", "issue_ids": "[0, 1]", "osm_url": "https://www.openstreetmap.org/way/218520531", "josm_url": "http://127.0.0.1:8111/load_object?new_layer=false&objects=w218520531", "id_url": "https://www.openstreetmap.org/edit?editor=id&way=218520531#map=20/45.4774137/9.122002736046511"}}, {"type": "Feature", "geometry": {"type": "Point", "coordinates": [9.123115441188524, 45.47716955]}, "properties": {"id": 1246184378, "feat_type": "way", "quality_categories": "improper_keys, missing_tags", "issue_ids": "[0, 1]", "osm_url": "https://www.openstreetmap.org/way/1246184378", "josm_url": "http://127.0.0.1:8111/load_object?new_layer=false&objects=w1246184378", "id_url": "https://www.openstreetmap.org/edit?editor=id&way=1246184378#map=20/45.47716955/9.123115441188524"}}, {"type": "Feature", "geometry": {"type": "Point", "coordinates": [9.123815741188524, 45.47697575]}, "properties": {"id": 1246184379, "feat_type": "way", "quality_categories": "improper_keys, missing_tags", "issue_ids": "[0, 1]", "osm_url": "https://www.openstreetmap.org/way/1246184379", "josm_url": "http://127.0.0.1:8111/load_object?new_layer=false&objects=w1246184379", "id_url": "https://www.openstreetmap.org/edit?editor=id&way=1246184379#map=20/45.47697575/9.123815741188524"}}, {"type": "Feature", "geometry": {"type": "Point", "coordinates": [9.124237041188525, 45.47915995]}, "properties": {"id": 1246184380, "feat_type": "way", "quality_categories": "improper_keys, missing_tags", "issue_ids": "[0, 1]", "osm_url": "https://www.openstreetmap.org/way/1246184380", "josm_url": "http://127.0.0.1:8111/load_object?new_layer=false&objects=w1246184380", "id_url": "https://www.openstreetmap.org/edit?editor=id&way=1246184380#map=20/45.47915995/9.124237041188525"}}, {"type": "Feature", "geometry": {"type": "Point", "coordinates": [9.124928541188524, 45.47896575]}, "properties": {"id": 1246184381, "feat_type": "way", "quality_categories": "improper_keys, missing_tags", "issue_ids": "[0, 1]", "osm_url": "https://www.openstreetmap.org/way/1246184381", "josm_url": "http://127.0.0.1:8111/load_object?new_layer=false&objects=w1246184381", "id_url": "https://www.openstreetmap.org/edit?editor=id&way=1246184381#map=20/45.47896575/9.124928541188524"}}]}