{"type": "FeatureCollection", "features": [{"type": "Feature", "geometry": {"type": "Point", "coordinates": [9.186033021619643, 45.50987165]}, "properties": {"id": 23176363, "feat_type": "way", "quality_categories": "invalid_characters, missing_tags", "issue_ids": "[0, 1]", "osm_url": "https://www.openstreetmap.org/way/23176363", "josm_url": "http://127.0.0.1:8111/load_object?new_layer=false&objects=w23176363", "id_url": "https://www.openstreetmap.org/edit?editor=id&way=23176363#map=20/45.50987165/9.186033021619643"}}, {"type": "Feature", "geometry": {"type": "Point", "coordinates": [9.1665999, 45.4695772]}, "properties": {"id": 28734907, "feat_type": "way", "quality_categories": "invalid_characters", "issue_ids": "[2]", "osm_url": "https://www.openstreetmap.org/way/28734907", "josm_url": "http://127.0.0.1:8111/load_object?new_layer=false&objects=w28734907", "id_url": "https://www.openstreetmap.org/edit?editor=id&way=28734907#map=20/45.4695772/9.1665999"}}, {"type": "Feature", "geometry": {"type": "Point", "coordinates": [9.1872377, 45.4839017]}, "properties": {"id": 200660353, "feat_type": "way", "quality_categories": "invalid_characters, missing_tags", "issue_ids": "[3, 1]", "osm_url": "https://www.openstreetmap.org/way/200660353", "josm_url": "http://127.0.0.1:8111/load_object?new_layer=false&objects=w200660353", "id_url": "https://www.openstreetmap.org/edit?editor=id&way=200660353#map=20/45.4839017/9.1872377"}}, {"type": "Feature", "geometry": {"type": "Point", "coordinates": [9.1964263, 45.4651265]}, "properties": {"id": 296560242, "feat_type": "way", "quality_categories": "invalid_characters, missing_tags", "issue_ids": "[4, 1]", "osm_url": "https://www.openstreetmap.org/way/296560242", "josm_url": "http://127.0.0.1:8111/load_object?new_layer=false&objects=w296560242", "id_url": "https://www.openstreetmap.org/edit?editor=id&way=296560242#map=20/45.4651265/9.1964263"}}, {"type": "Feature", "geometry": {"type": "Point", "coordinates": [9.1671069, 45.4698529]}, "properties": {"id": 998382967, "feat_type": "way", "quality_categories": "invalid_characters", "issue_ids": "[5]", "osm_url": "https://www.openstreetmap.org/way/998382967", "josm_url": "http://127.0.0.1:8111/load_object?new_layer=false&objects=w998382967", "id_url": "https://www.openstreetmap.org/edit?editor=id&way=998382967#map=20/45.4698529/9.1671069"}}, {"type": "Feature", "geometry": {"type": "Point", "coordinates": [9.1935784, 45.458958]}, "properties": {"id": 1323414313, "feat_type": "way", "quality_categories": "invalid_characters", "issue_ids": "[6]", "osm_url": "https://www.openstreetmap.org/way/1323414313", "josm_url": "http://127.0.0.1:8111/load_object?new_layer=false&objects=w1323414313", "id_url": "https://www.openstreetmap.org/edit?editor=id&way=1323414313#map=20/45.458958/9.1935784"}}]}