{"type": "FeatureCollection", "features": [{"type": "Feature", "geometry": {"type": "Point", "coordinates": [-49.2848328, -25.4032753]}, "properties": {"id": 163037404, "feat_type": "way", "quality_categories": "wrong_mispelled_or_unlisted_values", "issue_ids": "[0]", "osm_url": "https://www.openstreetmap.org/way/163037404", "josm_url": "http://127.0.0.1:8111/load_object?new_layer=false&objects=w163037404", "id_url": "https://www.openstreetmap.org/edit?editor=id&way=163037404#map=20/-25.4032753/-49.2848328"}}, {"type": "Feature", "geometry": {"type": "Point", "coordinates": [-49.2860319, -25.4060621]}, "properties": {"id": 163664242, "feat_type": "way", "quality_categories": "older_than_five_years, wrong_mispelled_or_unlisted_values", "issue_ids": "[1, 2]", "osm_url": "https://www.openstreetmap.org/way/163664242", "josm_url": "http://127.0.0.1:8111/load_object?new_layer=false&objects=w163664242", "id_url": "https://www.openstreetmap.org/edit?editor=id&way=163664242#map=20/-25.4060621/-49.2860319"}}, {"type": "Feature", "geometry": {"type": "Point", "coordinates": [-49.2183415, -25.4292418]}, "properties": {"id": 237848875, "feat_type": "way", "quality_categories": "older_than_five_years, wrong_mispelled_or_unlisted_values", "issue_ids": "[3, 4]", "osm_url": "https://www.openstreetmap.org/way/237848875", "josm_url": "http://127.0.0.1:8111/load_object?new_layer=false&objects=w237848875", "id_url": "https://www.openstreetmap.org/edit?editor=id&way=237848875#map=20/-25.4292418/-49.2183415"}}, {"type": "Feature", "geometry": {"type": "Point", "coordinates": [-49.2181926, -25.4293019]}, "properties": {"id": 237848876, "feat_type": "way", "quality_categories": "older_than_five_years, wrong_mispelled_or_unlisted_values", "issue_ids": "[3, 4]", "osm_url": "https://www.openstreetmap.org/way/237848876", "josm_url": "http://127.0.0.1:8111/load_object?new_layer=false&objects=w237848876", "id_url": "https://www.openstreetmap.org/edit?editor=id&way=237848876#map=20/-25.4293019/-49.2181926"}}, {"type": "Feature", "geometry": {"type": "Point", "coordinates": [-49.2176046, -25.4290642]}, "properties": {"id": 237848877, "feat_type": "way", "quality_categories": "older_than_five_years, wrong_mispelled_or_unlisted_values", "issue_ids": "[3, 4]", "osm_url": "https://www.openstreetmap.org/way/237848877", "josm_url": "http://127.0.0.1:8111/load_object?new_layer=false&objects=w237848877", "id_url": "https://www.openstreetmap.org/edit?editor=id&way=237848877#map=20/-25.4290642/-49.2176046"}}, {"type": "Feature", "geometry": {"type": "Point", "coordinates": [-49.2172912, -25.4292919]}, "properties": {"id": 237848879, "feat_type": "way", "quality_categories": "older_than_five_years, wrong_mispelled_or_unlisted_values", "issue_ids": "[3, 5]", "osm_url": "https://www.openstreetmap.org/way/237848879", "josm_url": "http://127.0.0.1:8111/load_object?new_layer=false&objects=w237848879", "id_url": "https://www.openstreetmap.org/edit?editor=id&way=237848879#map=20/-25.4292919/-49.2172912"}}, {"type": "Feature", "geometry": {"type": "Point", "coordinates": [-49.2316003, -25.4519084]}, "properties": {"id": 262476539, "feat_type": "way", "quality_categories": "wrong_mispelled_or_unlisted_values", "issue_ids": "[6]", "osm_url": "https://www.openstreetmap.org/way/262476539", "josm_url": "http://127.0.0.1:8111/load_object?new_layer=false&objects=w262476539", "id_url": "https://www.openstreetmap.org/edit?editor=id&way=262476539#map=20/-25.4519084/-49.2316003"}}, {"type": "Feature", "geometry": {"type": "Point", "coordinates": [-49.23295292878409, -25.44801845]}, "properties": {"id": 386052076, "feat_type": "way", "quality_categories": "wrong_mispelled_or_unlisted_values", "issue_ids": "[7]", "osm_url": "https://www.openstreetmap.org/way/386052076", "josm_url": "http://127.0.0.1:8111/load_object?new_layer=false&objects=w386052076", "id_url": "https://www.openstreetmap.org/edit?editor=id&way=386052076#map=20/-25.44801845/-49.23295292878409"}}, {"type": "Feature", "geometry": {"type": "Point", "coordinates": [-49.3061931, -25.3915736]}, "properties": {"id": 543881320, "feat_type": "way", "quality_categories": "older_than_five_years, wrong_mispelled_or_unlisted_values", "issue_ids": "[8, 9]", "osm_url": "https://www.openstreetmap.org/way/543881320", "josm_url": "http://127.0.0.1:8111/load_object?new_layer=false&objects=w543881320", "id_url": "https://www.openstreetmap.org/edit?editor=id&way=543881320#map=20/-25.3915736/-49.3061931"}}, {"type": "Feature", "geometry": {"type": "Point", "coordinates": [-49.3047831, -25.4022753]}, "properties": {"id": 543883297, "feat_type": "way", "quality_categories": "wrong_mispelled_or_unlisted_values", "issue_ids": "[1]", "osm_url": "https://www.openstreetmap.org/way/543883297", "josm_url": "http://127.0.0.1:8111/load_object?new_layer=false&objects=w543883297", "id_url": "https://www.openstreetmap.org/edit?editor=id&way=543883297#map=20/-25.4022753/-49.3047831"}}, {"type": "Feature", "geometry": {"type": "Point", "coordinates": [-49.2867882, -25.4049331]}, "properties": {"id": 543902345, "feat_type": "way", "quality_categories": "wrong_mispelled_or_unlisted_values", "issue_ids": "[1]", "osm_url": "https://www.openstreetmap.org/way/543902345", "josm_url": "http://127.0.0.1:8111/load_object?new_layer=false&objects=w543902345", "id_url": "https://www.openstreetmap.org/edit?editor=id&way=543902345#map=20/-25.4049331/-49.2867882"}}, {"type": "Feature", "geometry": {"type": "Point", "coordinates": [-49.2345701, -25.4497579]}, "properties": {"id": 744513319, "feat_type": "way", "quality_categories": "wrong_mispelled_or_unlisted_values", "issue_ids": "[7]", "osm_url": "https://www.openstreetmap.org/way/744513319", "josm_url": "http://127.0.0.1:8111/load_object?new_layer=false&objects=w744513319", "id_url": "https://www.openstreetmap.org/edit?editor=id&way=744513319#map=20/-25.4497579/-49.2345701"}}, {"type": "Feature", "geometry": {"type": "Point", "coordinates": [-49.21875, -25.4289315]}, "properties": {"id": 918119219, "feat_type": "way", "quality_categories": "older_than_five_years, wrong_mispelled_or_unlisted_values", "issue_ids": "[3, 5]", "osm_url": "https://www.openstreetmap.org/way/918119219", "josm_url": "http://127.0.0.1:8111/load_object?new_layer=false&objects=w918119219", "id_url": "https://www.openstreetmap.org/edit?editor=id&way=918119219#map=20/-25.4289315/-49.21875"}}, {"type": "Feature", "geometry": {"type": "Point", "coordinates": [-49.2314746, -25.4471063]}, "properties": {"id": 1051404254, "feat_type": "way", "quality_categories": "wrong_mispelled_or_unlisted_values", "issue_ids": "[7]", "osm_url": "https://www.openstreetmap.org/way/1051404254", "josm_url": "http://127.0.0.1:8111/load_object?new_layer=false&objects=w1051404254", "id_url": "https://www.openstreetmap.org/edit?editor=id&way=1051404254#map=20/-25.4471063/-49.2314746"}}, {"type": "Feature", "geometry": {"type": "Point", "coordinates": [-49.2340729, -25.4506556]}, "properties": {"id": 1162558139, "feat_type": "way", "quality_categories": "wrong_mispelled_or_unlisted_values", "issue_ids": "[7]", "osm_url": "https://www.openstreetmap.org/way/1162558139", "josm_url": "http://127.0.0.1:8111/load_object?new_layer=false&objects=w1162558139", "id_url": "https://www.openstreetmap.org/edit?editor=id&way=1162558139#map=20/-25.4506556/-49.2340729"}}, {"type": "Feature", "geometry": {"type": "Point", "coordinates": [-49.2314746, -25.4471063]}, "properties": {"id": 1201687053, "feat_type": "way", "quality_categories": "wrong_mispelled_or_unlisted_values", "issue_ids": "[7]", "osm_url": "https://www.openstreetmap.org/way/1201687053", "josm_url": "http://127.0.0.1:8111/load_object?new_layer=false&objects=w1201687053", "id_url": "https://www.openstreetmap.org/edit?editor=id&way=1201687053#map=20/-25.4471063/-49.2314746"}}, {"type": "Feature", "geometry": {"type": "Point", "coordinates": [-49.2858542, -25.4284864]}, "properties": {"id": 1273931408, "feat_type": "way", "quality_categories": "wrong_mispelled_or_unlisted_values", "issue_ids": "[3]", "osm_url": "https://www.openstreetmap.org/way/1273931408", "josm_url": "http://127.0.0.1:8111/load_object?new_layer=false&objects=w1273931408", "id_url": "https://www.openstreetmap.org/edit?editor=id&way=1273931408#map=20/-25.4284864/-49.2858542"}}, {"type": "Feature", "geometry": {"type": "Point", "coordinates": [-49.2859568, -25.428456]}, "properties": {"id": 1273931409, "feat_type": "way", "quality_categories": "wrong_mispelled_or_unlisted_values", "issue_ids": "[3]", "osm_url": "https://www.openstreetmap.org/way/1273931409", "josm_url": "http://127.0.0.1:8111/load_object?new_layer=false&objects=w1273931409", "id_url": "https://www.openstreetmap.org/edit?editor=id&way=1273931409#map=20/-25.428456/-49.2859568"}}, {"type": "Feature", "geometry": {"type": "Point", "coordinates": [-49.2860695, -25.4280854]}, "properties": {"id": 1306689992, "feat_type": "way", "quality_categories": "wrong_mispelled_or_unlisted_values", "issue_ids": "[3]", "osm_url": "https://www.openstreetmap.org/way/1306689992", "josm_url": "http://127.0.0.1:8111/load_object?new_layer=false&objects=w1306689992", "id_url": "https://www.openstreetmap.org/edit?editor=id&way=1306689992#map=20/-25.4280854/-49.2860695"}}, {"type": "Feature", "geometry": {"type": "Point", "coordinates": [-49.28512, -25.4281992]}, "properties": {"id": 1385059209, "feat_type": "way", "quality_categories": "wrong_mispelled_or_unlisted_values", "issue_ids": "[3]", "osm_url": "https://www.openstreetmap.org/way/1385059209", "josm_url": "http://127.0.0.1:8111/load_object?new_layer=false&objects=w1385059209", "id_url": "https://www.openstreetmap.org/edit?editor=id&way=1385059209#map=20/-25.4281992/-49.28512"}}, {"type": "Feature", "geometry": {"type": "Point", "coordinates": [-49.285919, -25.4285921]}, "properties": {"id": 1414348034, "feat_type": "way", "quality_categories": "wrong_mispelled_or_unlisted_values", "issue_ids": "[3]", "osm_url": "https://www.openstreetmap.org/way/1414348034", "josm_url": "http://127.0.0.1:8111/load_object?new_layer=false&objects=w1414348034", "id_url": "https://www.openstreetmap.org/edit?editor=id&way=1414348034#map=20/-25.4285921/-49.285919"}}, {"type": "Feature", "geometry": {"type": "Point", "coordinates": [-49.2852752, -25.4283222]}, "properties": {"id": 1414348045, "feat_type": "way", "quality_categories": "wrong_mispelled_or_unlisted_values", "issue_ids": "[3]", "osm_url": "https://www.openstreetmap.org/way/1414348045", "josm_url": "http://127.0.0.1:8111/load_object?new_layer=false&objects=w1414348045", "id_url": "https://www.openstreetmap.org/edit?editor=id&way=1414348045#map=20/-25.4283222/-49.2852752"}}, {"type": "Feature", "geometry": {"type": "Point", "coordinates": [-49.2853794, -25.4282754]}, "properties": {"id": 1414348046, "feat_type": "way", "quality_categories": "wrong_mispelled_or_unlisted_values", "issue_ids": "[3]", "osm_url": "https://www.openstreetmap.org/way/1414348046", "josm_url": "http://127.0.0.1:8111/load_object?new_layer=false&objects=w1414348046", "id_url": "https://www.openstreetmap.org/edit?editor=id&way=1414348046#map=20/-25.4282754/-49.2853794"}}, {"type": "Feature", "geometry": {"type": "Point", "coordinates": [-49.2852782, -25.4281882]}, "properties": {"id": 1414348047, "feat_type": "way", "quality_categories": "wrong_mispelled_or_unlisted_values", "issue_ids": "[3]", "osm_url": "https://www.openstreetmap.org/way/1414348047", "josm_url": "http://127.0.0.1:8111/load_object?new_layer=false&objects=w1414348047", "id_url": "https://www.openstreetmap.org/edit?editor=id&way=1414348047#map=20/-25.4281882/-49.2852782"}}, {"type": "Feature", "geometry": {"type": "Point", "coordinates": [-49.3049699, -25.4023564]}, "properties": {"id": 1526205762, "feat_type": "way", "quality_categories": "wrong_mispelled_or_unlisted_values", "issue_ids": "[1]", "osm_url": "https://www.openstreetmap.org/way/1526205762", "josm_url": "http://127.0.0.1:8111/load_object?new_layer=false&objects=w1526205762", "id_url": "https://www.openstreetmap.org/edit?editor=id&way=1526205762#map=20/-25.4023564/-49.3049699"}}]}