{"type": "FeatureCollection", "features": [{"type": "Feature", "geometry": {"type": "Point", "coordinates": [-49.2605232, -25.435199]}, "properties": {"id": 846529475, "feat_type": "node", "quality_categories": "disjointed_geometries, improper_keys", "issue_ids": "[0, 1]", "osm_url": "https://www.openstreetmap.org/node/846529475", "josm_url": "http://127.0.0.1:8111/load_object?new_layer=false&objects=n846529475", "id_url": "https://www.openstreetmap.org/edit?editor=id&node=846529475#map=20/-25.435199/-49.2605232"}}, {"type": "Feature", "geometry": {"type": "Point", "coordinates": [-49.2593667, -25.4434026]}, "properties": {"id": 846529477, "feat_type": "node", "quality_categories": "disjointed_geometries, improper_keys", "issue_ids": "[0, 1]", "osm_url": "https://www.openstreetmap.org/node/846529477", "josm_url": "http://127.0.0.1:8111/load_object?new_layer=false&objects=n846529477", "id_url": "https://www.openstreetmap.org/edit?editor=id&node=846529477#map=20/-25.4434026/-49.2593667"}}, {"type": "Feature", "geometry": {"type": "Point", "coordinates": [-49.2698168, -25.4022317]}, "properties": {"id": 881735107, "feat_type": "node", "quality_categories": "disjointed_geometries, improper_keys", "issue_ids": "[2, 1]", "osm_url": "https://www.openstreetmap.org/node/881735107", "josm_url": "http://127.0.0.1:8111/load_object?new_layer=false&objects=n881735107", "id_url": "https://www.openstreetmap.org/edit?editor=id&node=881735107#map=20/-25.4022317/-49.2698168"}}, {"type": "Feature", "geometry": {"type": "Point", "coordinates": [-49.2300199, -25.4163473]}, "properties": {"id": 1802228562, "feat_type": "node", "quality_categories": "disjointed_geometries, improper_keys", "issue_ids": "[3, 1]", "osm_url": "https://www.openstreetmap.org/node/1802228562", "josm_url": "http://127.0.0.1:8111/load_object?new_layer=false&objects=n1802228562", "id_url": "https://www.openstreetmap.org/edit?editor=id&node=1802228562#map=20/-25.4163473/-49.2300199"}}, {"type": "Feature", "geometry": {"type": "Point", "coordinates": [-49.2686529, -25.4418143]}, "properties": {"id": 2331647911, "feat_type": "node", "quality_categories": "disjointed_geometries, improper_keys", "issue_ids": "[0, 1]", "osm_url": "https://www.openstreetmap.org/node/2331647911", "josm_url": "http://127.0.0.1:8111/load_object?new_layer=false&objects=n2331647911", "id_url": "https://www.openstreetmap.org/edit?editor=id&node=2331647911#map=20/-25.4418143/-49.2686529"}}, {"type": "Feature", "geometry": {"type": "Point", "coordinates": [-49.2685341, -25.442069]}, "properties": {"id": 2331647914, "feat_type": "node", "quality_categories": "disjointed_geometries, improper_keys", "issue_ids": "[3, 1]", "osm_url": "https://www.openstreetmap.org/node/2331647914", "josm_url": "http://127.0.0.1:8111/load_object?new_layer=false&objects=n2331647914", "id_url": "https://www.openstreetmap.org/edit?editor=id&node=2331647914#map=20/-25.442069/-49.2685341"}}, {"type": "Feature", "geometry": {"type": "Point", "coordinates": [-49.2680816, -25.4235693]}, "properties": {"id": 5445949867, "feat_type": "node", "quality_categories": "disjointed_geometries, improper_keys", "issue_ids": "[2, 1]", "osm_url": "https://www.openstreetmap.org/node/5445949867", "josm_url": "http://127.0.0.1:8111/load_object?new_layer=false&objects=n5445949867", "id_url": "https://www.openstreetmap.org/edit?editor=id&node=5445949867#map=20/-25.4235693/-49.2680816"}}, {"type": "Feature", "geometry": {"type": "Point", "coordinates": [-49.3136681, -25.5383702]}, "properties": {"id": 5842579987, "feat_type": "node", "quality_categories": "disjointed_geometries, improper_keys", "issue_ids": "[4, 1]", "osm_url": "https://www.openstreetmap.org/node/5842579987", "josm_url": "http://127.0.0.1:8111/load_object?new_layer=false&objects=n5842579987", "id_url": "https://www.openstreetmap.org/edit?editor=id&node=5842579987#map=20/-25.5383702/-49.3136681"}}, {"type": "Feature", "geometry": {"type": "Point", "coordinates": [-49.2693884, -25.4402366]}, "properties": {"id": 6164092860, "feat_type": "node", "quality_categories": "disjointed_geometries, improper_keys", "issue_ids": "[2, 1]", "osm_url": "https://www.openstreetmap.org/node/6164092860", "josm_url": "http://127.0.0.1:8111/load_object?new_layer=false&objects=n6164092860", "id_url": "https://www.openstreetmap.org/edit?editor=id&node=6164092860#map=20/-25.4402366/-49.2693884"}}, {"type": "Feature", "geometry": {"type": "Point", "coordinates": [-49.2692318, -25.4405734]}, "properties": {"id": 6164092861, "feat_type": "node", "quality_categories": "disjointed_geometries, improper_keys", "issue_ids": "[2, 1]", "osm_url": "https://www.openstreetmap.org/node/6164092861", "josm_url": "http://127.0.0.1:8111/load_object?new_layer=false&objects=n6164092861", "id_url": "https://www.openstreetmap.org/edit?editor=id&node=6164092861#map=20/-25.4405734/-49.2692318"}}, {"type": "Feature", "geometry": {"type": "Point", "coordinates": [-49.2732984, -25.4420885]}, "properties": {"id": 6164092881, "feat_type": "node", "quality_categories": "disjointed_geometries, improper_keys", "issue_ids": "[2, 1]", "osm_url": "https://www.openstreetmap.org/node/6164092881", "josm_url": "http://127.0.0.1:8111/load_object?new_layer=false&objects=n6164092881", "id_url": "https://www.openstreetmap.org/edit?editor=id&node=6164092881#map=20/-25.4420885/-49.2732984"}}, {"type": "Feature", "geometry": {"type": "Point", "coordinates": [-49.2712402, -25.4413418]}, "properties": {"id": 6164095891, "feat_type": "node", "quality_categories": "disjointed_geometries, improper_keys", "issue_ids": "[2, 1]", "osm_url": "https://www.openstreetmap.org/node/6164095891", "josm_url": "http://127.0.0.1:8111/load_object?new_layer=false&objects=n6164095891", "id_url": "https://www.openstreetmap.org/edit?editor=id&node=6164095891#map=20/-25.4413418/-49.2712402"}}, {"type": "Feature", "geometry": {"type": "Point", "coordinates": [-49.2699762, -25.397615]}, "properties": {"id": 6390644452, "feat_type": "node", "quality_categories": "disjointed_geometries, improper_keys", "issue_ids": "[2, 1]", "osm_url": "https://www.openstreetmap.org/node/6390644452", "josm_url": "http://127.0.0.1:8111/load_object?new_layer=false&objects=n6390644452", "id_url": "https://www.openstreetmap.org/edit?editor=id&node=6390644452#map=20/-25.397615/-49.2699762"}}, {"type": "Feature", "geometry": {"type": "Point", "coordinates": [-49.2699693, -25.3986948]}, "properties": {"id": 6390644454, "feat_type": "node", "quality_categories": "disjointed_geometries, improper_keys", "issue_ids": "[2, 1]", "osm_url": "https://www.openstreetmap.org/node/6390644454", "josm_url": "http://127.0.0.1:8111/load_object?new_layer=false&objects=n6390644454", "id_url": "https://www.openstreetmap.org/edit?editor=id&node=6390644454#map=20/-25.3986948/-49.2699693"}}, {"type": "Feature", "geometry": {"type": "Point", "coordinates": [-49.2185679, -25.4180084]}, "properties": {"id": 7042277861, "feat_type": "node", "quality_categories": "disjointed_geometries, improper_keys", "issue_ids": "[2, 1]", "osm_url": "https://www.openstreetmap.org/node/7042277861", "josm_url": "http://127.0.0.1:8111/load_object?new_layer=false&objects=n7042277861", "id_url": "https://www.openstreetmap.org/edit?editor=id&node=7042277861#map=20/-25.4180084/-49.2185679"}}, {"type": "Feature", "geometry": {"type": "Point", "coordinates": [-49.2183997, -25.4179874]}, "properties": {"id": 9366157641, "feat_type": "node", "quality_categories": "disjointed_geometries, improper_keys", "issue_ids": "[2, 1]", "osm_url": "https://www.openstreetmap.org/node/9366157641", "josm_url": "http://127.0.0.1:8111/load_object?new_layer=false&objects=n9366157641", "id_url": "https://www.openstreetmap.org/edit?editor=id&node=9366157641#map=20/-25.4179874/-49.2183997"}}, {"type": "Feature", "geometry": {"type": "Point", "coordinates": [-49.2269756, -25.5123019]}, "properties": {"id": 9986507242, "feat_type": "node", "quality_categories": "disjointed_geometries, improper_keys", "issue_ids": "[2, 1]", "osm_url": "https://www.openstreetmap.org/node/9986507242", "josm_url": "http://127.0.0.1:8111/load_object?new_layer=false&objects=n9986507242", "id_url": "https://www.openstreetmap.org/edit?editor=id&node=9986507242#map=20/-25.5123019/-49.2269756"}}, {"type": "Feature", "geometry": {"type": "Point", "coordinates": [-49.2267146, -25.5121968]}, "properties": {"id": 9986507243, "feat_type": "node", "quality_categories": "disjointed_geometries, improper_keys", "issue_ids": "[2, 1]", "osm_url": "https://www.openstreetmap.org/node/9986507243", "josm_url": "http://127.0.0.1:8111/load_object?new_layer=false&objects=n9986507243", "id_url": "https://www.openstreetmap.org/edit?editor=id&node=9986507243#map=20/-25.5121968/-49.2267146"}}, {"type": "Feature", "geometry": {"type": "Point", "coordinates": [-49.2974349, -25.5058813]}, "properties": {"id": 10053848310, "feat_type": "node", "quality_categories": "disjointed_geometries, improper_keys", "issue_ids": "[0, 1]", "osm_url": "https://www.openstreetmap.org/node/10053848310", "josm_url": "http://127.0.0.1:8111/load_object?new_layer=false&objects=n10053848310", "id_url": "https://www.openstreetmap.org/edit?editor=id&node=10053848310#map=20/-25.5058813/-49.2974349"}}, {"type": "Feature", "geometry": {"type": "Point", "coordinates": [-49.2172882, -25.4711227]}, "properties": {"id": 12395490254, "feat_type": "node", "quality_categories": "disjointed_geometries, uncanny_keys", "issue_ids": "[5, 1]", "osm_url": "https://www.openstreetmap.org/node/12395490254", "josm_url": "http://127.0.0.1:8111/load_object?new_layer=false&objects=n12395490254", "id_url": "https://www.openstreetmap.org/edit?editor=id&node=12395490254#map=20/-25.4711227/-49.2172882"}}, {"type": "Feature", "geometry": {"type": "Point", "coordinates": [-49.2827609, -25.4227568]}, "properties": {"id": 13800323453, "feat_type": "node", "quality_categories": "disjointed_geometries, improper_keys", "issue_ids": "[6, 1]", "osm_url": "https://www.openstreetmap.org/node/13800323453", "josm_url": "http://127.0.0.1:8111/load_object?new_layer=false&objects=n13800323453", "id_url": "https://www.openstreetmap.org/edit?editor=id&node=13800323453#map=20/-25.4227568/-49.2827609"}}, {"type": "Feature", "geometry": {"type": "Point", "coordinates": [-49.2827481, -25.4227104]}, "properties": {"id": 13800323454, "feat_type": "node", "quality_categories": "disjointed_geometries, improper_keys", "issue_ids": "[6, 1]", "osm_url": "https://www.openstreetmap.org/node/13800323454", "josm_url": "http://127.0.0.1:8111/load_object?new_layer=false&objects=n13800323454", "id_url": "https://www.openstreetmap.org/edit?editor=id&node=13800323454#map=20/-25.4227104/-49.2827481"}}, {"type": "Feature", "geometry": {"type": "Point", "coordinates": [-49.2825426, -25.4228622]}, "properties": {"id": 13800323455, "feat_type": "node", "quality_categories": "disjointed_geometries, improper_keys", "issue_ids": "[6, 1]", "osm_url": "https://www.openstreetmap.org/node/13800323455", "josm_url": "http://127.0.0.1:8111/load_object?new_layer=false&objects=n13800323455", "id_url": "https://www.openstreetmap.org/edit?editor=id&node=13800323455#map=20/-25.4228622/-49.2825426"}}, {"type": "Feature", "geometry": {"type": "Point", "coordinates": [-49.2819557, -25.4229008]}, "properties": {"id": 13800323456, "feat_type": "node", "quality_categories": "disjointed_geometries, improper_keys", "issue_ids": "[6, 1]", "osm_url": "https://www.openstreetmap.org/node/13800323456", "josm_url": "http://127.0.0.1:8111/load_object?new_layer=false&objects=n13800323456", "id_url": "https://www.openstreetmap.org/edit?editor=id&node=13800323456#map=20/-25.4229008/-49.2819557"}}, {"type": "Feature", "geometry": {"type": "Point", "coordinates": [-49.2819494, -25.4228767]}, "properties": {"id": 13800323457, "feat_type": "node", "quality_categories": "disjointed_geometries, improper_keys", "issue_ids": "[6, 1]", "osm_url": "https://www.openstreetmap.org/node/13800323457", "josm_url": "http://127.0.0.1:8111/load_object?new_layer=false&objects=n13800323457", "id_url": "https://www.openstreetmap.org/edit?editor=id&node=13800323457#map=20/-25.4228767/-49.2819494"}}, {"type": "Feature", "geometry": {"type": "Point", "coordinates": [-49.2821824, -25.4228204]}, "properties": {"id": 13800323458, "feat_type": "node", "quality_categories": "disjointed_geometries, improper_keys", "issue_ids": "[6, 1]", "osm_url": "https://www.openstreetmap.org/node/13800323458", "josm_url": "http://127.0.0.1:8111/load_object?new_layer=false&objects=n13800323458", "id_url": "https://www.openstreetmap.org/edit?editor=id&node=13800323458#map=20/-25.4228204/-49.2821824"}}, {"type": "Feature", "geometry": {"type": "Point", "coordinates": [-49.2288431, -25.4285594]}, "properties": {"id": 14098091903, "feat_type": "node", "quality_categories": "disjointed_geometries, improper_keys, uncanny_keys", "issue_ids": "[0, 5, 1]", "osm_url": "https://www.openstreetmap.org/node/14098091903", "josm_url": "http://127.0.0.1:8111/load_object?new_layer=false&objects=n14098091903", "id_url": "https://www.openstreetmap.org/edit?editor=id&node=14098091903#map=20/-25.4285594/-49.2288431"}}, {"type": "Feature", "geometry": {"type": "Point", "coordinates": [-49.2288263, -25.42843]}, "properties": {"id": 14098091904, "feat_type": "node", "quality_categories": "disjointed_geometries, improper_keys, uncanny_keys", "issue_ids": "[0, 5, 1]", "osm_url": "https://www.openstreetmap.org/node/14098091904", "josm_url": "http://127.0.0.1:8111/load_object?new_layer=false&objects=n14098091904", "id_url": "https://www.openstreetmap.org/edit?editor=id&node=14098091904#map=20/-25.42843/-49.2288263"}}, {"type": "Feature", "geometry": {"type": "Point", "coordinates": [-49.2735804, -25.4352771]}, "properties": {"id": 24576715, "feat_type": "way", "quality_categories": "disjointed_geometries, improper_keys", "issue_ids": "[4, 1]", "osm_url": "https://www.openstreetmap.org/way/24576715", "josm_url": "http://127.0.0.1:8111/load_object?new_layer=false&objects=w24576715", "id_url": "https://www.openstreetmap.org/edit?editor=id&way=24576715#map=20/-25.4352771/-49.2735804"}}, {"type": "Feature", "geometry": {"type": "Point", "coordinates": [-49.349695254643734, -25.43983885]}, "properties": {"id": 1221520922, "feat_type": "way", "quality_categories": "disjointed_geometries, improper_keys", "issue_ids": "[7, 1]", "osm_url": "https://www.openstreetmap.org/way/1221520922", "josm_url": "http://127.0.0.1:8111/load_object?new_layer=false&objects=w1221520922", "id_url": "https://www.openstreetmap.org/edit?editor=id&way=1221520922#map=20/-25.43983885/-49.349695254643734"}}, {"type": "Feature", "geometry": {"type": "Point", "coordinates": [-49.3078214, -25.4374755]}, "properties": {"id": 1370732364, "feat_type": "node", "quality_categories": "disjointed_geometries", "issue_ids": "[1]", "osm_url": "https://www.openstreetmap.org/node/1370732364", "josm_url": "http://127.0.0.1:8111/load_object?new_layer=false&objects=n1370732364", "id_url": "https://www.openstreetmap.org/edit?editor=id&node=1370732364#map=20/-25.4374755/-49.3078214"}}, {"type": "Feature", "geometry": {"type": "Point", "coordinates": [-49.30886, -25.4566]}, "properties": {"id": 5522508059, "feat_type": "node", "quality_categories": "disjointed_geometries", "issue_ids": "[1]", "osm_url": "https://www.openstreetmap.org/node/5522508059", "josm_url": "http://127.0.0.1:8111/load_object?new_layer=false&objects=n5522508059", "id_url": "https://www.openstreetmap.org/edit?editor=id&node=5522508059#map=20/-25.4566/-49.30886"}}, {"type": "Feature", "geometry": {"type": "Point", "coordinates": [-49.3171953, -25.4590571]}, "properties": {"id": 5550830954, "feat_type": "node", "quality_categories": "disjointed_geometries", "issue_ids": "[1]", "osm_url": "https://www.openstreetmap.org/node/5550830954", "josm_url": "http://127.0.0.1:8111/load_object?new_layer=false&objects=n5550830954", "id_url": "https://www.openstreetmap.org/edit?editor=id&node=5550830954#map=20/-25.4590571/-49.3171953"}}, {"type": "Feature", "geometry": {"type": "Point", "coordinates": [-49.2285324, -25.5129283]}, "properties": {"id": 6707473489, "feat_type": "node", "quality_categories": "disjointed_geometries", "issue_ids": "[1]", "osm_url": "https://www.openstreetmap.org/node/6707473489", "josm_url": "http://127.0.0.1:8111/load_object?new_layer=false&objects=n6707473489", "id_url": "https://www.openstreetmap.org/edit?editor=id&node=6707473489#map=20/-25.5129283/-49.2285324"}}, {"type": "Feature", "geometry": {"type": "Point", "coordinates": [-49.2694159, -25.4216877]}, "properties": {"id": 7593965421, "feat_type": "node", "quality_categories": "disjointed_geometries", "issue_ids": "[1]", "osm_url": "https://www.openstreetmap.org/node/7593965421", "josm_url": "http://127.0.0.1:8111/load_object?new_layer=false&objects=n7593965421", "id_url": "https://www.openstreetmap.org/edit?editor=id&node=7593965421#map=20/-25.4216877/-49.2694159"}}, {"type": "Feature", "geometry": {"type": "Point", "coordinates": [-49.2490977, -25.4859465]}, "properties": {"id": 13961074547, "feat_type": "node", "quality_categories": "disjointed_geometries", "issue_ids": "[1]", "osm_url": "https://www.openstreetmap.org/node/13961074547", "josm_url": "http://127.0.0.1:8111/load_object?new_layer=false&objects=n13961074547", "id_url": "https://www.openstreetmap.org/edit?editor=id&node=13961074547#map=20/-25.4859465/-49.2490977"}}, {"type": "Feature", "geometry": {"type": "Point", "coordinates": [-49.2498935, -25.4842114]}, "properties": {"id": 13961074549, "feat_type": "node", "quality_categories": "disjointed_geometries", "issue_ids": "[1]", "osm_url": "https://www.openstreetmap.org/node/13961074549", "josm_url": "http://127.0.0.1:8111/load_object?new_layer=false&objects=n13961074549", "id_url": "https://www.openstreetmap.org/edit?editor=id&node=13961074549#map=20/-25.4842114/-49.2498935"}}, {"type": "Feature", "geometry": {"type": "Point", "coordinates": [-49.2499535, -25.484124]}, "properties": {"id": 13961074550, "feat_type": "node", "quality_categories": "disjointed_geometries", "issue_ids": "[1]", "osm_url": "https://www.openstreetmap.org/node/13961074550", "josm_url": "http://127.0.0.1:8111/load_object?new_layer=false&objects=n13961074550", "id_url": "https://www.openstreetmap.org/edit?editor=id&node=13961074550#map=20/-25.484124/-49.2499535"}}, {"type": "Feature", "geometry": {"type": "Point", "coordinates": [-49.2500198, -25.4840967]}, "properties": {"id": 13961074553, "feat_type": "node", "quality_categories": "disjointed_geometries", "issue_ids": "[1]", "osm_url": "https://www.openstreetmap.org/node/13961074553", "josm_url": "http://127.0.0.1:8111/load_object?new_layer=false&objects=n13961074553", "id_url": "https://www.openstreetmap.org/edit?editor=id&node=13961074553#map=20/-25.4840967/-49.2500198"}}, {"type": "Feature", "geometry": {"type": "Point", "coordinates": [-49.2508452, -25.4823218]}, "properties": {"id": 13961074555, "feat_type": "node", "quality_categories": "disjointed_geometries", "issue_ids": "[1]", "osm_url": "https://www.openstreetmap.org/node/13961074555", "josm_url": "http://127.0.0.1:8111/load_object?new_layer=false&objects=n13961074555", "id_url": "https://www.openstreetmap.org/edit?editor=id&node=13961074555#map=20/-25.4823218/-49.2508452"}}, {"type": "Feature", "geometry": {"type": "Point", "coordinates": [-49.2508944, -25.4823032]}, "properties": {"id": 13961074557, "feat_type": "node", "quality_categories": "disjointed_geometries", "issue_ids": "[1]", "osm_url": "https://www.openstreetmap.org/node/13961074557", "josm_url": "http://127.0.0.1:8111/load_object?new_layer=false&objects=n13961074557", "id_url": "https://www.openstreetmap.org/edit?editor=id&node=13961074557#map=20/-25.4823032/-49.2508944"}}, {"type": "Feature", "geometry": {"type": "Point", "coordinates": [-49.2513844, -25.4812868]}, "properties": {"id": 13961074559, "feat_type": "node", "quality_categories": "disjointed_geometries", "issue_ids": "[1]", "osm_url": "https://www.openstreetmap.org/node/13961074559", "josm_url": "http://127.0.0.1:8111/load_object?new_layer=false&objects=n13961074559", "id_url": "https://www.openstreetmap.org/edit?editor=id&node=13961074559#map=20/-25.4812868/-49.2513844"}}, {"type": "Feature", "geometry": {"type": "Point", "coordinates": [-49.2513634, -25.4812518]}, "properties": {"id": 13961074561, "feat_type": "node", "quality_categories": "disjointed_geometries", "issue_ids": "[1]", "osm_url": "https://www.openstreetmap.org/node/13961074561", "josm_url": "http://127.0.0.1:8111/load_object?new_layer=false&objects=n13961074561", "id_url": "https://www.openstreetmap.org/edit?editor=id&node=13961074561#map=20/-25.4812518/-49.2513634"}}, {"type": "Feature", "geometry": {"type": "Point", "coordinates": [-49.2498484, -25.4792607]}, "properties": {"id": 13961074563, "feat_type": "node", "quality_categories": "disjointed_geometries", "issue_ids": "[1]", "osm_url": "https://www.openstreetmap.org/node/13961074563", "josm_url": "http://127.0.0.1:8111/load_object?new_layer=false&objects=n13961074563", "id_url": "https://www.openstreetmap.org/edit?editor=id&node=13961074563#map=20/-25.4792607/-49.2498484"}}, {"type": "Feature", "geometry": {"type": "Point", "coordinates": [-49.2496377, -25.4791949]}, "properties": {"id": 13961074565, "feat_type": "node", "quality_categories": "disjointed_geometries", "issue_ids": "[1]", "osm_url": "https://www.openstreetmap.org/node/13961074565", "josm_url": "http://127.0.0.1:8111/load_object?new_layer=false&objects=n13961074565", "id_url": "https://www.openstreetmap.org/edit?editor=id&node=13961074565#map=20/-25.4791949/-49.2496377"}}, {"type": "Feature", "geometry": {"type": "Point", "coordinates": [-49.2496454, -25.4792252]}, "properties": {"id": 13961074567, "feat_type": "node", "quality_categories": "disjointed_geometries", "issue_ids": "[1]", "osm_url": "https://www.openstreetmap.org/node/13961074567", "josm_url": "http://127.0.0.1:8111/load_object?new_layer=false&objects=n13961074567", "id_url": "https://www.openstreetmap.org/edit?editor=id&node=13961074567#map=20/-25.4792252/-49.2496454"}}, {"type": "Feature", "geometry": {"type": "Point", "coordinates": [-49.2487969, -25.4788476]}, "properties": {"id": 13961074569, "feat_type": "node", "quality_categories": "disjointed_geometries", "issue_ids": "[1]", "osm_url": "https://www.openstreetmap.org/node/13961074569", "josm_url": "http://127.0.0.1:8111/load_object?new_layer=false&objects=n13961074569", "id_url": "https://www.openstreetmap.org/edit?editor=id&node=13961074569#map=20/-25.4788476/-49.2487969"}}, {"type": "Feature", "geometry": {"type": "Point", "coordinates": [-49.2482971, -25.47989]}, "properties": {"id": 13961074571, "feat_type": "node", "quality_categories": "disjointed_geometries", "issue_ids": "[1]", "osm_url": "https://www.openstreetmap.org/node/13961074571", "josm_url": "http://127.0.0.1:8111/load_object?new_layer=false&objects=n13961074571", "id_url": "https://www.openstreetmap.org/edit?editor=id&node=13961074571#map=20/-25.47989/-49.2482971"}}, {"type": "Feature", "geometry": {"type": "Point", "coordinates": [-49.2490769, -25.4803311]}, "properties": {"id": 13961074573, "feat_type": "node", "quality_categories": "disjointed_geometries", "issue_ids": "[1]", "osm_url": "https://www.openstreetmap.org/node/13961074573", "josm_url": "http://127.0.0.1:8111/load_object?new_layer=false&objects=n13961074573", "id_url": "https://www.openstreetmap.org/edit?editor=id&node=13961074573#map=20/-25.4803311/-49.2490769"}}, {"type": "Feature", "geometry": {"type": "Point", "coordinates": [-49.2491032, -25.4803684]}, "properties": {"id": 13961074575, "feat_type": "node", "quality_categories": "disjointed_geometries", "issue_ids": "[1]", "osm_url": "https://www.openstreetmap.org/node/13961074575", "josm_url": "http://127.0.0.1:8111/load_object?new_layer=false&objects=n13961074575", "id_url": "https://www.openstreetmap.org/edit?editor=id&node=13961074575#map=20/-25.4803684/-49.2491032"}}, {"type": "Feature", "geometry": {"type": "Point", "coordinates": [-49.2491421, -25.4802297]}, "properties": {"id": 13961074577, "feat_type": "node", "quality_categories": "disjointed_geometries", "issue_ids": "[1]", "osm_url": "https://www.openstreetmap.org/node/13961074577", "josm_url": "http://127.0.0.1:8111/load_object?new_layer=false&objects=n13961074577", "id_url": "https://www.openstreetmap.org/edit?editor=id&node=13961074577#map=20/-25.4802297/-49.2491421"}}, {"type": "Feature", "geometry": {"type": "Point", "coordinates": [-49.2492814, -25.480254]}, "properties": {"id": 13961074579, "feat_type": "node", "quality_categories": "disjointed_geometries", "issue_ids": "[1]", "osm_url": "https://www.openstreetmap.org/node/13961074579", "josm_url": "http://127.0.0.1:8111/load_object?new_layer=false&objects=n13961074579", "id_url": "https://www.openstreetmap.org/edit?editor=id&node=13961074579#map=20/-25.480254/-49.2492814"}}, {"type": "Feature", "geometry": {"type": "Point", "coordinates": [-49.2492464, -25.4804044]}, "properties": {"id": 13961074581, "feat_type": "node", "quality_categories": "disjointed_geometries", "issue_ids": "[1]", "osm_url": "https://www.openstreetmap.org/node/13961074581", "josm_url": "http://127.0.0.1:8111/load_object?new_layer=false&objects=n13961074581", "id_url": "https://www.openstreetmap.org/edit?editor=id&node=13961074581#map=20/-25.4804044/-49.2492464"}}, {"type": "Feature", "geometry": {"type": "Point", "coordinates": [-49.2492093, -25.4804126]}, "properties": {"id": 13961074583, "feat_type": "node", "quality_categories": "disjointed_geometries", "issue_ids": "[1]", "osm_url": "https://www.openstreetmap.org/node/13961074583", "josm_url": "http://127.0.0.1:8111/load_object?new_layer=false&objects=n13961074583", "id_url": "https://www.openstreetmap.org/edit?editor=id&node=13961074583#map=20/-25.4804126/-49.2492093"}}, {"type": "Feature", "geometry": {"type": "Point", "coordinates": [-49.2502795, -25.4808392]}, "properties": {"id": 13961074585, "feat_type": "node", "quality_categories": "disjointed_geometries", "issue_ids": "[1]", "osm_url": "https://www.openstreetmap.org/node/13961074585", "josm_url": "http://127.0.0.1:8111/load_object?new_layer=false&objects=n13961074585", "id_url": "https://www.openstreetmap.org/edit?editor=id&node=13961074585#map=20/-25.4808392/-49.2502795"}}, {"type": "Feature", "geometry": {"type": "Point", "coordinates": [-49.2503359, -25.4808344]}, "properties": {"id": 13961074587, "feat_type": "node", "quality_categories": "disjointed_geometries", "issue_ids": "[1]", "osm_url": "https://www.openstreetmap.org/node/13961074587", "josm_url": "http://127.0.0.1:8111/load_object?new_layer=false&objects=n13961074587", "id_url": "https://www.openstreetmap.org/edit?editor=id&node=13961074587#map=20/-25.4808344/-49.2503359"}}, {"type": "Feature", "geometry": {"type": "Point", "coordinates": [-49.2502111, -25.4808164]}, "properties": {"id": 13961074589, "feat_type": "node", "quality_categories": "disjointed_geometries", "issue_ids": "[1]", "osm_url": "https://www.openstreetmap.org/node/13961074589", "josm_url": "http://127.0.0.1:8111/load_object?new_layer=false&objects=n13961074589", "id_url": "https://www.openstreetmap.org/edit?editor=id&node=13961074589#map=20/-25.4808164/-49.2502111"}}, {"type": "Feature", "geometry": {"type": "Point", "coordinates": [-49.250279, -25.4806776]}, "properties": {"id": 13961074591, "feat_type": "node", "quality_categories": "disjointed_geometries", "issue_ids": "[1]", "osm_url": "https://www.openstreetmap.org/node/13961074591", "josm_url": "http://127.0.0.1:8111/load_object?new_layer=false&objects=n13961074591", "id_url": "https://www.openstreetmap.org/edit?editor=id&node=13961074591#map=20/-25.4806776/-49.250279"}}, {"type": "Feature", "geometry": {"type": "Point", "coordinates": [-49.2502429, -25.4806906]}, "properties": {"id": 13961074593, "feat_type": "node", "quality_categories": "disjointed_geometries", "issue_ids": "[1]", "osm_url": "https://www.openstreetmap.org/node/13961074593", "josm_url": "http://127.0.0.1:8111/load_object?new_layer=false&objects=n13961074593", "id_url": "https://www.openstreetmap.org/edit?editor=id&node=13961074593#map=20/-25.4806906/-49.2502429"}}, {"type": "Feature", "geometry": {"type": "Point", "coordinates": [-49.248252, -25.4799998]}, "properties": {"id": 13961074595, "feat_type": "node", "quality_categories": "disjointed_geometries", "issue_ids": "[1]", "osm_url": "https://www.openstreetmap.org/node/13961074595", "josm_url": "http://127.0.0.1:8111/load_object?new_layer=false&objects=n13961074595", "id_url": "https://www.openstreetmap.org/edit?editor=id&node=13961074595#map=20/-25.4799998/-49.248252"}}, {"type": "Feature", "geometry": {"type": "Point", "coordinates": [-49.2481992, -25.4800455]}, "properties": {"id": 13961074597, "feat_type": "node", "quality_categories": "disjointed_geometries", "issue_ids": "[1]", "osm_url": "https://www.openstreetmap.org/node/13961074597", "josm_url": "http://127.0.0.1:8111/load_object?new_layer=false&objects=n13961074597", "id_url": "https://www.openstreetmap.org/edit?editor=id&node=13961074597#map=20/-25.4800455/-49.2481992"}}, {"type": "Feature", "geometry": {"type": "Point", "coordinates": [-49.2462806, -25.4839989]}, "properties": {"id": 13961090309, "feat_type": "node", "quality_categories": "disjointed_geometries", "issue_ids": "[1]", "osm_url": "https://www.openstreetmap.org/node/13961090309", "josm_url": "http://127.0.0.1:8111/load_object?new_layer=false&objects=n13961090309", "id_url": "https://www.openstreetmap.org/edit?editor=id&node=13961090309#map=20/-25.4839989/-49.2462806"}}, {"type": "Feature", "geometry": {"type": "Point", "coordinates": [-49.246831, -25.4850198]}, "properties": {"id": 13961090311, "feat_type": "node", "quality_categories": "disjointed_geometries", "issue_ids": "[1]", "osm_url": "https://www.openstreetmap.org/node/13961090311", "josm_url": "http://127.0.0.1:8111/load_object?new_layer=false&objects=n13961090311", "id_url": "https://www.openstreetmap.org/edit?editor=id&node=13961090311#map=20/-25.4850198/-49.246831"}}, {"type": "Feature", "geometry": {"type": "Point", "coordinates": [-49.2469306, -25.4850703]}, "properties": {"id": 13961090313, "feat_type": "node", "quality_categories": "disjointed_geometries", "issue_ids": "[1]", "osm_url": "https://www.openstreetmap.org/node/13961090313", "josm_url": "http://127.0.0.1:8111/load_object?new_layer=false&objects=n13961090313", "id_url": "https://www.openstreetmap.org/edit?editor=id&node=13961090313#map=20/-25.4850703/-49.2469306"}}, {"type": "Feature", "geometry": {"type": "Point", "coordinates": [-49.247754, -25.483391]}, "properties": {"id": 13961090315, "feat_type": "node", "quality_categories": "disjointed_geometries", "issue_ids": "[1]", "osm_url": "https://www.openstreetmap.org/node/13961090315", "josm_url": "http://127.0.0.1:8111/load_object?new_layer=false&objects=n13961090315", "id_url": "https://www.openstreetmap.org/edit?editor=id&node=13961090315#map=20/-25.483391/-49.247754"}}, {"type": "Feature", "geometry": {"type": "Point", "coordinates": [-49.2478105, -25.4833776]}, "properties": {"id": 13961090317, "feat_type": "node", "quality_categories": "disjointed_geometries", "issue_ids": "[1]", "osm_url": "https://www.openstreetmap.org/node/13961090317", "josm_url": "http://127.0.0.1:8111/load_object?new_layer=false&objects=n13961090317", "id_url": "https://www.openstreetmap.org/edit?editor=id&node=13961090317#map=20/-25.4833776/-49.2478105"}}, {"type": "Feature", "geometry": {"type": "Point", "coordinates": [-49.2476399, -25.4833504]}, "properties": {"id": 13961090319, "feat_type": "node", "quality_categories": "disjointed_geometries", "issue_ids": "[1]", "osm_url": "https://www.openstreetmap.org/node/13961090319", "josm_url": "http://127.0.0.1:8111/load_object?new_layer=false&objects=n13961090319", "id_url": "https://www.openstreetmap.org/edit?editor=id&node=13961090319#map=20/-25.4833504/-49.2476399"}}, {"type": "Feature", "geometry": {"type": "Point", "coordinates": [-49.2476273, -25.4833038]}, "properties": {"id": 13961090321, "feat_type": "node", "quality_categories": "disjointed_geometries", "issue_ids": "[1]", "osm_url": "https://www.openstreetmap.org/node/13961090321", "josm_url": "http://127.0.0.1:8111/load_object?new_layer=false&objects=n13961090321", "id_url": "https://www.openstreetmap.org/edit?editor=id&node=13961090321#map=20/-25.4833038/-49.2476273"}}, {"type": "Feature", "geometry": {"type": "Point", "coordinates": [-49.2478593, -25.483287]}, "properties": {"id": 13961090323, "feat_type": "node", "quality_categories": "disjointed_geometries", "issue_ids": "[1]", "osm_url": "https://www.openstreetmap.org/node/13961090323", "josm_url": "http://127.0.0.1:8111/load_object?new_layer=false&objects=n13961090323", "id_url": "https://www.openstreetmap.org/edit?editor=id&node=13961090323#map=20/-25.483287/-49.2478593"}}, {"type": "Feature", "geometry": {"type": "Point", "coordinates": [-49.2476684, -25.4832092]}, "properties": {"id": 13961090325, "feat_type": "node", "quality_categories": "disjointed_geometries", "issue_ids": "[1]", "osm_url": "https://www.openstreetmap.org/node/13961090325", "josm_url": "http://127.0.0.1:8111/load_object?new_layer=false&objects=n13961090325", "id_url": "https://www.openstreetmap.org/edit?editor=id&node=13961090325#map=20/-25.4832092/-49.2476684"}}, {"type": "Feature", "geometry": {"type": "Point", "coordinates": [-49.2477222, -25.483187]}, "properties": {"id": 13961090327, "feat_type": "node", "quality_categories": "disjointed_geometries", "issue_ids": "[1]", "osm_url": "https://www.openstreetmap.org/node/13961090327", "josm_url": "http://127.0.0.1:8111/load_object?new_layer=false&objects=n13961090327", "id_url": "https://www.openstreetmap.org/edit?editor=id&node=13961090327#map=20/-25.483187/-49.2477222"}}, {"type": "Feature", "geometry": {"type": "Point", "coordinates": [-49.2478286, -25.483233]}, "properties": {"id": 13961090329, "feat_type": "node", "quality_categories": "disjointed_geometries", "issue_ids": "[1]", "osm_url": "https://www.openstreetmap.org/node/13961090329", "josm_url": "http://127.0.0.1:8111/load_object?new_layer=false&objects=n13961090329", "id_url": "https://www.openstreetmap.org/edit?editor=id&node=13961090329#map=20/-25.483233/-49.2478286"}}, {"type": "Feature", "geometry": {"type": "Point", "coordinates": [-49.2486392, -25.4815683]}, "properties": {"id": 13961090331, "feat_type": "node", "quality_categories": "disjointed_geometries", "issue_ids": "[1]", "osm_url": "https://www.openstreetmap.org/node/13961090331", "josm_url": "http://127.0.0.1:8111/load_object?new_layer=false&objects=n13961090331", "id_url": "https://www.openstreetmap.org/edit?editor=id&node=13961090331#map=20/-25.4815683/-49.2486392"}}, {"type": "Feature", "geometry": {"type": "Point", "coordinates": [-49.2486825, -25.481541]}, "properties": {"id": 13961090333, "feat_type": "node", "quality_categories": "disjointed_geometries", "issue_ids": "[1]", "osm_url": "https://www.openstreetmap.org/node/13961090333", "josm_url": "http://127.0.0.1:8111/load_object?new_layer=false&objects=n13961090333", "id_url": "https://www.openstreetmap.org/edit?editor=id&node=13961090333#map=20/-25.481541/-49.2486825"}}, {"type": "Feature", "geometry": {"type": "Point", "coordinates": [-49.2485465, -25.4815361]}, "properties": {"id": 13961090335, "feat_type": "node", "quality_categories": "disjointed_geometries", "issue_ids": "[1]", "osm_url": "https://www.openstreetmap.org/node/13961090335", "josm_url": "http://127.0.0.1:8111/load_object?new_layer=false&objects=n13961090335", "id_url": "https://www.openstreetmap.org/edit?editor=id&node=13961090335#map=20/-25.4815361/-49.2485465"}}, {"type": "Feature", "geometry": {"type": "Point", "coordinates": [-49.2485136, -25.4814747]}, "properties": {"id": 13961090337, "feat_type": "node", "quality_categories": "disjointed_geometries", "issue_ids": "[1]", "osm_url": "https://www.openstreetmap.org/node/13961090337", "josm_url": "http://127.0.0.1:8111/load_object?new_layer=false&objects=n13961090337", "id_url": "https://www.openstreetmap.org/edit?editor=id&node=13961090337#map=20/-25.4814747/-49.2485136"}}, {"type": "Feature", "geometry": {"type": "Point", "coordinates": [-49.2485596, -25.4813885]}, "properties": {"id": 13961090339, "feat_type": "node", "quality_categories": "disjointed_geometries", "issue_ids": "[1]", "osm_url": "https://www.openstreetmap.org/node/13961090339", "josm_url": "http://127.0.0.1:8111/load_object?new_layer=false&objects=n13961090339", "id_url": "https://www.openstreetmap.org/edit?editor=id&node=13961090339#map=20/-25.4813885/-49.2485596"}}, {"type": "Feature", "geometry": {"type": "Point", "coordinates": [-49.2485986, -25.4813702]}, "properties": {"id": 13961090341, "feat_type": "node", "quality_categories": "disjointed_geometries", "issue_ids": "[1]", "osm_url": "https://www.openstreetmap.org/node/13961090341", "josm_url": "http://127.0.0.1:8111/load_object?new_layer=false&objects=n13961090341", "id_url": "https://www.openstreetmap.org/edit?editor=id&node=13961090341#map=20/-25.4813702/-49.2485986"}}, {"type": "Feature", "geometry": {"type": "Point", "coordinates": [-49.2487253, -25.4814366]}, "properties": {"id": 13961090343, "feat_type": "node", "quality_categories": "disjointed_geometries", "issue_ids": "[1]", "osm_url": "https://www.openstreetmap.org/node/13961090343", "josm_url": "http://127.0.0.1:8111/load_object?new_layer=false&objects=n13961090343", "id_url": "https://www.openstreetmap.org/edit?editor=id&node=13961090343#map=20/-25.4814366/-49.2487253"}}, {"type": "Feature", "geometry": {"type": "Point", "coordinates": [-49.2496437, -25.4819614]}, "properties": {"id": 13961090345, "feat_type": "node", "quality_categories": "disjointed_geometries", "issue_ids": "[1]", "osm_url": "https://www.openstreetmap.org/node/13961090345", "josm_url": "http://127.0.0.1:8111/load_object?new_layer=false&objects=n13961090345", "id_url": "https://www.openstreetmap.org/edit?editor=id&node=13961090345#map=20/-25.4819614/-49.2496437"}}, {"type": "Feature", "geometry": {"type": "Point", "coordinates": [-49.2496574, -25.4818472]}, "properties": {"id": 13961090347, "feat_type": "node", "quality_categories": "disjointed_geometries", "issue_ids": "[1]", "osm_url": "https://www.openstreetmap.org/node/13961090347", "josm_url": "http://127.0.0.1:8111/load_object?new_layer=false&objects=n13961090347", "id_url": "https://www.openstreetmap.org/edit?editor=id&node=13961090347#map=20/-25.4818472/-49.2496574"}}, {"type": "Feature", "geometry": {"type": "Point", "coordinates": [-49.249732, -25.481984]}, "properties": {"id": 13961090349, "feat_type": "node", "quality_categories": "disjointed_geometries", "issue_ids": "[1]", "osm_url": "https://www.openstreetmap.org/node/13961090349", "josm_url": "http://127.0.0.1:8111/load_object?new_layer=false&objects=n13961090349", "id_url": "https://www.openstreetmap.org/edit?editor=id&node=13961090349#map=20/-25.481984/-49.249732"}}, {"type": "Feature", "geometry": {"type": "Point", "coordinates": [-49.2487456, -25.4837587]}, "properties": {"id": 13961090351, "feat_type": "node", "quality_categories": "disjointed_geometries", "issue_ids": "[1]", "osm_url": "https://www.openstreetmap.org/node/13961090351", "josm_url": "http://127.0.0.1:8111/load_object?new_layer=false&objects=n13961090351", "id_url": "https://www.openstreetmap.org/edit?editor=id&node=13961090351#map=20/-25.4837587/-49.2487456"}}, {"type": "Feature", "geometry": {"type": "Point", "coordinates": [-49.2459025, -25.4791134]}, "properties": {"id": 13961090353, "feat_type": "node", "quality_categories": "disjointed_geometries", "issue_ids": "[1]", "osm_url": "https://www.openstreetmap.org/node/13961090353", "josm_url": "http://127.0.0.1:8111/load_object?new_layer=false&objects=n13961090353", "id_url": "https://www.openstreetmap.org/edit?editor=id&node=13961090353#map=20/-25.4791134/-49.2459025"}}, {"type": "Feature", "geometry": {"type": "Point", "coordinates": [-49.2460122, -25.4789723]}, "properties": {"id": 13961090355, "feat_type": "node", "quality_categories": "disjointed_geometries", "issue_ids": "[1]", "osm_url": "https://www.openstreetmap.org/node/13961090355", "josm_url": "http://127.0.0.1:8111/load_object?new_layer=false&objects=n13961090355", "id_url": "https://www.openstreetmap.org/edit?editor=id&node=13961090355#map=20/-25.4789723/-49.2460122"}}, {"type": "Feature", "geometry": {"type": "Point", "coordinates": [-49.247475, -25.4783105]}, "properties": {"id": 13961090357, "feat_type": "node", "quality_categories": "disjointed_geometries", "issue_ids": "[1]", "osm_url": "https://www.openstreetmap.org/node/13961090357", "josm_url": "http://127.0.0.1:8111/load_object?new_layer=false&objects=n13961090357", "id_url": "https://www.openstreetmap.org/edit?editor=id&node=13961090357#map=20/-25.4783105/-49.247475"}}, {"type": "Feature", "geometry": {"type": "Point", "coordinates": [-49.2471168, -25.4794213]}, "properties": {"id": 13961090359, "feat_type": "node", "quality_categories": "disjointed_geometries", "issue_ids": "[1]", "osm_url": "https://www.openstreetmap.org/node/13961090359", "josm_url": "http://127.0.0.1:8111/load_object?new_layer=false&objects=n13961090359", "id_url": "https://www.openstreetmap.org/edit?editor=id&node=13961090359#map=20/-25.4794213/-49.2471168"}}, {"type": "Feature", "geometry": {"type": "Point", "coordinates": [-49.2470894, -25.4793608]}, "properties": {"id": 13961090361, "feat_type": "node", "quality_categories": "disjointed_geometries", "issue_ids": "[1]", "osm_url": "https://www.openstreetmap.org/node/13961090361", "josm_url": "http://127.0.0.1:8111/load_object?new_layer=false&objects=n13961090361", "id_url": "https://www.openstreetmap.org/edit?editor=id&node=13961090361#map=20/-25.4793608/-49.2470894"}}, {"type": "Feature", "geometry": {"type": "Point", "coordinates": [-49.2469884, -25.4793257]}, "properties": {"id": 13961090363, "feat_type": "node", "quality_categories": "disjointed_geometries", "issue_ids": "[1]", "osm_url": "https://www.openstreetmap.org/node/13961090363", "josm_url": "http://127.0.0.1:8111/load_object?new_layer=false&objects=n13961090363", "id_url": "https://www.openstreetmap.org/edit?editor=id&node=13961090363#map=20/-25.4793257/-49.2469884"}}, {"type": "Feature", "geometry": {"type": "Point", "coordinates": [-49.2469265, -25.4793455]}, "properties": {"id": 13961090365, "feat_type": "node", "quality_categories": "disjointed_geometries", "issue_ids": "[1]", "osm_url": "https://www.openstreetmap.org/node/13961090365", "josm_url": "http://127.0.0.1:8111/load_object?new_layer=false&objects=n13961090365", "id_url": "https://www.openstreetmap.org/edit?editor=id&node=13961090365#map=20/-25.4793455/-49.2469265"}}, {"type": "Feature", "geometry": {"type": "Point", "coordinates": [-49.2469067, -25.4794995]}, "properties": {"id": 13961090367, "feat_type": "node", "quality_categories": "disjointed_geometries", "issue_ids": "[1]", "osm_url": "https://www.openstreetmap.org/node/13961090367", "josm_url": "http://127.0.0.1:8111/load_object?new_layer=false&objects=n13961090367", "id_url": "https://www.openstreetmap.org/edit?editor=id&node=13961090367#map=20/-25.4794995/-49.2469067"}}, {"type": "Feature", "geometry": {"type": "Point", "coordinates": [-49.2468886, -25.4794485]}, "properties": {"id": 13961090369, "feat_type": "node", "quality_categories": "disjointed_geometries", "issue_ids": "[1]", "osm_url": "https://www.openstreetmap.org/node/13961090369", "josm_url": "http://127.0.0.1:8111/load_object?new_layer=false&objects=n13961090369", "id_url": "https://www.openstreetmap.org/edit?editor=id&node=13961090369#map=20/-25.4794485/-49.2468886"}}, {"type": "Feature", "geometry": {"type": "Point", "coordinates": [-49.2470345, -25.4795143]}, "properties": {"id": 13961090371, "feat_type": "node", "quality_categories": "disjointed_geometries", "issue_ids": "[1]", "osm_url": "https://www.openstreetmap.org/node/13961090371", "josm_url": "http://127.0.0.1:8111/load_object?new_layer=false&objects=n13961090371", "id_url": "https://www.openstreetmap.org/edit?editor=id&node=13961090371#map=20/-25.4795143/-49.2470345"}}, {"type": "Feature", "geometry": {"type": "Point", "coordinates": [-49.2470049, -25.4795322]}, "properties": {"id": 13961090373, "feat_type": "node", "quality_categories": "disjointed_geometries", "issue_ids": "[1]", "osm_url": "https://www.openstreetmap.org/node/13961090373", "josm_url": "http://127.0.0.1:8111/load_object?new_layer=false&objects=n13961090373", "id_url": "https://www.openstreetmap.org/edit?editor=id&node=13961090373#map=20/-25.4795322/-49.2470049"}}, {"type": "Feature", "geometry": {"type": "Point", "coordinates": [-49.2463673, -25.4804915]}, "properties": {"id": 13961090375, "feat_type": "node", "quality_categories": "disjointed_geometries", "issue_ids": "[1]", "osm_url": "https://www.openstreetmap.org/node/13961090375", "josm_url": "http://127.0.0.1:8111/load_object?new_layer=false&objects=n13961090375", "id_url": "https://www.openstreetmap.org/edit?editor=id&node=13961090375#map=20/-25.4804915/-49.2463673"}}, {"type": "Feature", "geometry": {"type": "Point", "coordinates": [-49.2463262, -25.4805848]}, "properties": {"id": 13961090377, "feat_type": "node", "quality_categories": "disjointed_geometries", "issue_ids": "[1]", "osm_url": "https://www.openstreetmap.org/node/13961090377", "josm_url": "http://127.0.0.1:8111/load_object?new_layer=false&objects=n13961090377", "id_url": "https://www.openstreetmap.org/edit?editor=id&node=13961090377#map=20/-25.4805848/-49.2463262"}}, {"type": "Feature", "geometry": {"type": "Point", "coordinates": [-49.2463569, -25.4806441]}, "properties": {"id": 13961090379, "feat_type": "node", "quality_categories": "disjointed_geometries", "issue_ids": "[1]", "osm_url": "https://www.openstreetmap.org/node/13961090379", "josm_url": "http://127.0.0.1:8111/load_object?new_layer=false&objects=n13961090379", "id_url": "https://www.openstreetmap.org/edit?editor=id&node=13961090379#map=20/-25.4806441/-49.2463569"}}, {"type": "Feature", "geometry": {"type": "Point", "coordinates": [-49.2465463, -25.4805682]}, "properties": {"id": 13961090381, "feat_type": "node", "quality_categories": "disjointed_geometries", "issue_ids": "[1]", "osm_url": "https://www.openstreetmap.org/node/13961090381", "josm_url": "http://127.0.0.1:8111/load_object?new_layer=false&objects=n13961090381", "id_url": "https://www.openstreetmap.org/edit?editor=id&node=13961090381#map=20/-25.4805682/-49.2465463"}}, {"type": "Feature", "geometry": {"type": "Point", "coordinates": [-49.2465307, -25.4805128]}, "properties": {"id": 13961090383, "feat_type": "node", "quality_categories": "disjointed_geometries", "issue_ids": "[1]", "osm_url": "https://www.openstreetmap.org/node/13961090383", "josm_url": "http://127.0.0.1:8111/load_object?new_layer=false&objects=n13961090383", "id_url": "https://www.openstreetmap.org/edit?editor=id&node=13961090383#map=20/-25.4805128/-49.2465307"}}, {"type": "Feature", "geometry": {"type": "Point", "coordinates": [-49.2464617, -25.4806705]}, "properties": {"id": 13961090385, "feat_type": "node", "quality_categories": "disjointed_geometries", "issue_ids": "[1]", "osm_url": "https://www.openstreetmap.org/node/13961090385", "josm_url": "http://127.0.0.1:8111/load_object?new_layer=false&objects=n13961090385", "id_url": "https://www.openstreetmap.org/edit?editor=id&node=13961090385#map=20/-25.4806705/-49.2464617"}}, {"type": "Feature", "geometry": {"type": "Point", "coordinates": [-49.2455338, -25.4823048]}, "properties": {"id": 13961090387, "feat_type": "node", "quality_categories": "disjointed_geometries", "issue_ids": "[1]", "osm_url": "https://www.openstreetmap.org/node/13961090387", "josm_url": "http://127.0.0.1:8111/load_object?new_layer=false&objects=n13961090387", "id_url": "https://www.openstreetmap.org/edit?editor=id&node=13961090387#map=20/-25.4823048/-49.2455338"}}, {"type": "Feature", "geometry": {"type": "Point", "coordinates": [-49.2454834, -25.4823247]}, "properties": {"id": 13961090389, "feat_type": "node", "quality_categories": "disjointed_geometries", "issue_ids": "[1]", "osm_url": "https://www.openstreetmap.org/node/13961090389", "josm_url": "http://127.0.0.1:8111/load_object?new_layer=false&objects=n13961090389", "id_url": "https://www.openstreetmap.org/edit?editor=id&node=13961090389#map=20/-25.4823247/-49.2454834"}}, {"type": "Feature", "geometry": {"type": "Point", "coordinates": [-49.2456407, -25.4823535]}, "properties": {"id": 13961090391, "feat_type": "node", "quality_categories": "disjointed_geometries", "issue_ids": "[1]", "osm_url": "https://www.openstreetmap.org/node/13961090391", "josm_url": "http://127.0.0.1:8111/load_object?new_layer=false&objects=n13961090391", "id_url": "https://www.openstreetmap.org/edit?editor=id&node=13961090391#map=20/-25.4823535/-49.2456407"}}, {"type": "Feature", "geometry": {"type": "Point", "coordinates": [-49.2456619, -25.4824076]}, "properties": {"id": 13961090393, "feat_type": "node", "quality_categories": "disjointed_geometries", "issue_ids": "[1]", "osm_url": "https://www.openstreetmap.org/node/13961090393", "josm_url": "http://127.0.0.1:8111/load_object?new_layer=false&objects=n13961090393", "id_url": "https://www.openstreetmap.org/edit?editor=id&node=13961090393#map=20/-25.4824076/-49.2456619"}}, {"type": "Feature", "geometry": {"type": "Point", "coordinates": [-49.2456193, -25.4824859]}, "properties": {"id": 13961090395, "feat_type": "node", "quality_categories": "disjointed_geometries", "issue_ids": "[1]", "osm_url": "https://www.openstreetmap.org/node/13961090395", "josm_url": "http://127.0.0.1:8111/load_object?new_layer=false&objects=n13961090395", "id_url": "https://www.openstreetmap.org/edit?editor=id&node=13961090395#map=20/-25.4824859/-49.2456193"}}, {"type": "Feature", "geometry": {"type": "Point", "coordinates": [-49.245557, -25.4825088]}, "properties": {"id": 13961090397, "feat_type": "node", "quality_categories": "disjointed_geometries", "issue_ids": "[1]", "osm_url": "https://www.openstreetmap.org/node/13961090397", "josm_url": "http://127.0.0.1:8111/load_object?new_layer=false&objects=n13961090397", "id_url": "https://www.openstreetmap.org/edit?editor=id&node=13961090397#map=20/-25.4825088/-49.245557"}}, {"type": "Feature", "geometry": {"type": "Point", "coordinates": [-49.2454527, -25.4824745]}, "properties": {"id": 13961090399, "feat_type": "node", "quality_categories": "disjointed_geometries", "issue_ids": "[1]", "osm_url": "https://www.openstreetmap.org/node/13961090399", "josm_url": "http://127.0.0.1:8111/load_object?new_layer=false&objects=n13961090399", "id_url": "https://www.openstreetmap.org/edit?editor=id&node=13961090399#map=20/-25.4824745/-49.2454527"}}, {"type": "Feature", "geometry": {"type": "Point", "coordinates": [-49.2454412, -25.4824176]}, "properties": {"id": 13961090401, "feat_type": "node", "quality_categories": "disjointed_geometries", "issue_ids": "[1]", "osm_url": "https://www.openstreetmap.org/node/13961090401", "josm_url": "http://127.0.0.1:8111/load_object?new_layer=false&objects=n13961090401", "id_url": "https://www.openstreetmap.org/edit?editor=id&node=13961090401#map=20/-25.4824176/-49.2454412"}}, {"type": "Feature", "geometry": {"type": "Point", "coordinates": [-49.244549, -25.4842858]}, "properties": {"id": 13961090403, "feat_type": "node", "quality_categories": "disjointed_geometries", "issue_ids": "[1]", "osm_url": "https://www.openstreetmap.org/node/13961090403", "josm_url": "http://127.0.0.1:8111/load_object?new_layer=false&objects=n13961090403", "id_url": "https://www.openstreetmap.org/edit?editor=id&node=13961090403#map=20/-25.4842858/-49.244549"}}, {"type": "Feature", "geometry": {"type": "Point", "coordinates": [-49.254579815533226, -25.470550850000002]}, "properties": {"id": 546907163, "feat_type": "way", "quality_categories": "disjointed_geometries", "issue_ids": "[1]", "osm_url": "https://www.openstreetmap.org/way/546907163", "josm_url": "http://127.0.0.1:8111/load_object?new_layer=false&objects=w546907163", "id_url": "https://www.openstreetmap.org/edit?editor=id&way=546907163#map=20/-25.470550850000002/-49.254579815533226"}}, {"type": "Feature", "geometry": {"type": "Point", "coordinates": [-49.2736187, -25.4351927]}, "properties": {"id": 685999195, "feat_type": "way", "quality_categories": "disjointed_geometries", "issue_ids": "[1]", "osm_url": "https://www.openstreetmap.org/way/685999195", "josm_url": "http://127.0.0.1:8111/load_object?new_layer=false&objects=w685999195", "id_url": "https://www.openstreetmap.org/edit?editor=id&way=685999195#map=20/-25.4351927/-49.2736187"}}, {"type": "Feature", "geometry": {"type": "Point", "coordinates": [-49.2093732, -25.3949569]}, "properties": {"id": 1206041816, "feat_type": "way", "quality_categories": "disjointed_geometries", "issue_ids": "[1]", "osm_url": "https://www.openstreetmap.org/way/1206041816", "josm_url": "http://127.0.0.1:8111/load_object?new_layer=false&objects=w1206041816", "id_url": "https://www.openstreetmap.org/edit?editor=id&way=1206041816#map=20/-25.3949569/-49.2093732"}}, {"type": "Feature", "geometry": {"type": "Point", "coordinates": [-49.298242080877785, -25.49254865]}, "properties": {"id": 1225297542, "feat_type": "way", "quality_categories": "disjointed_geometries", "issue_ids": "[1]", "osm_url": "https://www.openstreetmap.org/way/1225297542", "josm_url": "http://127.0.0.1:8111/load_object?new_layer=false&objects=w1225297542", "id_url": "https://www.openstreetmap.org/edit?editor=id&way=1225297542#map=20/-25.49254865/-49.298242080877785"}}, {"type": "Feature", "geometry": {"type": "Point", "coordinates": [-49.2997407, -25.4714146]}, "properties": {"id": 1332734443, "feat_type": "way", "quality_categories": "disjointed_geometries", "issue_ids": "[1]", "osm_url": "https://www.openstreetmap.org/way/1332734443", "josm_url": "http://127.0.0.1:8111/load_object?new_layer=false&objects=w1332734443", "id_url": "https://www.openstreetmap.org/edit?editor=id&way=1332734443#map=20/-25.4714146/-49.2997407"}}, {"type": "Feature", "geometry": {"type": "Point", "coordinates": [-49.2490953, -25.4859454]}, "properties": {"id": 1531778567, "feat_type": "way", "quality_categories": "disjointed_geometries", "issue_ids": "[1]", "osm_url": "https://www.openstreetmap.org/way/1531778567", "josm_url": "http://127.0.0.1:8111/load_object?new_layer=false&objects=w1531778567", "id_url": "https://www.openstreetmap.org/edit?editor=id&way=1531778567#map=20/-25.4859454/-49.2490953"}}, {"type": "Feature", "geometry": {"type": "Point", "coordinates": [-49.2498878, -25.4842247]}, "properties": {"id": 1531778568, "feat_type": "way", "quality_categories": "disjointed_geometries", "issue_ids": "[1]", "osm_url": "https://www.openstreetmap.org/way/1531778568", "josm_url": "http://127.0.0.1:8111/load_object?new_layer=false&objects=w1531778568", "id_url": "https://www.openstreetmap.org/edit?editor=id&way=1531778568#map=20/-25.4842247/-49.2498878"}}, {"type": "Feature", "geometry": {"type": "Point", "coordinates": [-49.2499598, -25.4841105]}, "properties": {"id": 1531778569, "feat_type": "way", "quality_categories": "disjointed_geometries", "issue_ids": "[1]", "osm_url": "https://www.openstreetmap.org/way/1531778569", "josm_url": "http://127.0.0.1:8111/load_object?new_layer=false&objects=w1531778569", "id_url": "https://www.openstreetmap.org/edit?editor=id&way=1531778569#map=20/-25.4841105/-49.2499598"}}, {"type": "Feature", "geometry": {"type": "Point", "coordinates": [-49.2500033, -25.4840908]}, "properties": {"id": 1531778570, "feat_type": "way", "quality_categories": "disjointed_geometries", "issue_ids": "[1]", "osm_url": "https://www.openstreetmap.org/way/1531778570", "josm_url": "http://127.0.0.1:8111/load_object?new_layer=false&objects=w1531778570", "id_url": "https://www.openstreetmap.org/edit?editor=id&way=1531778570#map=20/-25.4840908/-49.2500033"}}, {"type": "Feature", "geometry": {"type": "Point", "coordinates": [-49.2508452, -25.4823218]}, "properties": {"id": 1531778571, "feat_type": "way", "quality_categories": "disjointed_geometries", "issue_ids": "[1]", "osm_url": "https://www.openstreetmap.org/way/1531778571", "josm_url": "http://127.0.0.1:8111/load_object?new_layer=false&objects=w1531778571", "id_url": "https://www.openstreetmap.org/edit?editor=id&way=1531778571#map=20/-25.4823218/-49.2508452"}}, {"type": "Feature", "geometry": {"type": "Point", "coordinates": [-49.2508944, -25.4823032]}, "properties": {"id": 1531778572, "feat_type": "way", "quality_categories": "disjointed_geometries", "issue_ids": "[1]", "osm_url": "https://www.openstreetmap.org/way/1531778572", "josm_url": "http://127.0.0.1:8111/load_object?new_layer=false&objects=w1531778572", "id_url": "https://www.openstreetmap.org/edit?editor=id&way=1531778572#map=20/-25.4823032/-49.2508944"}}, {"type": "Feature", "geometry": {"type": "Point", "coordinates": [-49.2513844, -25.4812868]}, "properties": {"id": 1531778573, "feat_type": "way", "quality_categories": "disjointed_geometries", "issue_ids": "[1]", "osm_url": "https://www.openstreetmap.org/way/1531778573", "josm_url": "http://127.0.0.1:8111/load_object?new_layer=false&objects=w1531778573", "id_url": "https://www.openstreetmap.org/edit?editor=id&way=1531778573#map=20/-25.4812868/-49.2513844"}}, {"type": "Feature", "geometry": {"type": "Point", "coordinates": [-49.2513511, -25.481263]}, "properties": {"id": 1531778574, "feat_type": "way", "quality_categories": "disjointed_geometries", "issue_ids": "[1]", "osm_url": "https://www.openstreetmap.org/way/1531778574", "josm_url": "http://127.0.0.1:8111/load_object?new_layer=false&objects=w1531778574", "id_url": "https://www.openstreetmap.org/edit?editor=id&way=1531778574#map=20/-25.481263/-49.2513511"}}, {"type": "Feature", "geometry": {"type": "Point", "coordinates": [-49.2498435, -25.4792735]}, "properties": {"id": 1531778575, "feat_type": "way", "quality_categories": "disjointed_geometries", "issue_ids": "[1]", "osm_url": "https://www.openstreetmap.org/way/1531778575", "josm_url": "http://127.0.0.1:8111/load_object?new_layer=false&objects=w1531778575", "id_url": "https://www.openstreetmap.org/edit?editor=id&way=1531778575#map=20/-25.4792735/-49.2498435"}}, {"type": "Feature", "geometry": {"type": "Point", "coordinates": [-49.249631, -25.4792083]}, "properties": {"id": 1531778576, "feat_type": "way", "quality_categories": "disjointed_geometries", "issue_ids": "[1]", "osm_url": "https://www.openstreetmap.org/way/1531778576", "josm_url": "http://127.0.0.1:8111/load_object?new_layer=false&objects=w1531778576", "id_url": "https://www.openstreetmap.org/edit?editor=id&way=1531778576#map=20/-25.4792083/-49.249631"}}, {"type": "Feature", "geometry": {"type": "Point", "coordinates": [-49.2496289, -25.4792194]}, "properties": {"id": 1531778577, "feat_type": "way", "quality_categories": "disjointed_geometries", "issue_ids": "[1]", "osm_url": "https://www.openstreetmap.org/way/1531778577", "josm_url": "http://127.0.0.1:8111/load_object?new_layer=false&objects=w1531778577", "id_url": "https://www.openstreetmap.org/edit?editor=id&way=1531778577#map=20/-25.4792194/-49.2496289"}}, {"type": "Feature", "geometry": {"type": "Point", "coordinates": [-49.2487874, -25.4788639]}, "properties": {"id": 1531778578, "feat_type": "way", "quality_categories": "disjointed_geometries", "issue_ids": "[1]", "osm_url": "https://www.openstreetmap.org/way/1531778578", "josm_url": "http://127.0.0.1:8111/load_object?new_layer=false&objects=w1531778578", "id_url": "https://www.openstreetmap.org/edit?editor=id&way=1531778578#map=20/-25.4788639/-49.2487874"}}, {"type": "Feature", "geometry": {"type": "Point", "coordinates": [-49.2482971, -25.47989]}, "properties": {"id": 1531778579, "feat_type": "way", "quality_categories": "disjointed_geometries", "issue_ids": "[1]", "osm_url": "https://www.openstreetmap.org/way/1531778579", "josm_url": "http://127.0.0.1:8111/load_object?new_layer=false&objects=w1531778579", "id_url": "https://www.openstreetmap.org/edit?editor=id&way=1531778579#map=20/-25.47989/-49.2482971"}}, {"type": "Feature", "geometry": {"type": "Point", "coordinates": [-49.2490769, -25.4803311]}, "properties": {"id": 1531778580, "feat_type": "way", "quality_categories": "disjointed_geometries", "issue_ids": "[1]", "osm_url": "https://www.openstreetmap.org/way/1531778580", "josm_url": "http://127.0.0.1:8111/load_object?new_layer=false&objects=w1531778580", "id_url": "https://www.openstreetmap.org/edit?editor=id&way=1531778580#map=20/-25.4803311/-49.2490769"}}, {"type": "Feature", "geometry": {"type": "Point", "coordinates": [-49.2490867, -25.4803626]}, "properties": {"id": 1531778581, "feat_type": "way", "quality_categories": "disjointed_geometries", "issue_ids": "[1]", "osm_url": "https://www.openstreetmap.org/way/1531778581", "josm_url": "http://127.0.0.1:8111/load_object?new_layer=false&objects=w1531778581", "id_url": "https://www.openstreetmap.org/edit?editor=id&way=1531778581#map=20/-25.4803626/-49.2490867"}}, {"type": "Feature", "geometry": {"type": "Point", "coordinates": [-49.2491421, -25.4802297]}, "properties": {"id": 1531778582, "feat_type": "way", "quality_categories": "disjointed_geometries", "issue_ids": "[1]", "osm_url": "https://www.openstreetmap.org/way/1531778582", "josm_url": "http://127.0.0.1:8111/load_object?new_layer=false&objects=w1531778582", "id_url": "https://www.openstreetmap.org/edit?editor=id&way=1531778582#map=20/-25.4802297/-49.2491421"}}, {"type": "Feature", "geometry": {"type": "Point", "coordinates": [-49.2492814, -25.480254]}, "properties": {"id": 1531778583, "feat_type": "way", "quality_categories": "disjointed_geometries", "issue_ids": "[1]", "osm_url": "https://www.openstreetmap.org/way/1531778583", "josm_url": "http://127.0.0.1:8111/load_object?new_layer=false&objects=w1531778583", "id_url": "https://www.openstreetmap.org/edit?editor=id&way=1531778583#map=20/-25.480254/-49.2492814"}}, {"type": "Feature", "geometry": {"type": "Point", "coordinates": [-49.2492428, -25.4804195]}, "properties": {"id": 1531778584, "feat_type": "way", "quality_categories": "disjointed_geometries", "issue_ids": "[1]", "osm_url": "https://www.openstreetmap.org/way/1531778584", "josm_url": "http://127.0.0.1:8111/load_object?new_layer=false&objects=w1531778584", "id_url": "https://www.openstreetmap.org/edit?editor=id&way=1531778584#map=20/-25.4804195/-49.2492428"}}, {"type": "Feature", "geometry": {"type": "Point", "coordinates": [-49.2492152, -25.4804255]}, "properties": {"id": 1531778585, "feat_type": "way", "quality_categories": "disjointed_geometries", "issue_ids": "[1]", "osm_url": "https://www.openstreetmap.org/way/1531778585", "josm_url": "http://127.0.0.1:8111/load_object?new_layer=false&objects=w1531778585", "id_url": "https://www.openstreetmap.org/edit?editor=id&way=1531778585#map=20/-25.4804255/-49.2492152"}}, {"type": "Feature", "geometry": {"type": "Point", "coordinates": [-49.2502973, -25.4808476]}, "properties": {"id": 1531778586, "feat_type": "way", "quality_categories": "disjointed_geometries", "issue_ids": "[1]", "osm_url": "https://www.openstreetmap.org/way/1531778586", "josm_url": "http://127.0.0.1:8111/load_object?new_layer=false&objects=w1531778586", "id_url": "https://www.openstreetmap.org/edit?editor=id&way=1531778586#map=20/-25.4808476/-49.2502973"}}, {"type": "Feature", "geometry": {"type": "Point", "coordinates": [-49.2503271, -25.4808479]}, "properties": {"id": 1531778587, "feat_type": "way", "quality_categories": "disjointed_geometries", "issue_ids": "[1]", "osm_url": "https://www.openstreetmap.org/way/1531778587", "josm_url": "http://127.0.0.1:8111/load_object?new_layer=false&objects=w1531778587", "id_url": "https://www.openstreetmap.org/edit?editor=id&way=1531778587#map=20/-25.4808479/-49.2503271"}}, {"type": "Feature", "geometry": {"type": "Point", "coordinates": [-49.2502111, -25.4808164]}, "properties": {"id": 1531778588, "feat_type": "way", "quality_categories": "disjointed_geometries", "issue_ids": "[1]", "osm_url": "https://www.openstreetmap.org/way/1531778588", "josm_url": "http://127.0.0.1:8111/load_object?new_layer=false&objects=w1531778588", "id_url": "https://www.openstreetmap.org/edit?editor=id&way=1531778588#map=20/-25.4808164/-49.2502111"}}, {"type": "Feature", "geometry": {"type": "Point", "coordinates": [-49.2502709, -25.4806747]}, "properties": {"id": 1531778589, "feat_type": "way", "quality_categories": "disjointed_geometries", "issue_ids": "[1]", "osm_url": "https://www.openstreetmap.org/way/1531778589", "josm_url": "http://127.0.0.1:8111/load_object?new_layer=false&objects=w1531778589", "id_url": "https://www.openstreetmap.org/edit?editor=id&way=1531778589#map=20/-25.4806747/-49.2502709"}}, {"type": "Feature", "geometry": {"type": "Point", "coordinates": [-49.2502471, -25.4806804]}, "properties": {"id": 1531778590, "feat_type": "way", "quality_categories": "disjointed_geometries", "issue_ids": "[1]", "osm_url": "https://www.openstreetmap.org/way/1531778590", "josm_url": "http://127.0.0.1:8111/load_object?new_layer=false&objects=w1531778590", "id_url": "https://www.openstreetmap.org/edit?editor=id&way=1531778590#map=20/-25.4806804/-49.2502471"}}, {"type": "Feature", "geometry": {"type": "Point", "coordinates": [-49.248252, -25.4799998]}, "properties": {"id": 1531778591, "feat_type": "way", "quality_categories": "disjointed_geometries", "issue_ids": "[1]", "osm_url": "https://www.openstreetmap.org/way/1531778591", "josm_url": "http://127.0.0.1:8111/load_object?new_layer=false&objects=w1531778591", "id_url": "https://www.openstreetmap.org/edit?editor=id&way=1531778591#map=20/-25.4799998/-49.248252"}}, {"type": "Feature", "geometry": {"type": "Point", "coordinates": [-49.2482076, -25.4800503]}, "properties": {"id": 1531778592, "feat_type": "way", "quality_categories": "disjointed_geometries", "issue_ids": "[1]", "osm_url": "https://www.openstreetmap.org/way/1531778592", "josm_url": "http://127.0.0.1:8111/load_object?new_layer=false&objects=w1531778592", "id_url": "https://www.openstreetmap.org/edit?editor=id&way=1531778592#map=20/-25.4800503/-49.2482076"}}, {"type": "Feature", "geometry": {"type": "Point", "coordinates": [-49.246285, -25.4839837]}, "properties": {"id": 1531778598, "feat_type": "way", "quality_categories": "disjointed_geometries", "issue_ids": "[1]", "osm_url": "https://www.openstreetmap.org/way/1531778598", "josm_url": "http://127.0.0.1:8111/load_object?new_layer=false&objects=w1531778598", "id_url": "https://www.openstreetmap.org/edit?editor=id&way=1531778598#map=20/-25.4839837/-49.246285"}}, {"type": "Feature", "geometry": {"type": "Point", "coordinates": [-49.2468162, -25.4850104]}, "properties": {"id": 1531778599, "feat_type": "way", "quality_categories": "disjointed_geometries", "issue_ids": "[1]", "osm_url": "https://www.openstreetmap.org/way/1531778599", "josm_url": "http://127.0.0.1:8111/load_object?new_layer=false&objects=w1531778599", "id_url": "https://www.openstreetmap.org/edit?editor=id&way=1531778599#map=20/-25.4850104/-49.2468162"}}, {"type": "Feature", "geometry": {"type": "Point", "coordinates": [-49.2469306, -25.4850703]}, "properties": {"id": 1531778600, "feat_type": "way", "quality_categories": "disjointed_geometries", "issue_ids": "[1]", "osm_url": "https://www.openstreetmap.org/way/1531778600", "josm_url": "http://127.0.0.1:8111/load_object?new_layer=false&objects=w1531778600", "id_url": "https://www.openstreetmap.org/edit?editor=id&way=1531778600#map=20/-25.4850703/-49.2469306"}}, {"type": "Feature", "geometry": {"type": "Point", "coordinates": [-49.247754, -25.483391]}, "properties": {"id": 1531778601, "feat_type": "way", "quality_categories": "disjointed_geometries", "issue_ids": "[1]", "osm_url": "https://www.openstreetmap.org/way/1531778601", "josm_url": "http://127.0.0.1:8111/load_object?new_layer=false&objects=w1531778601", "id_url": "https://www.openstreetmap.org/edit?editor=id&way=1531778601#map=20/-25.483391/-49.247754"}}, {"type": "Feature", "geometry": {"type": "Point", "coordinates": [-49.2478033, -25.4833915]}, "properties": {"id": 1531778602, "feat_type": "way", "quality_categories": "disjointed_geometries", "issue_ids": "[1]", "osm_url": "https://www.openstreetmap.org/way/1531778602", "josm_url": "http://127.0.0.1:8111/load_object?new_layer=false&objects=w1531778602", "id_url": "https://www.openstreetmap.org/edit?editor=id&way=1531778602#map=20/-25.4833915/-49.2478033"}}, {"type": "Feature", "geometry": {"type": "Point", "coordinates": [-49.2476399, -25.4833504]}, "properties": {"id": 1531778603, "feat_type": "way", "quality_categories": "disjointed_geometries", "issue_ids": "[1]", "osm_url": "https://www.openstreetmap.org/way/1531778603", "josm_url": "http://127.0.0.1:8111/load_object?new_layer=false&objects=w1531778603", "id_url": "https://www.openstreetmap.org/edit?editor=id&way=1531778603#map=20/-25.4833504/-49.2476399"}}, {"type": "Feature", "geometry": {"type": "Point", "coordinates": [-49.2476196, -25.4833128]}, "properties": {"id": 1531778604, "feat_type": "way", "quality_categories": "disjointed_geometries", "issue_ids": "[1]", "osm_url": "https://www.openstreetmap.org/way/1531778604", "josm_url": "http://127.0.0.1:8111/load_object?new_layer=false&objects=w1531778604", "id_url": "https://www.openstreetmap.org/edit?editor=id&way=1531778604#map=20/-25.4833128/-49.2476196"}}, {"type": "Feature", "geometry": {"type": "Point", "coordinates": [-49.2478593, -25.483287]}, "properties": {"id": 1531778605, "feat_type": "way", "quality_categories": "disjointed_geometries", "issue_ids": "[1]", "osm_url": "https://www.openstreetmap.org/way/1531778605", "josm_url": "http://127.0.0.1:8111/load_object?new_layer=false&objects=w1531778605", "id_url": "https://www.openstreetmap.org/edit?editor=id&way=1531778605#map=20/-25.483287/-49.2478593"}}, {"type": "Feature", "geometry": {"type": "Point", "coordinates": [-49.2476684, -25.4832092]}, "properties": {"id": 1531778606, "feat_type": "way", "quality_categories": "disjointed_geometries", "issue_ids": "[1]", "osm_url": "https://www.openstreetmap.org/way/1531778606", "josm_url": "http://127.0.0.1:8111/load_object?new_layer=false&objects=w1531778606", "id_url": "https://www.openstreetmap.org/edit?editor=id&way=1531778606#map=20/-25.4832092/-49.2476684"}}, {"type": "Feature", "geometry": {"type": "Point", "coordinates": [-49.2477073, -25.4831777]}, "properties": {"id": 1531778607, "feat_type": "way", "quality_categories": "disjointed_geometries", "issue_ids": "[1]", "osm_url": "https://www.openstreetmap.org/way/1531778607", "josm_url": "http://127.0.0.1:8111/load_object?new_layer=false&objects=w1531778607", "id_url": "https://www.openstreetmap.org/edit?editor=id&way=1531778607#map=20/-25.4831777/-49.2477073"}}, {"type": "Feature", "geometry": {"type": "Point", "coordinates": [-49.2478406, -25.4832371]}, "properties": {"id": 1531778608, "feat_type": "way", "quality_categories": "disjointed_geometries", "issue_ids": "[1]", "osm_url": "https://www.openstreetmap.org/way/1531778608", "josm_url": "http://127.0.0.1:8111/load_object?new_layer=false&objects=w1531778608", "id_url": "https://www.openstreetmap.org/edit?editor=id&way=1531778608#map=20/-25.4832371/-49.2478406"}}, {"type": "Feature", "geometry": {"type": "Point", "coordinates": [-49.2486392, -25.4815683]}, "properties": {"id": 1531778609, "feat_type": "way", "quality_categories": "disjointed_geometries", "issue_ids": "[1]", "osm_url": "https://www.openstreetmap.org/way/1531778609", "josm_url": "http://127.0.0.1:8111/load_object?new_layer=false&objects=w1531778609", "id_url": "https://www.openstreetmap.org/edit?editor=id&way=1531778609#map=20/-25.4815683/-49.2486392"}}, {"type": "Feature", "geometry": {"type": "Point", "coordinates": [-49.2486737, -25.4815599]}, "properties": {"id": 1531778610, "feat_type": "way", "quality_categories": "disjointed_geometries", "issue_ids": "[1]", "osm_url": "https://www.openstreetmap.org/way/1531778610", "josm_url": "http://127.0.0.1:8111/load_object?new_layer=false&objects=w1531778610", "id_url": "https://www.openstreetmap.org/edit?editor=id&way=1531778610#map=20/-25.4815599/-49.2486737"}}, {"type": "Feature", "geometry": {"type": "Point", "coordinates": [-49.2485465, -25.4815361]}, "properties": {"id": 1531778611, "feat_type": "way", "quality_categories": "disjointed_geometries", "issue_ids": "[1]", "osm_url": "https://www.openstreetmap.org/way/1531778611", "josm_url": "http://127.0.0.1:8111/load_object?new_layer=false&objects=w1531778611", "id_url": "https://www.openstreetmap.org/edit?editor=id&way=1531778611#map=20/-25.4815361/-49.2485465"}}, {"type": "Feature", "geometry": {"type": "Point", "coordinates": [-49.2485136, -25.4814747]}, "properties": {"id": 1531778612, "feat_type": "way", "quality_categories": "disjointed_geometries", "issue_ids": "[1]", "osm_url": "https://www.openstreetmap.org/way/1531778612", "josm_url": "http://127.0.0.1:8111/load_object?new_layer=false&objects=w1531778612", "id_url": "https://www.openstreetmap.org/edit?editor=id&way=1531778612#map=20/-25.4814747/-49.2485136"}}, {"type": "Feature", "geometry": {"type": "Point", "coordinates": [-49.2485596, -25.4813885]}, "properties": {"id": 1531778613, "feat_type": "way", "quality_categories": "disjointed_geometries", "issue_ids": "[1]", "osm_url": "https://www.openstreetmap.org/way/1531778613", "josm_url": "http://127.0.0.1:8111/load_object?new_layer=false&objects=w1531778613", "id_url": "https://www.openstreetmap.org/edit?editor=id&way=1531778613#map=20/-25.4813885/-49.2485596"}}, {"type": "Feature", "geometry": {"type": "Point", "coordinates": [-49.2485837, -25.4813609]}, "properties": {"id": 1531778614, "feat_type": "way", "quality_categories": "disjointed_geometries", "issue_ids": "[1]", "osm_url": "https://www.openstreetmap.org/way/1531778614", "josm_url": "http://127.0.0.1:8111/load_object?new_layer=false&objects=w1531778614", "id_url": "https://www.openstreetmap.org/edit?editor=id&way=1531778614#map=20/-25.4813609/-49.2485837"}}, {"type": "Feature", "geometry": {"type": "Point", "coordinates": [-49.2487253, -25.4814366]}, "properties": {"id": 1531778615, "feat_type": "way", "quality_categories": "disjointed_geometries", "issue_ids": "[1]", "osm_url": "https://www.openstreetmap.org/way/1531778615", "josm_url": "http://127.0.0.1:8111/load_object?new_layer=false&objects=w1531778615", "id_url": "https://www.openstreetmap.org/edit?editor=id&way=1531778615#map=20/-25.4814366/-49.2487253"}}, {"type": "Feature", "geometry": {"type": "Point", "coordinates": [-49.2496437, -25.4819614]}, "properties": {"id": 1531778616, "feat_type": "way", "quality_categories": "disjointed_geometries", "issue_ids": "[1]", "osm_url": "https://www.openstreetmap.org/way/1531778616", "josm_url": "http://127.0.0.1:8111/load_object?new_layer=false&objects=w1531778616", "id_url": "https://www.openstreetmap.org/edit?editor=id&way=1531778616#map=20/-25.4819614/-49.2496437"}}, {"type": "Feature", "geometry": {"type": "Point", "coordinates": [-49.2496652, -25.4818323]}, "properties": {"id": 1531778617, "feat_type": "way", "quality_categories": "disjointed_geometries", "issue_ids": "[1]", "osm_url": "https://www.openstreetmap.org/way/1531778617", "josm_url": "http://127.0.0.1:8111/load_object?new_layer=false&objects=w1531778617", "id_url": "https://www.openstreetmap.org/edit?editor=id&way=1531778617#map=20/-25.4818323/-49.2496652"}}, {"type": "Feature", "geometry": {"type": "Point", "coordinates": [-49.2497459, -25.4819896]}, "properties": {"id": 1531778618, "feat_type": "way", "quality_categories": "disjointed_geometries", "issue_ids": "[1]", "osm_url": "https://www.openstreetmap.org/way/1531778618", "josm_url": "http://127.0.0.1:8111/load_object?new_layer=false&objects=w1531778618", "id_url": "https://www.openstreetmap.org/edit?editor=id&way=1531778618#map=20/-25.4819896/-49.2497459"}}, {"type": "Feature", "geometry": {"type": "Point", "coordinates": [-49.2487339, -25.4837678]}, "properties": {"id": 1531778619, "feat_type": "way", "quality_categories": "disjointed_geometries", "issue_ids": "[1]", "osm_url": "https://www.openstreetmap.org/way/1531778619", "josm_url": "http://127.0.0.1:8111/load_object?new_layer=false&objects=w1531778619", "id_url": "https://www.openstreetmap.org/edit?editor=id&way=1531778619#map=20/-25.4837678/-49.2487339"}}, {"type": "Feature", "geometry": {"type": "Point", "coordinates": [-49.2459119, -25.4791149]}, "properties": {"id": 1531778620, "feat_type": "way", "quality_categories": "disjointed_geometries", "issue_ids": "[1]", "osm_url": "https://www.openstreetmap.org/way/1531778620", "josm_url": "http://127.0.0.1:8111/load_object?new_layer=false&objects=w1531778620", "id_url": "https://www.openstreetmap.org/edit?editor=id&way=1531778620#map=20/-25.4791149/-49.2459119"}}, {"type": "Feature", "geometry": {"type": "Point", "coordinates": [-49.2460122, -25.4789723]}, "properties": {"id": 1531778621, "feat_type": "way", "quality_categories": "disjointed_geometries", "issue_ids": "[1]", "osm_url": "https://www.openstreetmap.org/way/1531778621", "josm_url": "http://127.0.0.1:8111/load_object?new_layer=false&objects=w1531778621", "id_url": "https://www.openstreetmap.org/edit?editor=id&way=1531778621#map=20/-25.4789723/-49.2460122"}}, {"type": "Feature", "geometry": {"type": "Point", "coordinates": [-49.247475, -25.4783105]}, "properties": {"id": 1531778622, "feat_type": "way", "quality_categories": "disjointed_geometries", "issue_ids": "[1]", "osm_url": "https://www.openstreetmap.org/way/1531778622", "josm_url": "http://127.0.0.1:8111/load_object?new_layer=false&objects=w1531778622", "id_url": "https://www.openstreetmap.org/edit?editor=id&way=1531778622#map=20/-25.4783105/-49.247475"}}, {"type": "Feature", "geometry": {"type": "Point", "coordinates": [-49.2471234, -25.4794104]}, "properties": {"id": 1531778623, "feat_type": "way", "quality_categories": "disjointed_geometries", "issue_ids": "[1]", "osm_url": "https://www.openstreetmap.org/way/1531778623", "josm_url": "http://127.0.0.1:8111/load_object?new_layer=false&objects=w1531778623", "id_url": "https://www.openstreetmap.org/edit?editor=id&way=1531778623#map=20/-25.4794104/-49.2471234"}}, {"type": "Feature", "geometry": {"type": "Point", "coordinates": [-49.2471025, -25.4793659]}, "properties": {"id": 1531778624, "feat_type": "way", "quality_categories": "disjointed_geometries", "issue_ids": "[1]", "osm_url": "https://www.openstreetmap.org/way/1531778624", "josm_url": "http://127.0.0.1:8111/load_object?new_layer=false&objects=w1531778624", "id_url": "https://www.openstreetmap.org/edit?editor=id&way=1531778624#map=20/-25.4793659/-49.2471025"}}, {"type": "Feature", "geometry": {"type": "Point", "coordinates": [-49.2469736, -25.4793164]}, "properties": {"id": 1531778625, "feat_type": "way", "quality_categories": "disjointed_geometries", "issue_ids": "[1]", "osm_url": "https://www.openstreetmap.org/way/1531778625", "josm_url": "http://127.0.0.1:8111/load_object?new_layer=false&objects=w1531778625", "id_url": "https://www.openstreetmap.org/edit?editor=id&way=1531778625#map=20/-25.4793164/-49.2469736"}}, {"type": "Feature", "geometry": {"type": "Point", "coordinates": [-49.2469308, -25.4793337]}, "properties": {"id": 1531778626, "feat_type": "way", "quality_categories": "disjointed_geometries", "issue_ids": "[1]", "osm_url": "https://www.openstreetmap.org/way/1531778626", "josm_url": "http://127.0.0.1:8111/load_object?new_layer=false&objects=w1531778626", "id_url": "https://www.openstreetmap.org/edit?editor=id&way=1531778626#map=20/-25.4793337/-49.2469308"}}, {"type": "Feature", "geometry": {"type": "Point", "coordinates": [-49.2468919, -25.4794902]}, "properties": {"id": 1531778627, "feat_type": "way", "quality_categories": "disjointed_geometries", "issue_ids": "[1]", "osm_url": "https://www.openstreetmap.org/way/1531778627", "josm_url": "http://127.0.0.1:8111/load_object?new_layer=false&objects=w1531778627", "id_url": "https://www.openstreetmap.org/edit?editor=id&way=1531778627#map=20/-25.4794902/-49.2468919"}}, {"type": "Feature", "geometry": {"type": "Point", "coordinates": [-49.2468886, -25.4794485]}, "properties": {"id": 1531778628, "feat_type": "way", "quality_categories": "disjointed_geometries", "issue_ids": "[1]", "osm_url": "https://www.openstreetmap.org/way/1531778628", "josm_url": "http://127.0.0.1:8111/load_object?new_layer=false&objects=w1531778628", "id_url": "https://www.openstreetmap.org/edit?editor=id&way=1531778628#map=20/-25.4794485/-49.2468886"}}, {"type": "Feature", "geometry": {"type": "Point", "coordinates": [-49.2470345, -25.4795143]}, "properties": {"id": 1531778629, "feat_type": "way", "quality_categories": "disjointed_geometries", "issue_ids": "[1]", "osm_url": "https://www.openstreetmap.org/way/1531778629", "josm_url": "http://127.0.0.1:8111/load_object?new_layer=false&objects=w1531778629", "id_url": "https://www.openstreetmap.org/edit?editor=id&way=1531778629#map=20/-25.4795143/-49.2470345"}}, {"type": "Feature", "geometry": {"type": "Point", "coordinates": [-49.2470049, -25.4795322]}, "properties": {"id": 1531778630, "feat_type": "way", "quality_categories": "disjointed_geometries", "issue_ids": "[1]", "osm_url": "https://www.openstreetmap.org/way/1531778630", "josm_url": "http://127.0.0.1:8111/load_object?new_layer=false&objects=w1531778630", "id_url": "https://www.openstreetmap.org/edit?editor=id&way=1531778630#map=20/-25.4795322/-49.2470049"}}, {"type": "Feature", "geometry": {"type": "Point", "coordinates": [-49.2463681, -25.4804822]}, "properties": {"id": 1531778631, "feat_type": "way", "quality_categories": "disjointed_geometries", "issue_ids": "[1]", "osm_url": "https://www.openstreetmap.org/way/1531778631", "josm_url": "http://127.0.0.1:8111/load_object?new_layer=false&objects=w1531778631", "id_url": "https://www.openstreetmap.org/edit?editor=id&way=1531778631#map=20/-25.4804822/-49.2463681"}}, {"type": "Feature", "geometry": {"type": "Point", "coordinates": [-49.2463171, -25.4805947]}, "properties": {"id": 1531778632, "feat_type": "way", "quality_categories": "disjointed_geometries", "issue_ids": "[1]", "osm_url": "https://www.openstreetmap.org/way/1531778632", "josm_url": "http://127.0.0.1:8111/load_object?new_layer=false&objects=w1531778632", "id_url": "https://www.openstreetmap.org/edit?editor=id&way=1531778632#map=20/-25.4805947/-49.2463171"}}, {"type": "Feature", "geometry": {"type": "Point", "coordinates": [-49.2463421, -25.4806348]}, "properties": {"id": 1531778633, "feat_type": "way", "quality_categories": "disjointed_geometries", "issue_ids": "[1]", "osm_url": "https://www.openstreetmap.org/way/1531778633", "josm_url": "http://127.0.0.1:8111/load_object?new_layer=false&objects=w1531778633", "id_url": "https://www.openstreetmap.org/edit?editor=id&way=1531778633#map=20/-25.4806348/-49.2463421"}}, {"type": "Feature", "geometry": {"type": "Point", "coordinates": [-49.2465522, -25.4805525]}, "properties": {"id": 1531778634, "feat_type": "way", "quality_categories": "disjointed_geometries", "issue_ids": "[1]", "osm_url": "https://www.openstreetmap.org/way/1531778634", "josm_url": "http://127.0.0.1:8111/load_object?new_layer=false&objects=w1531778634", "id_url": "https://www.openstreetmap.org/edit?editor=id&way=1531778634#map=20/-25.4805525/-49.2465522"}}, {"type": "Feature", "geometry": {"type": "Point", "coordinates": [-49.2465395, -25.4805163]}, "properties": {"id": 1531778635, "feat_type": "way", "quality_categories": "disjointed_geometries", "issue_ids": "[1]", "osm_url": "https://www.openstreetmap.org/way/1531778635", "josm_url": "http://127.0.0.1:8111/load_object?new_layer=false&objects=w1531778635", "id_url": "https://www.openstreetmap.org/edit?editor=id&way=1531778635#map=20/-25.4805163/-49.2465395"}}, {"type": "Feature", "geometry": {"type": "Point", "coordinates": [-49.2464617, -25.4806705]}, "properties": {"id": 1531778636, "feat_type": "way", "quality_categories": "disjointed_geometries", "issue_ids": "[1]", "osm_url": "https://www.openstreetmap.org/way/1531778636", "josm_url": "http://127.0.0.1:8111/load_object?new_layer=false&objects=w1531778636", "id_url": "https://www.openstreetmap.org/edit?editor=id&way=1531778636#map=20/-25.4806705/-49.2464617"}}, {"type": "Feature", "geometry": {"type": "Point", "coordinates": [-49.2455189, -25.4822955]}, "properties": {"id": 1531778637, "feat_type": "way", "quality_categories": "disjointed_geometries", "issue_ids": "[1]", "osm_url": "https://www.openstreetmap.org/way/1531778637", "josm_url": "http://127.0.0.1:8111/load_object?new_layer=false&objects=w1531778637", "id_url": "https://www.openstreetmap.org/edit?editor=id&way=1531778637#map=20/-25.4822955/-49.2455189"}}, {"type": "Feature", "geometry": {"type": "Point", "coordinates": [-49.2454834, -25.4823247]}, "properties": {"id": 1531778638, "feat_type": "way", "quality_categories": "disjointed_geometries", "issue_ids": "[1]", "osm_url": "https://www.openstreetmap.org/way/1531778638", "josm_url": "http://127.0.0.1:8111/load_object?new_layer=false&objects=w1531778638", "id_url": "https://www.openstreetmap.org/edit?editor=id&way=1531778638#map=20/-25.4823247/-49.2454834"}}, {"type": "Feature", "geometry": {"type": "Point", "coordinates": [-49.2456407, -25.4823535]}, "properties": {"id": 1531778639, "feat_type": "way", "quality_categories": "disjointed_geometries", "issue_ids": "[1]", "osm_url": "https://www.openstreetmap.org/way/1531778639", "josm_url": "http://127.0.0.1:8111/load_object?new_layer=false&objects=w1531778639", "id_url": "https://www.openstreetmap.org/edit?editor=id&way=1531778639#map=20/-25.4823535/-49.2456407"}}, {"type": "Feature", "geometry": {"type": "Point", "coordinates": [-49.2456671, -25.4823983]}, "properties": {"id": 1531778640, "feat_type": "way", "quality_categories": "disjointed_geometries", "issue_ids": "[1]", "osm_url": "https://www.openstreetmap.org/way/1531778640", "josm_url": "http://127.0.0.1:8111/load_object?new_layer=false&objects=w1531778640", "id_url": "https://www.openstreetmap.org/edit?editor=id&way=1531778640#map=20/-25.4823983/-49.2456671"}}, {"type": "Feature", "geometry": {"type": "Point", "coordinates": [-49.2456193, -25.4824859]}, "properties": {"id": 1531778641, "feat_type": "way", "quality_categories": "disjointed_geometries", "issue_ids": "[1]", "osm_url": "https://www.openstreetmap.org/way/1531778641", "josm_url": "http://127.0.0.1:8111/load_object?new_layer=false&objects=w1531778641", "id_url": "https://www.openstreetmap.org/edit?editor=id&way=1531778641#map=20/-25.4824859/-49.2456193"}}, {"type": "Feature", "geometry": {"type": "Point", "coordinates": [-49.2455647, -25.4825141]}, "properties": {"id": 1531778642, "feat_type": "way", "quality_categories": "disjointed_geometries", "issue_ids": "[1]", "osm_url": "https://www.openstreetmap.org/way/1531778642", "josm_url": "http://127.0.0.1:8111/load_object?new_layer=false&objects=w1531778642", "id_url": "https://www.openstreetmap.org/edit?editor=id&way=1531778642#map=20/-25.4825141/-49.2455647"}}, {"type": "Feature", "geometry": {"type": "Point", "coordinates": [-49.2454394, -25.482469]}, "properties": {"id": 1531778643, "feat_type": "way", "quality_categories": "disjointed_geometries", "issue_ids": "[1]", "osm_url": "https://www.openstreetmap.org/way/1531778643", "josm_url": "http://127.0.0.1:8111/load_object?new_layer=false&objects=w1531778643", "id_url": "https://www.openstreetmap.org/edit?editor=id&way=1531778643#map=20/-25.482469/-49.2454394"}}, {"type": "Feature", "geometry": {"type": "Point", "coordinates": [-49.2454412, -25.4824176]}, "properties": {"id": 1531778644, "feat_type": "way", "quality_categories": "disjointed_geometries", "issue_ids": "[1]", "osm_url": "https://www.openstreetmap.org/way/1531778644", "josm_url": "http://127.0.0.1:8111/load_object?new_layer=false&objects=w1531778644", "id_url": "https://www.openstreetmap.org/edit?editor=id&way=1531778644#map=20/-25.4824176/-49.2454412"}}, {"type": "Feature", "geometry": {"type": "Point", "coordinates": [-49.2445346, -25.4842884]}, "properties": {"id": 1531778645, "feat_type": "way", "quality_categories": "disjointed_geometries", "issue_ids": "[1]", "osm_url": "https://www.openstreetmap.org/way/1531778645", "josm_url": "http://127.0.0.1:8111/load_object?new_layer=false&objects=w1531778645", "id_url": "https://www.openstreetmap.org/edit?editor=id&way=1531778645#map=20/-25.4842884/-49.2445346"}}]}