{"type": "FeatureCollection", "features": [{"type": "Feature", "geometry": {"type": "Point", "coordinates": [9.215791, 45.49573]}, "properties": {"id": 250228012, "feat_type": "node", "quality_categories": "improper_keys, kerb_on_top_of_non_crossing", "issue_ids": "[0, 1]", "osm_url": "https://www.openstreetmap.org/node/250228012", "josm_url": "http://127.0.0.1:8111/load_object?new_layer=false&objects=n250228012", "id_url": "https://www.openstreetmap.org/edit?editor=id&node=250228012#map=20/45.49573/9.215791"}}, {"type": "Feature", "geometry": {"type": "Point", "coordinates": [9.1976909, 45.469475]}, "properties": {"id": 251291650, "feat_type": "node", "quality_categories": "improper_keys, kerb_on_top_of_non_crossing", "issue_ids": "[0, 1]", "osm_url": "https://www.openstreetmap.org/node/251291650", "josm_url": "http://127.0.0.1:8111/load_object?new_layer=false&objects=n251291650", "id_url": "https://www.openstreetmap.org/edit?editor=id&node=251291650#map=20/45.469475/9.1976909"}}, {"type": "Feature", "geometry": {"type": "Point", "coordinates": [9.1936265, 45.4941]}, "properties": {"id": 340225481, "feat_type": "node", "quality_categories": "improper_keys, uncanny_keys", "issue_ids": "[2, 3]", "osm_url": "https://www.openstreetmap.org/node/340225481", "josm_url": "http://127.0.0.1:8111/load_object?new_layer=false&objects=n340225481", "id_url": "https://www.openstreetmap.org/edit?editor=id&node=340225481#map=20/45.4941/9.1936265"}}, {"type": "Feature", "geometry": {"type": "Point", "coordinates": [9.1937491, 45.4940675]}, "properties": {"id": 340225482, "feat_type": "node", "quality_categories": "improper_keys, uncanny_keys", "issue_ids": "[2, 3]", "osm_url": "https://www.openstreetmap.org/node/340225482", "josm_url": "http://127.0.0.1:8111/load_object?new_layer=false&objects=n340225482", "id_url": "https://www.openstreetmap.org/edit?editor=id&node=340225482#map=20/45.4940675/9.1937491"}}, {"type": "Feature", "geometry": {"type": "Point", "coordinates": [9.1400779, 45.4831049]}, "properties": {"id": 648626675, "feat_type": "node", "quality_categories": "improper_keys", "issue_ids": "[0]", "osm_url": "https://www.openstreetmap.org/node/648626675", "josm_url": "http://127.0.0.1:8111/load_object?new_layer=false&objects=n648626675", "id_url": "https://www.openstreetmap.org/edit?editor=id&node=648626675#map=20/45.4831049/9.1400779"}}, {"type": "Feature", "geometry": {"type": "Point", "coordinates": [9.2247888, 45.5217151]}, "properties": {"id": 1110427626, "feat_type": "node", "quality_categories": "improper_keys", "issue_ids": "[0]", "osm_url": "https://www.openstreetmap.org/node/1110427626", "josm_url": "http://127.0.0.1:8111/load_object?new_layer=false&objects=n1110427626", "id_url": "https://www.openstreetmap.org/edit?editor=id&node=1110427626#map=20/45.5217151/9.2247888"}}, {"type": "Feature", "geometry": {"type": "Point", "coordinates": [9.2101305, 45.5177927]}, "properties": {"id": 1171087743, "feat_type": "node", "quality_categories": "improper_keys", "issue_ids": "[0]", "osm_url": "https://www.openstreetmap.org/node/1171087743", "josm_url": "http://127.0.0.1:8111/load_object?new_layer=false&objects=n1171087743", "id_url": "https://www.openstreetmap.org/edit?editor=id&node=1171087743#map=20/45.5177927/9.2101305"}}, {"type": "Feature", "geometry": {"type": "Point", "coordinates": [9.1969678, 45.5006229]}, "properties": {"id": 1270568966, "feat_type": "node", "quality_categories": "improper_keys, uncanny_keys", "issue_ids": "[2, 4]", "osm_url": "https://www.openstreetmap.org/node/1270568966", "josm_url": "http://127.0.0.1:8111/load_object?new_layer=false&objects=n1270568966", "id_url": "https://www.openstreetmap.org/edit?editor=id&node=1270568966#map=20/45.5006229/9.1969678"}}, {"type": "Feature", "geometry": {"type": "Point", "coordinates": [9.1969302, 45.4992336]}, "properties": {"id": 1270569005, "feat_type": "node", "quality_categories": "improper_keys, uncanny_keys", "issue_ids": "[2, 4]", "osm_url": "https://www.openstreetmap.org/node/1270569005", "josm_url": "http://127.0.0.1:8111/load_object?new_layer=false&objects=n1270569005", "id_url": "https://www.openstreetmap.org/edit?editor=id&node=1270569005#map=20/45.4992336/9.1969302"}}, {"type": "Feature", "geometry": {"type": "Point", "coordinates": [9.1962582, 45.4993413]}, "properties": {"id": 1270569009, "feat_type": "node", "quality_categories": "improper_keys, kerb_on_top_of_non_crossing, uncanny_keys", "issue_ids": "[2, 4, 1]", "osm_url": "https://www.openstreetmap.org/node/1270569009", "josm_url": "http://127.0.0.1:8111/load_object?new_layer=false&objects=n1270569009", "id_url": "https://www.openstreetmap.org/edit?editor=id&node=1270569009#map=20/45.4993413/9.1962582"}}, {"type": "Feature", "geometry": {"type": "Point", "coordinates": [9.2053875, 45.4960705]}, "properties": {"id": 1270585573, "feat_type": "node", "quality_categories": "improper_keys", "issue_ids": "[0]", "osm_url": "https://www.openstreetmap.org/node/1270585573", "josm_url": "http://127.0.0.1:8111/load_object?new_layer=false&objects=n1270585573", "id_url": "https://www.openstreetmap.org/edit?editor=id&node=1270585573#map=20/45.4960705/9.2053875"}}, {"type": "Feature", "geometry": {"type": "Point", "coordinates": [9.2052884, 45.4960477]}, "properties": {"id": 1270585613, "feat_type": "node", "quality_categories": "improper_keys", "issue_ids": "[0]", "osm_url": "https://www.openstreetmap.org/node/1270585613", "josm_url": "http://127.0.0.1:8111/load_object?new_layer=false&objects=n1270585613", "id_url": "https://www.openstreetmap.org/edit?editor=id&node=1270585613#map=20/45.4960477/9.2052884"}}, {"type": "Feature", "geometry": {"type": "Point", "coordinates": [9.141197, 45.4617052]}, "properties": {"id": 1274131381, "feat_type": "node", "quality_categories": "improper_keys", "issue_ids": "[0]", "osm_url": "https://www.openstreetmap.org/node/1274131381", "josm_url": "http://127.0.0.1:8111/load_object?new_layer=false&objects=n1274131381", "id_url": "https://www.openstreetmap.org/edit?editor=id&node=1274131381#map=20/45.4617052/9.141197"}}, {"type": "Feature", "geometry": {"type": "Point", "coordinates": [9.1722077, 45.5157978]}, "properties": {"id": 1345721021, "feat_type": "node", "quality_categories": "improper_keys, uncanny_keys", "issue_ids": "[2, 4]", "osm_url": "https://www.openstreetmap.org/node/1345721021", "josm_url": "http://127.0.0.1:8111/load_object?new_layer=false&objects=n1345721021", "id_url": "https://www.openstreetmap.org/edit?editor=id&node=1345721021#map=20/45.5157978/9.1722077"}}, {"type": "Feature", "geometry": {"type": "Point", "coordinates": [9.1998221, 45.4921343]}, "properties": {"id": 1432445882, "feat_type": "node", "quality_categories": "improper_keys", "issue_ids": "[0]", "osm_url": "https://www.openstreetmap.org/node/1432445882", "josm_url": "http://127.0.0.1:8111/load_object?new_layer=false&objects=n1432445882", "id_url": "https://www.openstreetmap.org/edit?editor=id&node=1432445882#map=20/45.4921343/9.1998221"}}, {"type": "Feature", "geometry": {"type": "Point", "coordinates": [9.1999433, 45.4922977]}, "properties": {"id": 1432445885, "feat_type": "node", "quality_categories": "improper_keys", "issue_ids": "[0]", "osm_url": "https://www.openstreetmap.org/node/1432445885", "josm_url": "http://127.0.0.1:8111/load_object?new_layer=false&objects=n1432445885", "id_url": "https://www.openstreetmap.org/edit?editor=id&node=1432445885#map=20/45.4922977/9.1999433"}}, {"type": "Feature", "geometry": {"type": "Point", "coordinates": [9.2010815, 45.4853867]}, "properties": {"id": 1474281764, "feat_type": "node", "quality_categories": "improper_keys, uncanny_keys", "issue_ids": "[2, 4]", "osm_url": "https://www.openstreetmap.org/node/1474281764", "josm_url": "http://127.0.0.1:8111/load_object?new_layer=false&objects=n1474281764", "id_url": "https://www.openstreetmap.org/edit?editor=id&node=1474281764#map=20/45.4853867/9.2010815"}}, {"type": "Feature", "geometry": {"type": "Point", "coordinates": [9.188687, 45.4627488]}, "properties": {"id": 1477780131, "feat_type": "node", "quality_categories": "improper_keys, kerb_on_top_of_non_crossing, uncanny_keys", "issue_ids": "[2, 4, 1]", "osm_url": "https://www.openstreetmap.org/node/1477780131", "josm_url": "http://127.0.0.1:8111/load_object?new_layer=false&objects=n1477780131", "id_url": "https://www.openstreetmap.org/edit?editor=id&node=1477780131#map=20/45.4627488/9.188687"}}, {"type": "Feature", "geometry": {"type": "Point", "coordinates": [9.2300053, 45.5100099]}, "properties": {"id": 1490723398, "feat_type": "node", "quality_categories": "improper_keys", "issue_ids": "[0]", "osm_url": "https://www.openstreetmap.org/node/1490723398", "josm_url": "http://127.0.0.1:8111/load_object?new_layer=false&objects=n1490723398", "id_url": "https://www.openstreetmap.org/edit?editor=id&node=1490723398#map=20/45.5100099/9.2300053"}}, {"type": "Feature", "geometry": {"type": "Point", "coordinates": [9.2119988, 45.4815897]}, "properties": {"id": 1503239846, "feat_type": "node", "quality_categories": "improper_keys, uncanny_keys", "issue_ids": "[2, 4]", "osm_url": "https://www.openstreetmap.org/node/1503239846", "josm_url": "http://127.0.0.1:8111/load_object?new_layer=false&objects=n1503239846", "id_url": "https://www.openstreetmap.org/edit?editor=id&node=1503239846#map=20/45.4815897/9.2119988"}}, {"type": "Feature", "geometry": {"type": "Point", "coordinates": [9.1594929, 45.443552]}, "properties": {"id": 1516780256, "feat_type": "node", "quality_categories": "improper_keys", "issue_ids": "[2]", "osm_url": "https://www.openstreetmap.org/node/1516780256", "josm_url": "http://127.0.0.1:8111/load_object?new_layer=false&objects=n1516780256", "id_url": "https://www.openstreetmap.org/edit?editor=id&node=1516780256#map=20/45.443552/9.1594929"}}, {"type": "Feature", "geometry": {"type": "Point", "coordinates": [9.2022175, 45.4671319]}, "properties": {"id": 1521490646, "feat_type": "node", "quality_categories": "improper_keys", "issue_ids": "[0]", "osm_url": "https://www.openstreetmap.org/node/1521490646", "josm_url": "http://127.0.0.1:8111/load_object?new_layer=false&objects=n1521490646", "id_url": "https://www.openstreetmap.org/edit?editor=id&node=1521490646#map=20/45.4671319/9.2022175"}}, {"type": "Feature", "geometry": {"type": "Point", "coordinates": [9.1918331, 45.4796237]}, "properties": {"id": 1523573723, "feat_type": "node", "quality_categories": "improper_keys, kerb_on_top_of_non_crossing", "issue_ids": "[0, 1]", "osm_url": "https://www.openstreetmap.org/node/1523573723", "josm_url": "http://127.0.0.1:8111/load_object?new_layer=false&objects=n1523573723", "id_url": "https://www.openstreetmap.org/edit?editor=id&node=1523573723#map=20/45.4796237/9.1918331"}}, {"type": "Feature", "geometry": {"type": "Point", "coordinates": [9.2123372, 45.5263021]}, "properties": {"id": 1557197482, "feat_type": "node", "quality_categories": "improper_keys", "issue_ids": "[2]", "osm_url": "https://www.openstreetmap.org/node/1557197482", "josm_url": "http://127.0.0.1:8111/load_object?new_layer=false&objects=n1557197482", "id_url": "https://www.openstreetmap.org/edit?editor=id&node=1557197482#map=20/45.5263021/9.2123372"}}, {"type": "Feature", "geometry": {"type": "Point", "coordinates": [9.1397515, 45.5024338]}, "properties": {"id": 1561046678, "feat_type": "node", "quality_categories": "improper_keys, kerb_on_top_of_non_crossing", "issue_ids": "[0, 1]", "osm_url": "https://www.openstreetmap.org/node/1561046678", "josm_url": "http://127.0.0.1:8111/load_object?new_layer=false&objects=n1561046678", "id_url": "https://www.openstreetmap.org/edit?editor=id&node=1561046678#map=20/45.5024338/9.1397515"}}, {"type": "Feature", "geometry": {"type": "Point", "coordinates": [9.2637169, 45.5056782]}, "properties": {"id": 1793535378, "feat_type": "node", "quality_categories": "improper_keys, kerb_on_top_of_non_crossing", "issue_ids": "[0, 1]", "osm_url": "https://www.openstreetmap.org/node/1793535378", "josm_url": "http://127.0.0.1:8111/load_object?new_layer=false&objects=n1793535378", "id_url": "https://www.openstreetmap.org/edit?editor=id&node=1793535378#map=20/45.5056782/9.2637169"}}, {"type": "Feature", "geometry": {"type": "Point", "coordinates": [9.2062839, 45.4942291]}, "properties": {"id": 1831146494, "feat_type": "node", "quality_categories": "improper_keys, kerb_on_top_of_non_crossing, uncanny_keys", "issue_ids": "[2, 4, 1]", "osm_url": "https://www.openstreetmap.org/node/1831146494", "josm_url": "http://127.0.0.1:8111/load_object?new_layer=false&objects=n1831146494", "id_url": "https://www.openstreetmap.org/edit?editor=id&node=1831146494#map=20/45.4942291/9.2062839"}}, {"type": "Feature", "geometry": {"type": "Point", "coordinates": [9.1629115, 45.4597616]}, "properties": {"id": 1836647476, "feat_type": "node", "quality_categories": "improper_keys", "issue_ids": "[0]", "osm_url": "https://www.openstreetmap.org/node/1836647476", "josm_url": "http://127.0.0.1:8111/load_object?new_layer=false&objects=n1836647476", "id_url": "https://www.openstreetmap.org/edit?editor=id&node=1836647476#map=20/45.4597616/9.1629115"}}, {"type": "Feature", "geometry": {"type": "Point", "coordinates": [9.2041586, 45.484836]}, "properties": {"id": 1859049842, "feat_type": "node", "quality_categories": "improper_keys", "issue_ids": "[0]", "osm_url": "https://www.openstreetmap.org/node/1859049842", "josm_url": "http://127.0.0.1:8111/load_object?new_layer=false&objects=n1859049842", "id_url": "https://www.openstreetmap.org/edit?editor=id&node=1859049842#map=20/45.484836/9.2041586"}}, {"type": "Feature", "geometry": {"type": "Point", "coordinates": [9.2042734, 45.4849561]}, "properties": {"id": 1859049846, "feat_type": "node", "quality_categories": "improper_keys", "issue_ids": "[0]", "osm_url": "https://www.openstreetmap.org/node/1859049846", "josm_url": "http://127.0.0.1:8111/load_object?new_layer=false&objects=n1859049846", "id_url": "https://www.openstreetmap.org/edit?editor=id&node=1859049846#map=20/45.4849561/9.2042734"}}, {"type": "Feature", "geometry": {"type": "Point", "coordinates": [9.213206, 45.4915563]}, "properties": {"id": 1893394040, "feat_type": "node", "quality_categories": "improper_keys", "issue_ids": "[5]", "osm_url": "https://www.openstreetmap.org/node/1893394040", "josm_url": "http://127.0.0.1:8111/load_object?new_layer=false&objects=n1893394040", "id_url": "https://www.openstreetmap.org/edit?editor=id&node=1893394040#map=20/45.4915563/9.213206"}}, {"type": "Feature", "geometry": {"type": "Point", "coordinates": [9.2134194, 45.4915486]}, "properties": {"id": 1893394053, "feat_type": "node", "quality_categories": "improper_keys", "issue_ids": "[5]", "osm_url": "https://www.openstreetmap.org/node/1893394053", "josm_url": "http://127.0.0.1:8111/load_object?new_layer=false&objects=n1893394053", "id_url": "https://www.openstreetmap.org/edit?editor=id&node=1893394053#map=20/45.4915486/9.2134194"}}, {"type": "Feature", "geometry": {"type": "Point", "coordinates": [9.2454807, 45.5134833]}, "properties": {"id": 1932040115, "feat_type": "node", "quality_categories": "improper_keys", "issue_ids": "[2]", "osm_url": "https://www.openstreetmap.org/node/1932040115", "josm_url": "http://127.0.0.1:8111/load_object?new_layer=false&objects=n1932040115", "id_url": "https://www.openstreetmap.org/edit?editor=id&node=1932040115#map=20/45.5134833/9.2454807"}}, {"type": "Feature", "geometry": {"type": "Point", "coordinates": [9.1939295, 45.493931]}, "properties": {"id": 2099964167, "feat_type": "node", "quality_categories": "improper_keys", "issue_ids": "[6]", "osm_url": "https://www.openstreetmap.org/node/2099964167", "josm_url": "http://127.0.0.1:8111/load_object?new_layer=false&objects=n2099964167", "id_url": "https://www.openstreetmap.org/edit?editor=id&node=2099964167#map=20/45.493931/9.1939295"}}, {"type": "Feature", "geometry": {"type": "Point", "coordinates": [9.1885136, 45.462878]}, "properties": {"id": 2356381083, "feat_type": "node", "quality_categories": "improper_keys, kerb_on_top_of_non_crossing, uncanny_keys", "issue_ids": "[2, 4, 1]", "osm_url": "https://www.openstreetmap.org/node/2356381083", "josm_url": "http://127.0.0.1:8111/load_object?new_layer=false&objects=n2356381083", "id_url": "https://www.openstreetmap.org/edit?editor=id&node=2356381083#map=20/45.462878/9.1885136"}}, {"type": "Feature", "geometry": {"type": "Point", "coordinates": [9.1983257, 45.4927006]}, "properties": {"id": 2375233350, "feat_type": "node", "quality_categories": "improper_keys", "issue_ids": "[0]", "osm_url": "https://www.openstreetmap.org/node/2375233350", "josm_url": "http://127.0.0.1:8111/load_object?new_layer=false&objects=n2375233350", "id_url": "https://www.openstreetmap.org/edit?editor=id&node=2375233350#map=20/45.4927006/9.1983257"}}, {"type": "Feature", "geometry": {"type": "Point", "coordinates": [9.1984946, 45.4927419]}, "properties": {"id": 2375233351, "feat_type": "node", "quality_categories": "improper_keys", "issue_ids": "[0]", "osm_url": "https://www.openstreetmap.org/node/2375233351", "josm_url": "http://127.0.0.1:8111/load_object?new_layer=false&objects=n2375233351", "id_url": "https://www.openstreetmap.org/edit?editor=id&node=2375233351#map=20/45.4927419/9.1984946"}}, {"type": "Feature", "geometry": {"type": "Point", "coordinates": [9.1982689, 45.4928161]}, "properties": {"id": 2375233354, "feat_type": "node", "quality_categories": "improper_keys", "issue_ids": "[0]", "osm_url": "https://www.openstreetmap.org/node/2375233354", "josm_url": "http://127.0.0.1:8111/load_object?new_layer=false&objects=n2375233354", "id_url": "https://www.openstreetmap.org/edit?editor=id&node=2375233354#map=20/45.4928161/9.1982689"}}, {"type": "Feature", "geometry": {"type": "Point", "coordinates": [9.1984479, 45.4928644]}, "properties": {"id": 2375233355, "feat_type": "node", "quality_categories": "improper_keys", "issue_ids": "[0]", "osm_url": "https://www.openstreetmap.org/node/2375233355", "josm_url": "http://127.0.0.1:8111/load_object?new_layer=false&objects=n2375233355", "id_url": "https://www.openstreetmap.org/edit?editor=id&node=2375233355#map=20/45.4928644/9.1984479"}}, {"type": "Feature", "geometry": {"type": "Point", "coordinates": [9.2383777, 45.4911389]}, "properties": {"id": 2380916739, "feat_type": "node", "quality_categories": "improper_keys", "issue_ids": "[0]", "osm_url": "https://www.openstreetmap.org/node/2380916739", "josm_url": "http://127.0.0.1:8111/load_object?new_layer=false&objects=n2380916739", "id_url": "https://www.openstreetmap.org/edit?editor=id&node=2380916739#map=20/45.4911389/9.2383777"}}, {"type": "Feature", "geometry": {"type": "Point", "coordinates": [9.2382295, 45.4912246]}, "properties": {"id": 2380916748, "feat_type": "node", "quality_categories": "improper_keys", "issue_ids": "[0]", "osm_url": "https://www.openstreetmap.org/node/2380916748", "josm_url": "http://127.0.0.1:8111/load_object?new_layer=false&objects=n2380916748", "id_url": "https://www.openstreetmap.org/edit?editor=id&node=2380916748#map=20/45.4912246/9.2382295"}}, {"type": "Feature", "geometry": {"type": "Point", "coordinates": [9.2382743, 45.4910317]}, "properties": {"id": 2380916749, "feat_type": "node", "quality_categories": "improper_keys", "issue_ids": "[0]", "osm_url": "https://www.openstreetmap.org/node/2380916749", "josm_url": "http://127.0.0.1:8111/load_object?new_layer=false&objects=n2380916749", "id_url": "https://www.openstreetmap.org/edit?editor=id&node=2380916749#map=20/45.4910317/9.2382743"}}, {"type": "Feature", "geometry": {"type": "Point", "coordinates": [9.2165318, 45.4583122]}, "properties": {"id": 2386676669, "feat_type": "node", "quality_categories": "improper_keys", "issue_ids": "[0]", "osm_url": "https://www.openstreetmap.org/node/2386676669", "josm_url": "http://127.0.0.1:8111/load_object?new_layer=false&objects=n2386676669", "id_url": "https://www.openstreetmap.org/edit?editor=id&node=2386676669#map=20/45.4583122/9.2165318"}}, {"type": "Feature", "geometry": {"type": "Point", "coordinates": [9.1942061, 45.495765]}, "properties": {"id": 2394469856, "feat_type": "node", "quality_categories": "improper_keys, uncanny_keys", "issue_ids": "[2, 4]", "osm_url": "https://www.openstreetmap.org/node/2394469856", "josm_url": "http://127.0.0.1:8111/load_object?new_layer=false&objects=n2394469856", "id_url": "https://www.openstreetmap.org/edit?editor=id&node=2394469856#map=20/45.495765/9.1942061"}}, {"type": "Feature", "geometry": {"type": "Point", "coordinates": [9.1867674, 45.4859516]}, "properties": {"id": 2441262028, "feat_type": "node", "quality_categories": "improper_keys, kerb_on_top_of_non_crossing", "issue_ids": "[6, 1]", "osm_url": "https://www.openstreetmap.org/node/2441262028", "josm_url": "http://127.0.0.1:8111/load_object?new_layer=false&objects=n2441262028", "id_url": "https://www.openstreetmap.org/edit?editor=id&node=2441262028#map=20/45.4859516/9.1867674"}}, {"type": "Feature", "geometry": {"type": "Point", "coordinates": [9.2091264, 45.4740459]}, "properties": {"id": 2542791129, "feat_type": "node", "quality_categories": "improper_keys, kerb_on_top_of_non_crossing", "issue_ids": "[5, 1]", "osm_url": "https://www.openstreetmap.org/node/2542791129", "josm_url": "http://127.0.0.1:8111/load_object?new_layer=false&objects=n2542791129", "id_url": "https://www.openstreetmap.org/edit?editor=id&node=2542791129#map=20/45.4740459/9.2091264"}}, {"type": "Feature", "geometry": {"type": "Point", "coordinates": [9.1618749, 45.4812579]}, "properties": {"id": 2585232035, "feat_type": "node", "quality_categories": "improper_keys", "issue_ids": "[0]", "osm_url": "https://www.openstreetmap.org/node/2585232035", "josm_url": "http://127.0.0.1:8111/load_object?new_layer=false&objects=n2585232035", "id_url": "https://www.openstreetmap.org/edit?editor=id&node=2585232035#map=20/45.4812579/9.1618749"}}, {"type": "Feature", "geometry": {"type": "Point", "coordinates": [9.2289456, 45.4810936]}, "properties": {"id": 2614484416, "feat_type": "node", "quality_categories": "improper_keys", "issue_ids": "[5]", "osm_url": "https://www.openstreetmap.org/node/2614484416", "josm_url": "http://127.0.0.1:8111/load_object?new_layer=false&objects=n2614484416", "id_url": "https://www.openstreetmap.org/edit?editor=id&node=2614484416#map=20/45.4810936/9.2289456"}}, {"type": "Feature", "geometry": {"type": "Point", "coordinates": [9.2118394, 45.4999769]}, "properties": {"id": 2624840311, "feat_type": "node", "quality_categories": "improper_keys", "issue_ids": "[0]", "osm_url": "https://www.openstreetmap.org/node/2624840311", "josm_url": "http://127.0.0.1:8111/load_object?new_layer=false&objects=n2624840311", "id_url": "https://www.openstreetmap.org/edit?editor=id&node=2624840311#map=20/45.4999769/9.2118394"}}, {"type": "Feature", "geometry": {"type": "Point", "coordinates": [9.2598624, 45.5120741]}, "properties": {"id": 2625770026, "feat_type": "node", "quality_categories": "improper_keys", "issue_ids": "[0]", "osm_url": "https://www.openstreetmap.org/node/2625770026", "josm_url": "http://127.0.0.1:8111/load_object?new_layer=false&objects=n2625770026", "id_url": "https://www.openstreetmap.org/edit?editor=id&node=2625770026#map=20/45.5120741/9.2598624"}}, {"type": "Feature", "geometry": {"type": "Point", "coordinates": [9.2226833, 45.4906288]}, "properties": {"id": 2655760270, "feat_type": "node", "quality_categories": "improper_keys, kerb_on_top_of_non_crossing", "issue_ids": "[7, 1]", "osm_url": "https://www.openstreetmap.org/node/2655760270", "josm_url": "http://127.0.0.1:8111/load_object?new_layer=false&objects=n2655760270", "id_url": "https://www.openstreetmap.org/edit?editor=id&node=2655760270#map=20/45.4906288/9.2226833"}}, {"type": "Feature", "geometry": {"type": "Point", "coordinates": [9.2210823, 45.4895285]}, "properties": {"id": 2655790976, "feat_type": "node", "quality_categories": "improper_keys, kerb_on_top_of_non_crossing", "issue_ids": "[8, 1]", "osm_url": "https://www.openstreetmap.org/node/2655790976", "josm_url": "http://127.0.0.1:8111/load_object?new_layer=false&objects=n2655790976", "id_url": "https://www.openstreetmap.org/edit?editor=id&node=2655790976#map=20/45.4895285/9.2210823"}}, {"type": "Feature", "geometry": {"type": "Point", "coordinates": [9.2234899, 45.4506352]}, "properties": {"id": 2712562540, "feat_type": "node", "quality_categories": "improper_keys", "issue_ids": "[2]", "osm_url": "https://www.openstreetmap.org/node/2712562540", "josm_url": "http://127.0.0.1:8111/load_object?new_layer=false&objects=n2712562540", "id_url": "https://www.openstreetmap.org/edit?editor=id&node=2712562540#map=20/45.4506352/9.2234899"}}, {"type": "Feature", "geometry": {"type": "Point", "coordinates": [9.2276395, 45.5124232]}, "properties": {"id": 2742832629, "feat_type": "node", "quality_categories": "improper_keys", "issue_ids": "[0]", "osm_url": "https://www.openstreetmap.org/node/2742832629", "josm_url": "http://127.0.0.1:8111/load_object?new_layer=false&objects=n2742832629", "id_url": "https://www.openstreetmap.org/edit?editor=id&node=2742832629#map=20/45.5124232/9.2276395"}}, {"type": "Feature", "geometry": {"type": "Point", "coordinates": [9.0822501, 45.465355]}, "properties": {"id": 2787279533, "feat_type": "node", "quality_categories": "improper_keys, kerb_on_top_of_non_crossing", "issue_ids": "[5, 1]", "osm_url": "https://www.openstreetmap.org/node/2787279533", "josm_url": "http://127.0.0.1:8111/load_object?new_layer=false&objects=n2787279533", "id_url": "https://www.openstreetmap.org/edit?editor=id&node=2787279533#map=20/45.465355/9.0822501"}}, {"type": "Feature", "geometry": {"type": "Point", "coordinates": [9.1053814, 45.4686646]}, "properties": {"id": 2791241708, "feat_type": "node", "quality_categories": "improper_keys, kerb_on_top_of_non_crossing", "issue_ids": "[5, 1]", "osm_url": "https://www.openstreetmap.org/node/2791241708", "josm_url": "http://127.0.0.1:8111/load_object?new_layer=false&objects=n2791241708", "id_url": "https://www.openstreetmap.org/edit?editor=id&node=2791241708#map=20/45.4686646/9.1053814"}}, {"type": "Feature", "geometry": {"type": "Point", "coordinates": [9.2238087, 45.475834]}, "properties": {"id": 2859842830, "feat_type": "node", "quality_categories": "improper_keys, kerb_on_top_of_non_crossing", "issue_ids": "[9, 1]", "osm_url": "https://www.openstreetmap.org/node/2859842830", "josm_url": "http://127.0.0.1:8111/load_object?new_layer=false&objects=n2859842830", "id_url": "https://www.openstreetmap.org/edit?editor=id&node=2859842830#map=20/45.475834/9.2238087"}}, {"type": "Feature", "geometry": {"type": "Point", "coordinates": [9.2195508, 45.4693206]}, "properties": {"id": 2944544167, "feat_type": "node", "quality_categories": "improper_keys", "issue_ids": "[5]", "osm_url": "https://www.openstreetmap.org/node/2944544167", "josm_url": "http://127.0.0.1:8111/load_object?new_layer=false&objects=n2944544167", "id_url": "https://www.openstreetmap.org/edit?editor=id&node=2944544167#map=20/45.4693206/9.2195508"}}, {"type": "Feature", "geometry": {"type": "Point", "coordinates": [9.2201118, 45.4706911]}, "properties": {"id": 2944545690, "feat_type": "node", "quality_categories": "improper_keys, kerb_on_top_of_non_crossing", "issue_ids": "[5, 1]", "osm_url": "https://www.openstreetmap.org/node/2944545690", "josm_url": "http://127.0.0.1:8111/load_object?new_layer=false&objects=n2944545690", "id_url": "https://www.openstreetmap.org/edit?editor=id&node=2944545690#map=20/45.4706911/9.2201118"}}, {"type": "Feature", "geometry": {"type": "Point", "coordinates": [9.2201862, 45.4708607]}, "properties": {"id": 2944545696, "feat_type": "node", "quality_categories": "improper_keys, kerb_on_top_of_non_crossing", "issue_ids": "[5, 1]", "osm_url": "https://www.openstreetmap.org/node/2944545696", "josm_url": "http://127.0.0.1:8111/load_object?new_layer=false&objects=n2944545696", "id_url": "https://www.openstreetmap.org/edit?editor=id&node=2944545696#map=20/45.4708607/9.2201862"}}, {"type": "Feature", "geometry": {"type": "Point", "coordinates": [9.1782962, 45.4522644]}, "properties": {"id": 3163183230, "feat_type": "node", "quality_categories": "improper_keys", "issue_ids": "[0]", "osm_url": "https://www.openstreetmap.org/node/3163183230", "josm_url": "http://127.0.0.1:8111/load_object?new_layer=false&objects=n3163183230", "id_url": "https://www.openstreetmap.org/edit?editor=id&node=3163183230#map=20/45.4522644/9.1782962"}}, {"type": "Feature", "geometry": {"type": "Point", "coordinates": [9.1776398, 45.4448059]}, "properties": {"id": 3240370995, "feat_type": "node", "quality_categories": "improper_keys, kerb_on_top_of_non_crossing", "issue_ids": "[0, 1]", "osm_url": "https://www.openstreetmap.org/node/3240370995", "josm_url": "http://127.0.0.1:8111/load_object?new_layer=false&objects=n3240370995", "id_url": "https://www.openstreetmap.org/edit?editor=id&node=3240370995#map=20/45.4448059/9.1776398"}}, {"type": "Feature", "geometry": {"type": "Point", "coordinates": [9.1889742, 45.4782704]}, "properties": {"id": 3307145592, "feat_type": "node", "quality_categories": "improper_keys", "issue_ids": "[0]", "osm_url": "https://www.openstreetmap.org/node/3307145592", "josm_url": "http://127.0.0.1:8111/load_object?new_layer=false&objects=n3307145592", "id_url": "https://www.openstreetmap.org/edit?editor=id&node=3307145592#map=20/45.4782704/9.1889742"}}, {"type": "Feature", "geometry": {"type": "Point", "coordinates": [9.2099728, 45.5131706]}, "properties": {"id": 3358109057, "feat_type": "node", "quality_categories": "improper_keys", "issue_ids": "[0]", "osm_url": "https://www.openstreetmap.org/node/3358109057", "josm_url": "http://127.0.0.1:8111/load_object?new_layer=false&objects=n3358109057", "id_url": "https://www.openstreetmap.org/edit?editor=id&node=3358109057#map=20/45.5131706/9.2099728"}}, {"type": "Feature", "geometry": {"type": "Point", "coordinates": [9.11934, 45.4937688]}, "properties": {"id": 3373943089, "feat_type": "node", "quality_categories": "improper_keys", "issue_ids": "[2]", "osm_url": "https://www.openstreetmap.org/node/3373943089", "josm_url": "http://127.0.0.1:8111/load_object?new_layer=false&objects=n3373943089", "id_url": "https://www.openstreetmap.org/edit?editor=id&node=3373943089#map=20/45.4937688/9.11934"}}, {"type": "Feature", "geometry": {"type": "Point", "coordinates": [9.2145756, 45.4655024]}, "properties": {"id": 3386288551, "feat_type": "node", "quality_categories": "improper_keys, uncanny_keys", "issue_ids": "[2, 4]", "osm_url": "https://www.openstreetmap.org/node/3386288551", "josm_url": "http://127.0.0.1:8111/load_object?new_layer=false&objects=n3386288551", "id_url": "https://www.openstreetmap.org/edit?editor=id&node=3386288551#map=20/45.4655024/9.2145756"}}, {"type": "Feature", "geometry": {"type": "Point", "coordinates": [9.2116601, 45.5000459]}, "properties": {"id": 3396250508, "feat_type": "node", "quality_categories": "improper_keys", "issue_ids": "[0]", "osm_url": "https://www.openstreetmap.org/node/3396250508", "josm_url": "http://127.0.0.1:8111/load_object?new_layer=false&objects=n3396250508", "id_url": "https://www.openstreetmap.org/edit?editor=id&node=3396250508#map=20/45.5000459/9.2116601"}}, {"type": "Feature", "geometry": {"type": "Point", "coordinates": [9.2117905, 45.5001612]}, "properties": {"id": 3396250512, "feat_type": "node", "quality_categories": "improper_keys", "issue_ids": "[0]", "osm_url": "https://www.openstreetmap.org/node/3396250512", "josm_url": "http://127.0.0.1:8111/load_object?new_layer=false&objects=n3396250512", "id_url": "https://www.openstreetmap.org/edit?editor=id&node=3396250512#map=20/45.5001612/9.2117905"}}, {"type": "Feature", "geometry": {"type": "Point", "coordinates": [9.2225158, 45.5170951]}, "properties": {"id": 3398328177, "feat_type": "node", "quality_categories": "improper_keys", "issue_ids": "[0]", "osm_url": "https://www.openstreetmap.org/node/3398328177", "josm_url": "http://127.0.0.1:8111/load_object?new_layer=false&objects=n3398328177", "id_url": "https://www.openstreetmap.org/edit?editor=id&node=3398328177#map=20/45.5170951/9.2225158"}}, {"type": "Feature", "geometry": {"type": "Point", "coordinates": [9.18038, 45.4854099]}, "properties": {"id": 3446474873, "feat_type": "node", "quality_categories": "improper_keys", "issue_ids": "[5]", "osm_url": "https://www.openstreetmap.org/node/3446474873", "josm_url": "http://127.0.0.1:8111/load_object?new_layer=false&objects=n3446474873", "id_url": "https://www.openstreetmap.org/edit?editor=id&node=3446474873#map=20/45.4854099/9.18038"}}, {"type": "Feature", "geometry": {"type": "Point", "coordinates": [9.2183626, 45.4694064]}, "properties": {"id": 3455728899, "feat_type": "node", "quality_categories": "improper_keys", "issue_ids": "[5]", "osm_url": "https://www.openstreetmap.org/node/3455728899", "josm_url": "http://127.0.0.1:8111/load_object?new_layer=false&objects=n3455728899", "id_url": "https://www.openstreetmap.org/edit?editor=id&node=3455728899#map=20/45.4694064/9.2183626"}}, {"type": "Feature", "geometry": {"type": "Point", "coordinates": [9.1608786, 45.4579575]}, "properties": {"id": 3469686204, "feat_type": "node", "quality_categories": "improper_keys", "issue_ids": "[0]", "osm_url": "https://www.openstreetmap.org/node/3469686204", "josm_url": "http://127.0.0.1:8111/load_object?new_layer=false&objects=n3469686204", "id_url": "https://www.openstreetmap.org/edit?editor=id&node=3469686204#map=20/45.4579575/9.1608786"}}, {"type": "Feature", "geometry": {"type": "Point", "coordinates": [9.2074065, 45.4654091]}, "properties": {"id": 3476460340, "feat_type": "node", "quality_categories": "improper_keys", "issue_ids": "[5]", "osm_url": "https://www.openstreetmap.org/node/3476460340", "josm_url": "http://127.0.0.1:8111/load_object?new_layer=false&objects=n3476460340", "id_url": "https://www.openstreetmap.org/edit?editor=id&node=3476460340#map=20/45.4654091/9.2074065"}}, {"type": "Feature", "geometry": {"type": "Point", "coordinates": [9.2054571, 45.4499113]}, "properties": {"id": 3699664495, "feat_type": "node", "quality_categories": "improper_keys", "issue_ids": "[0]", "osm_url": "https://www.openstreetmap.org/node/3699664495", "josm_url": "http://127.0.0.1:8111/load_object?new_layer=false&objects=n3699664495", "id_url": "https://www.openstreetmap.org/edit?editor=id&node=3699664495#map=20/45.4499113/9.2054571"}}, {"type": "Feature", "geometry": {"type": "Point", "coordinates": [9.2079153, 45.4738522]}, "properties": {"id": 3699746572, "feat_type": "node", "quality_categories": "improper_keys", "issue_ids": "[5]", "osm_url": "https://www.openstreetmap.org/node/3699746572", "josm_url": "http://127.0.0.1:8111/load_object?new_layer=false&objects=n3699746572", "id_url": "https://www.openstreetmap.org/edit?editor=id&node=3699746572#map=20/45.4738522/9.2079153"}}, {"type": "Feature", "geometry": {"type": "Point", "coordinates": [9.2248342, 45.4907793]}, "properties": {"id": 3720635150, "feat_type": "node", "quality_categories": "improper_keys, kerb_on_top_of_non_crossing", "issue_ids": "[0, 1]", "osm_url": "https://www.openstreetmap.org/node/3720635150", "josm_url": "http://127.0.0.1:8111/load_object?new_layer=false&objects=n3720635150", "id_url": "https://www.openstreetmap.org/edit?editor=id&node=3720635150#map=20/45.4907793/9.2248342"}}, {"type": "Feature", "geometry": {"type": "Point", "coordinates": [9.1416414, 45.4730686]}, "properties": {"id": 3730480974, "feat_type": "node", "quality_categories": "improper_keys", "issue_ids": "[5]", "osm_url": "https://www.openstreetmap.org/node/3730480974", "josm_url": "http://127.0.0.1:8111/load_object?new_layer=false&objects=n3730480974", "id_url": "https://www.openstreetmap.org/edit?editor=id&node=3730480974#map=20/45.4730686/9.1416414"}}, {"type": "Feature", "geometry": {"type": "Point", "coordinates": [9.1987604, 45.5003608]}, "properties": {"id": 3731503660, "feat_type": "node", "quality_categories": "improper_keys, uncanny_keys", "issue_ids": "[2, 4]", "osm_url": "https://www.openstreetmap.org/node/3731503660", "josm_url": "http://127.0.0.1:8111/load_object?new_layer=false&objects=n3731503660", "id_url": "https://www.openstreetmap.org/edit?editor=id&node=3731503660#map=20/45.5003608/9.1987604"}}, {"type": "Feature", "geometry": {"type": "Point", "coordinates": [9.196957, 45.5004546]}, "properties": {"id": 3731503663, "feat_type": "node", "quality_categories": "improper_keys, kerb_on_top_of_non_crossing, uncanny_keys", "issue_ids": "[2, 4, 1]", "osm_url": "https://www.openstreetmap.org/node/3731503663", "josm_url": "http://127.0.0.1:8111/load_object?new_layer=false&objects=n3731503663", "id_url": "https://www.openstreetmap.org/edit?editor=id&node=3731503663#map=20/45.5004546/9.196957"}}, {"type": "Feature", "geometry": {"type": "Point", "coordinates": [9.2116829, 45.5022549]}, "properties": {"id": 3780583060, "feat_type": "node", "quality_categories": "improper_keys, kerb_on_top_of_non_crossing", "issue_ids": "[6, 1]", "osm_url": "https://www.openstreetmap.org/node/3780583060", "josm_url": "http://127.0.0.1:8111/load_object?new_layer=false&objects=n3780583060", "id_url": "https://www.openstreetmap.org/edit?editor=id&node=3780583060#map=20/45.5022549/9.2116829"}}, {"type": "Feature", "geometry": {"type": "Point", "coordinates": [9.1756274, 45.4776593]}, "properties": {"id": 3915124032, "feat_type": "node", "quality_categories": "improper_keys", "issue_ids": "[0]", "osm_url": "https://www.openstreetmap.org/node/3915124032", "josm_url": "http://127.0.0.1:8111/load_object?new_layer=false&objects=n3915124032", "id_url": "https://www.openstreetmap.org/edit?editor=id&node=3915124032#map=20/45.4776593/9.1756274"}}, {"type": "Feature", "geometry": {"type": "Point", "coordinates": [9.2244256, 45.4905211]}, "properties": {"id": 4062308550, "feat_type": "node", "quality_categories": "improper_keys, kerb_on_top_of_non_crossing", "issue_ids": "[0, 1]", "osm_url": "https://www.openstreetmap.org/node/4062308550", "josm_url": "http://127.0.0.1:8111/load_object?new_layer=false&objects=n4062308550", "id_url": "https://www.openstreetmap.org/edit?editor=id&node=4062308550#map=20/45.4905211/9.2244256"}}, {"type": "Feature", "geometry": {"type": "Point", "coordinates": [9.1752325, 45.4789034]}, "properties": {"id": 4081383675, "feat_type": "node", "quality_categories": "improper_keys, kerb_on_top_of_non_crossing", "issue_ids": "[10, 1]", "osm_url": "https://www.openstreetmap.org/node/4081383675", "josm_url": "http://127.0.0.1:8111/load_object?new_layer=false&objects=n4081383675", "id_url": "https://www.openstreetmap.org/edit?editor=id&node=4081383675#map=20/45.4789034/9.1752325"}}, {"type": "Feature", "geometry": {"type": "Point", "coordinates": [9.2442607, 45.4356405]}, "properties": {"id": 4147516405, "feat_type": "node", "quality_categories": "improper_keys", "issue_ids": "[5]", "osm_url": "https://www.openstreetmap.org/node/4147516405", "josm_url": "http://127.0.0.1:8111/load_object?new_layer=false&objects=n4147516405", "id_url": "https://www.openstreetmap.org/edit?editor=id&node=4147516405#map=20/45.4356405/9.2442607"}}, {"type": "Feature", "geometry": {"type": "Point", "coordinates": [9.2366677, 45.4976938]}, "properties": {"id": 4448926149, "feat_type": "node", "quality_categories": "improper_keys, kerb_on_top_of_non_crossing", "issue_ids": "[10, 1]", "osm_url": "https://www.openstreetmap.org/node/4448926149", "josm_url": "http://127.0.0.1:8111/load_object?new_layer=false&objects=n4448926149", "id_url": "https://www.openstreetmap.org/edit?editor=id&node=4448926149#map=20/45.4976938/9.2366677"}}, {"type": "Feature", "geometry": {"type": "Point", "coordinates": [9.134558, 45.510064]}, "properties": {"id": 4834590609, "feat_type": "node", "quality_categories": "improper_keys", "issue_ids": "[0]", "osm_url": "https://www.openstreetmap.org/node/4834590609", "josm_url": "http://127.0.0.1:8111/load_object?new_layer=false&objects=n4834590609", "id_url": "https://www.openstreetmap.org/edit?editor=id&node=4834590609#map=20/45.510064/9.134558"}}, {"type": "Feature", "geometry": {"type": "Point", "coordinates": [9.1346518, 45.5100283]}, "properties": {"id": 4834590610, "feat_type": "node", "quality_categories": "improper_keys", "issue_ids": "[0]", "osm_url": "https://www.openstreetmap.org/node/4834590610", "josm_url": "http://127.0.0.1:8111/load_object?new_layer=false&objects=n4834590610", "id_url": "https://www.openstreetmap.org/edit?editor=id&node=4834590610#map=20/45.5100283/9.1346518"}}, {"type": "Feature", "geometry": {"type": "Point", "coordinates": [9.1973144, 45.46518]}, "properties": {"id": 5359556421, "feat_type": "node", "quality_categories": "improper_keys, kerb_on_top_of_non_crossing", "issue_ids": "[0, 1]", "osm_url": "https://www.openstreetmap.org/node/5359556421", "josm_url": "http://127.0.0.1:8111/load_object?new_layer=false&objects=n5359556421", "id_url": "https://www.openstreetmap.org/edit?editor=id&node=5359556421#map=20/45.46518/9.1973144"}}, {"type": "Feature", "geometry": {"type": "Point", "coordinates": [9.2155821, 45.4957624]}, "properties": {"id": 5405178819, "feat_type": "node", "quality_categories": "improper_keys", "issue_ids": "[0]", "osm_url": "https://www.openstreetmap.org/node/5405178819", "josm_url": "http://127.0.0.1:8111/load_object?new_layer=false&objects=n5405178819", "id_url": "https://www.openstreetmap.org/edit?editor=id&node=5405178819#map=20/45.4957624/9.2155821"}}, {"type": "Feature", "geometry": {"type": "Point", "coordinates": [9.223626, 45.4764036]}, "properties": {"id": 5418905623, "feat_type": "node", "quality_categories": "improper_keys, kerb_on_top_of_non_crossing", "issue_ids": "[9, 1]", "osm_url": "https://www.openstreetmap.org/node/5418905623", "josm_url": "http://127.0.0.1:8111/load_object?new_layer=false&objects=n5418905623", "id_url": "https://www.openstreetmap.org/edit?editor=id&node=5418905623#map=20/45.4764036/9.223626"}}, {"type": "Feature", "geometry": {"type": "Point", "coordinates": [9.2339724, 45.4758217]}, "properties": {"id": 5912626576, "feat_type": "node", "quality_categories": "improper_keys", "issue_ids": "[0]", "osm_url": "https://www.openstreetmap.org/node/5912626576", "josm_url": "http://127.0.0.1:8111/load_object?new_layer=false&objects=n5912626576", "id_url": "https://www.openstreetmap.org/edit?editor=id&node=5912626576#map=20/45.4758217/9.2339724"}}, {"type": "Feature", "geometry": {"type": "Point", "coordinates": [9.2339552, 45.4753525]}, "properties": {"id": 5912626578, "feat_type": "node", "quality_categories": "improper_keys", "issue_ids": "[0]", "osm_url": "https://www.openstreetmap.org/node/5912626578", "josm_url": "http://127.0.0.1:8111/load_object?new_layer=false&objects=n5912626578", "id_url": "https://www.openstreetmap.org/edit?editor=id&node=5912626578#map=20/45.4753525/9.2339552"}}, {"type": "Feature", "geometry": {"type": "Point", "coordinates": [9.2234703, 45.4778225]}, "properties": {"id": 5936879760, "feat_type": "node", "quality_categories": "improper_keys, kerb_on_top_of_non_crossing, uncanny_keys", "issue_ids": "[2, 3, 1]", "osm_url": "https://www.openstreetmap.org/node/5936879760", "josm_url": "http://127.0.0.1:8111/load_object?new_layer=false&objects=n5936879760", "id_url": "https://www.openstreetmap.org/edit?editor=id&node=5936879760#map=20/45.4778225/9.2234703"}}, {"type": "Feature", "geometry": {"type": "Point", "coordinates": [9.2410139, 45.4617509]}, "properties": {"id": 6296169387, "feat_type": "node", "quality_categories": "improper_keys", "issue_ids": "[0]", "osm_url": "https://www.openstreetmap.org/node/6296169387", "josm_url": "http://127.0.0.1:8111/load_object?new_layer=false&objects=n6296169387", "id_url": "https://www.openstreetmap.org/edit?editor=id&node=6296169387#map=20/45.4617509/9.2410139"}}, {"type": "Feature", "geometry": {"type": "Point", "coordinates": [9.206475, 45.4623826]}, "properties": {"id": 6301781772, "feat_type": "node", "quality_categories": "improper_keys, uncanny_keys", "issue_ids": "[2, 4]", "osm_url": "https://www.openstreetmap.org/node/6301781772", "josm_url": "http://127.0.0.1:8111/load_object?new_layer=false&objects=n6301781772", "id_url": "https://www.openstreetmap.org/edit?editor=id&node=6301781772#map=20/45.4623826/9.206475"}}, {"type": "Feature", "geometry": {"type": "Point", "coordinates": [9.2480072, 45.4359413]}, "properties": {"id": 6462960777, "feat_type": "node", "quality_categories": "improper_keys, kerb_on_top_of_non_crossing", "issue_ids": "[10, 1]", "osm_url": "https://www.openstreetmap.org/node/6462960777", "josm_url": "http://127.0.0.1:8111/load_object?new_layer=false&objects=n6462960777", "id_url": "https://www.openstreetmap.org/edit?editor=id&node=6462960777#map=20/45.4359413/9.2480072"}}, {"type": "Feature", "geometry": {"type": "Point", "coordinates": [9.2072412, 45.4765318]}, "properties": {"id": 7570125959, "feat_type": "node", "quality_categories": "improper_keys, kerb_on_top_of_non_crossing", "issue_ids": "[2, 1]", "osm_url": "https://www.openstreetmap.org/node/7570125959", "josm_url": "http://127.0.0.1:8111/load_object?new_layer=false&objects=n7570125959", "id_url": "https://www.openstreetmap.org/edit?editor=id&node=7570125959#map=20/45.4765318/9.2072412"}}, {"type": "Feature", "geometry": {"type": "Point", "coordinates": [9.2092573, 45.4785545]}, "properties": {"id": 7570125968, "feat_type": "node", "quality_categories": "improper_keys, kerb_on_top_of_non_crossing", "issue_ids": "[5, 1]", "osm_url": "https://www.openstreetmap.org/node/7570125968", "josm_url": "http://127.0.0.1:8111/load_object?new_layer=false&objects=n7570125968", "id_url": "https://www.openstreetmap.org/edit?editor=id&node=7570125968#map=20/45.4785545/9.2092573"}}, {"type": "Feature", "geometry": {"type": "Point", "coordinates": [9.2097192, 45.4789832]}, "properties": {"id": 7570125969, "feat_type": "node", "quality_categories": "improper_keys, kerb_on_top_of_non_crossing, uncanny_keys", "issue_ids": "[2, 4, 1]", "osm_url": "https://www.openstreetmap.org/node/7570125969", "josm_url": "http://127.0.0.1:8111/load_object?new_layer=false&objects=n7570125969", "id_url": "https://www.openstreetmap.org/edit?editor=id&node=7570125969#map=20/45.4789832/9.2097192"}}, {"type": "Feature", "geometry": {"type": "Point", "coordinates": [9.1887333, 45.504277]}, "properties": {"id": 8091107775, "feat_type": "node", "quality_categories": "improper_keys, uncanny_keys", "issue_ids": "[2, 3]", "osm_url": "https://www.openstreetmap.org/node/8091107775", "josm_url": "http://127.0.0.1:8111/load_object?new_layer=false&objects=n8091107775", "id_url": "https://www.openstreetmap.org/edit?editor=id&node=8091107775#map=20/45.504277/9.1887333"}}, {"type": "Feature", "geometry": {"type": "Point", "coordinates": [9.1870648, 45.4878782]}, "properties": {"id": 8194483222, "feat_type": "node", "quality_categories": "improper_keys, kerb_on_top_of_non_crossing", "issue_ids": "[0, 1]", "osm_url": "https://www.openstreetmap.org/node/8194483222", "josm_url": "http://127.0.0.1:8111/load_object?new_layer=false&objects=n8194483222", "id_url": "https://www.openstreetmap.org/edit?editor=id&node=8194483222#map=20/45.4878782/9.1870648"}}, {"type": "Feature", "geometry": {"type": "Point", "coordinates": [9.2058838, 45.4754038]}, "properties": {"id": 8901473929, "feat_type": "node", "quality_categories": "improper_keys, kerb_on_top_of_non_crossing", "issue_ids": "[5, 1]", "osm_url": "https://www.openstreetmap.org/node/8901473929", "josm_url": "http://127.0.0.1:8111/load_object?new_layer=false&objects=n8901473929", "id_url": "https://www.openstreetmap.org/edit?editor=id&node=8901473929#map=20/45.4754038/9.2058838"}}, {"type": "Feature", "geometry": {"type": "Point", "coordinates": [9.2070665, 45.4765746]}, "properties": {"id": 8901473938, "feat_type": "node", "quality_categories": "improper_keys, kerb_on_top_of_non_crossing, uncanny_keys", "issue_ids": "[2, 4, 1]", "osm_url": "https://www.openstreetmap.org/node/8901473938", "josm_url": "http://127.0.0.1:8111/load_object?new_layer=false&objects=n8901473938", "id_url": "https://www.openstreetmap.org/edit?editor=id&node=8901473938#map=20/45.4765746/9.2070665"}}, {"type": "Feature", "geometry": {"type": "Point", "coordinates": [9.1633017, 45.5287489]}, "properties": {"id": 8904302921, "feat_type": "node", "quality_categories": "improper_keys, kerb_on_top_of_non_crossing", "issue_ids": "[0, 1]", "osm_url": "https://www.openstreetmap.org/node/8904302921", "josm_url": "http://127.0.0.1:8111/load_object?new_layer=false&objects=n8904302921", "id_url": "https://www.openstreetmap.org/edit?editor=id&node=8904302921#map=20/45.5287489/9.1633017"}}, {"type": "Feature", "geometry": {"type": "Point", "coordinates": [9.2059009, 45.4753035]}, "properties": {"id": 8907591019, "feat_type": "node", "quality_categories": "improper_keys, kerb_on_top_of_non_crossing", "issue_ids": "[5, 1]", "osm_url": "https://www.openstreetmap.org/node/8907591019", "josm_url": "http://127.0.0.1:8111/load_object?new_layer=false&objects=n8907591019", "id_url": "https://www.openstreetmap.org/edit?editor=id&node=8907591019#map=20/45.4753035/9.2059009"}}, {"type": "Feature", "geometry": {"type": "Point", "coordinates": [9.1150222, 45.4798109]}, "properties": {"id": 8995562364, "feat_type": "node", "quality_categories": "improper_keys", "issue_ids": "[0]", "osm_url": "https://www.openstreetmap.org/node/8995562364", "josm_url": "http://127.0.0.1:8111/load_object?new_layer=false&objects=n8995562364", "id_url": "https://www.openstreetmap.org/edit?editor=id&node=8995562364#map=20/45.4798109/9.1150222"}}, {"type": "Feature", "geometry": {"type": "Point", "coordinates": [9.1666024, 45.4873366]}, "properties": {"id": 9041172980, "feat_type": "node", "quality_categories": "improper_keys", "issue_ids": "[0]", "osm_url": "https://www.openstreetmap.org/node/9041172980", "josm_url": "http://127.0.0.1:8111/load_object?new_layer=false&objects=n9041172980", "id_url": "https://www.openstreetmap.org/edit?editor=id&node=9041172980#map=20/45.4873366/9.1666024"}}, {"type": "Feature", "geometry": {"type": "Point", "coordinates": [9.2001176, 45.4796357]}, "properties": {"id": 9101589171, "feat_type": "node", "quality_categories": "improper_keys", "issue_ids": "[0]", "osm_url": "https://www.openstreetmap.org/node/9101589171", "josm_url": "http://127.0.0.1:8111/load_object?new_layer=false&objects=n9101589171", "id_url": "https://www.openstreetmap.org/edit?editor=id&node=9101589171#map=20/45.4796357/9.2001176"}}, {"type": "Feature", "geometry": {"type": "Point", "coordinates": [9.2125292, 45.5019493]}, "properties": {"id": 9124754876, "feat_type": "node", "quality_categories": "disjointed_geometries, improper_keys", "issue_ids": "[0, 11]", "osm_url": "https://www.openstreetmap.org/node/9124754876", "josm_url": "http://127.0.0.1:8111/load_object?new_layer=false&objects=n9124754876", "id_url": "https://www.openstreetmap.org/edit?editor=id&node=9124754876#map=20/45.5019493/9.2125292"}}, {"type": "Feature", "geometry": {"type": "Point", "coordinates": [9.1809904, 45.49503]}, "properties": {"id": 9208163478, "feat_type": "node", "quality_categories": "improper_keys", "issue_ids": "[0]", "osm_url": "https://www.openstreetmap.org/node/9208163478", "josm_url": "http://127.0.0.1:8111/load_object?new_layer=false&objects=n9208163478", "id_url": "https://www.openstreetmap.org/edit?editor=id&node=9208163478#map=20/45.49503/9.1809904"}}, {"type": "Feature", "geometry": {"type": "Point", "coordinates": [9.2071631, 45.4764592]}, "properties": {"id": 9360819896, "feat_type": "node", "quality_categories": "improper_keys, kerb_on_top_of_non_crossing, uncanny_keys", "issue_ids": "[2, 4, 1]", "osm_url": "https://www.openstreetmap.org/node/9360819896", "josm_url": "http://127.0.0.1:8111/load_object?new_layer=false&objects=n9360819896", "id_url": "https://www.openstreetmap.org/edit?editor=id&node=9360819896#map=20/45.4764592/9.2071631"}}, {"type": "Feature", "geometry": {"type": "Point", "coordinates": [9.2083505, 45.4776587]}, "properties": {"id": 9360819900, "feat_type": "node", "quality_categories": "improper_keys, kerb_on_top_of_non_crossing, uncanny_keys", "issue_ids": "[2, 4, 1]", "osm_url": "https://www.openstreetmap.org/node/9360819900", "josm_url": "http://127.0.0.1:8111/load_object?new_layer=false&objects=n9360819900", "id_url": "https://www.openstreetmap.org/edit?editor=id&node=9360819900#map=20/45.4776587/9.2083505"}}, {"type": "Feature", "geometry": {"type": "Point", "coordinates": [9.2240078, 45.4673992]}, "properties": {"id": 9360931390, "feat_type": "node", "quality_categories": "improper_keys", "issue_ids": "[10]", "osm_url": "https://www.openstreetmap.org/node/9360931390", "josm_url": "http://127.0.0.1:8111/load_object?new_layer=false&objects=n9360931390", "id_url": "https://www.openstreetmap.org/edit?editor=id&node=9360931390#map=20/45.4673992/9.2240078"}}, {"type": "Feature", "geometry": {"type": "Point", "coordinates": [9.2156552, 45.4849971]}, "properties": {"id": 9363707375, "feat_type": "node", "quality_categories": "improper_keys, kerb_on_top_of_non_crossing", "issue_ids": "[0, 1]", "osm_url": "https://www.openstreetmap.org/node/9363707375", "josm_url": "http://127.0.0.1:8111/load_object?new_layer=false&objects=n9363707375", "id_url": "https://www.openstreetmap.org/edit?editor=id&node=9363707375#map=20/45.4849971/9.2156552"}}, {"type": "Feature", "geometry": {"type": "Point", "coordinates": [9.2076165, 45.4769093]}, "properties": {"id": 9363724826, "feat_type": "node", "quality_categories": "improper_keys, kerb_on_top_of_non_crossing", "issue_ids": "[5, 1]", "osm_url": "https://www.openstreetmap.org/node/9363724826", "josm_url": "http://127.0.0.1:8111/load_object?new_layer=false&objects=n9363724826", "id_url": "https://www.openstreetmap.org/edit?editor=id&node=9363724826#map=20/45.4769093/9.2076165"}}, {"type": "Feature", "geometry": {"type": "Point", "coordinates": [9.2067123, 45.4760083]}, "properties": {"id": 9363724834, "feat_type": "node", "quality_categories": "improper_keys, kerb_on_top_of_non_crossing", "issue_ids": "[5, 1]", "osm_url": "https://www.openstreetmap.org/node/9363724834", "josm_url": "http://127.0.0.1:8111/load_object?new_layer=false&objects=n9363724834", "id_url": "https://www.openstreetmap.org/edit?editor=id&node=9363724834#map=20/45.4760083/9.2067123"}}, {"type": "Feature", "geometry": {"type": "Point", "coordinates": [9.2070158, 45.4765274]}, "properties": {"id": 9363724862, "feat_type": "node", "quality_categories": "improper_keys, kerb_on_top_of_non_crossing, uncanny_keys", "issue_ids": "[2, 4, 1]", "osm_url": "https://www.openstreetmap.org/node/9363724862", "josm_url": "http://127.0.0.1:8111/load_object?new_layer=false&objects=n9363724862", "id_url": "https://www.openstreetmap.org/edit?editor=id&node=9363724862#map=20/45.4765274/9.2070158"}}, {"type": "Feature", "geometry": {"type": "Point", "coordinates": [9.1758076, 45.4417906]}, "properties": {"id": 9466300802, "feat_type": "node", "quality_categories": "improper_keys, uncanny_keys", "issue_ids": "[2, 3]", "osm_url": "https://www.openstreetmap.org/node/9466300802", "josm_url": "http://127.0.0.1:8111/load_object?new_layer=false&objects=n9466300802", "id_url": "https://www.openstreetmap.org/edit?editor=id&node=9466300802#map=20/45.4417906/9.1758076"}}, {"type": "Feature", "geometry": {"type": "Point", "coordinates": [9.1970837, 45.4812964]}, "properties": {"id": 9487293976, "feat_type": "node", "quality_categories": "improper_keys", "issue_ids": "[2]", "osm_url": "https://www.openstreetmap.org/node/9487293976", "josm_url": "http://127.0.0.1:8111/load_object?new_layer=false&objects=n9487293976", "id_url": "https://www.openstreetmap.org/edit?editor=id&node=9487293976#map=20/45.4812964/9.1970837"}}, {"type": "Feature", "geometry": {"type": "Point", "coordinates": [9.2290267, 45.4810468]}, "properties": {"id": 9550101815, "feat_type": "node", "quality_categories": "improper_keys", "issue_ids": "[5]", "osm_url": "https://www.openstreetmap.org/node/9550101815", "josm_url": "http://127.0.0.1:8111/load_object?new_layer=false&objects=n9550101815", "id_url": "https://www.openstreetmap.org/edit?editor=id&node=9550101815#map=20/45.4810468/9.2290267"}}, {"type": "Feature", "geometry": {"type": "Point", "coordinates": [9.2129788, 45.5029992]}, "properties": {"id": 9565399947, "feat_type": "node", "quality_categories": "disjointed_geometries, improper_keys", "issue_ids": "[0, 11]", "osm_url": "https://www.openstreetmap.org/node/9565399947", "josm_url": "http://127.0.0.1:8111/load_object?new_layer=false&objects=n9565399947", "id_url": "https://www.openstreetmap.org/edit?editor=id&node=9565399947#map=20/45.5029992/9.2129788"}}, {"type": "Feature", "geometry": {"type": "Point", "coordinates": [9.162798, 45.459653]}, "properties": {"id": 9580958775, "feat_type": "node", "quality_categories": "improper_keys", "issue_ids": "[0]", "osm_url": "https://www.openstreetmap.org/node/9580958775", "josm_url": "http://127.0.0.1:8111/load_object?new_layer=false&objects=n9580958775", "id_url": "https://www.openstreetmap.org/edit?editor=id&node=9580958775#map=20/45.459653/9.162798"}}, {"type": "Feature", "geometry": {"type": "Point", "coordinates": [9.22359, 45.4621161]}, "properties": {"id": 9585728959, "feat_type": "node", "quality_categories": "improper_keys", "issue_ids": "[2]", "osm_url": "https://www.openstreetmap.org/node/9585728959", "josm_url": "http://127.0.0.1:8111/load_object?new_layer=false&objects=n9585728959", "id_url": "https://www.openstreetmap.org/edit?editor=id&node=9585728959#map=20/45.4621161/9.22359"}}, {"type": "Feature", "geometry": {"type": "Point", "coordinates": [9.1764546, 45.4442773]}, "properties": {"id": 9789011025, "feat_type": "node", "quality_categories": "improper_keys, kerb_on_top_of_non_crossing", "issue_ids": "[0, 1]", "osm_url": "https://www.openstreetmap.org/node/9789011025", "josm_url": "http://127.0.0.1:8111/load_object?new_layer=false&objects=n9789011025", "id_url": "https://www.openstreetmap.org/edit?editor=id&node=9789011025#map=20/45.4442773/9.1764546"}}, {"type": "Feature", "geometry": {"type": "Point", "coordinates": [9.1165889, 45.4948552]}, "properties": {"id": 10113528048, "feat_type": "node", "quality_categories": "improper_keys", "issue_ids": "[0]", "osm_url": "https://www.openstreetmap.org/node/10113528048", "josm_url": "http://127.0.0.1:8111/load_object?new_layer=false&objects=n10113528048", "id_url": "https://www.openstreetmap.org/edit?editor=id&node=10113528048#map=20/45.4948552/9.1165889"}}, {"type": "Feature", "geometry": {"type": "Point", "coordinates": [9.1164408, 45.4946874]}, "properties": {"id": 10113528049, "feat_type": "node", "quality_categories": "improper_keys", "issue_ids": "[0]", "osm_url": "https://www.openstreetmap.org/node/10113528049", "josm_url": "http://127.0.0.1:8111/load_object?new_layer=false&objects=n10113528049", "id_url": "https://www.openstreetmap.org/edit?editor=id&node=10113528049#map=20/45.4946874/9.1164408"}}, {"type": "Feature", "geometry": {"type": "Point", "coordinates": [9.168495, 45.424969]}, "properties": {"id": 10173710474, "feat_type": "node", "quality_categories": "improper_keys, kerb_on_top_of_non_crossing", "issue_ids": "[5, 1]", "osm_url": "https://www.openstreetmap.org/node/10173710474", "josm_url": "http://127.0.0.1:8111/load_object?new_layer=false&objects=n10173710474", "id_url": "https://www.openstreetmap.org/edit?editor=id&node=10173710474#map=20/45.424969/9.168495"}}, {"type": "Feature", "geometry": {"type": "Point", "coordinates": [9.2122656, 45.5134769]}, "properties": {"id": 10255830376, "feat_type": "node", "quality_categories": "improper_keys, uncanny_keys", "issue_ids": "[2, 3]", "osm_url": "https://www.openstreetmap.org/node/10255830376", "josm_url": "http://127.0.0.1:8111/load_object?new_layer=false&objects=n10255830376", "id_url": "https://www.openstreetmap.org/edit?editor=id&node=10255830376#map=20/45.5134769/9.2122656"}}, {"type": "Feature", "geometry": {"type": "Point", "coordinates": [9.2324138, 45.5046636]}, "properties": {"id": 10994352062, "feat_type": "node", "quality_categories": "improper_keys", "issue_ids": "[0]", "osm_url": "https://www.openstreetmap.org/node/10994352062", "josm_url": "http://127.0.0.1:8111/load_object?new_layer=false&objects=n10994352062", "id_url": "https://www.openstreetmap.org/edit?editor=id&node=10994352062#map=20/45.5046636/9.2324138"}}, {"type": "Feature", "geometry": {"type": "Point", "coordinates": [9.18334, 45.432918]}, "properties": {"id": 11158695650, "feat_type": "node", "quality_categories": "improper_keys, uncanny_keys", "issue_ids": "[2, 4]", "osm_url": "https://www.openstreetmap.org/node/11158695650", "josm_url": "http://127.0.0.1:8111/load_object?new_layer=false&objects=n11158695650", "id_url": "https://www.openstreetmap.org/edit?editor=id&node=11158695650#map=20/45.432918/9.18334"}}, {"type": "Feature", "geometry": {"type": "Point", "coordinates": [9.1945626, 45.4611752]}, "properties": {"id": 11300134243, "feat_type": "node", "quality_categories": "improper_keys, kerb_on_top_of_non_crossing", "issue_ids": "[0, 1]", "osm_url": "https://www.openstreetmap.org/node/11300134243", "josm_url": "http://127.0.0.1:8111/load_object?new_layer=false&objects=n11300134243", "id_url": "https://www.openstreetmap.org/edit?editor=id&node=11300134243#map=20/45.4611752/9.1945626"}}, {"type": "Feature", "geometry": {"type": "Point", "coordinates": [9.2126715, 45.5020444]}, "properties": {"id": 11747830824, "feat_type": "node", "quality_categories": "disjointed_geometries, improper_keys", "issue_ids": "[0, 11]", "osm_url": "https://www.openstreetmap.org/node/11747830824", "josm_url": "http://127.0.0.1:8111/load_object?new_layer=false&objects=n11747830824", "id_url": "https://www.openstreetmap.org/edit?editor=id&node=11747830824#map=20/45.5020444/9.2126715"}}, {"type": "Feature", "geometry": {"type": "Point", "coordinates": [9.2127332, 45.5022678]}, "properties": {"id": 11747830825, "feat_type": "node", "quality_categories": "disjointed_geometries, improper_keys", "issue_ids": "[0, 11]", "osm_url": "https://www.openstreetmap.org/node/11747830825", "josm_url": "http://127.0.0.1:8111/load_object?new_layer=false&objects=n11747830825", "id_url": "https://www.openstreetmap.org/edit?editor=id&node=11747830825#map=20/45.5022678/9.2127332"}}, {"type": "Feature", "geometry": {"type": "Point", "coordinates": [9.2126184, 45.5018701]}, "properties": {"id": 11747844234, "feat_type": "node", "quality_categories": "disjointed_geometries, improper_keys", "issue_ids": "[0, 11]", "osm_url": "https://www.openstreetmap.org/node/11747844234", "josm_url": "http://127.0.0.1:8111/load_object?new_layer=false&objects=n11747844234", "id_url": "https://www.openstreetmap.org/edit?editor=id&node=11747844234#map=20/45.5018701/9.2126184"}}, {"type": "Feature", "geometry": {"type": "Point", "coordinates": [9.1979664, 45.4658832]}, "properties": {"id": 12259301969, "feat_type": "node", "quality_categories": "improper_keys, kerb_on_top_of_non_crossing", "issue_ids": "[0, 1]", "osm_url": "https://www.openstreetmap.org/node/12259301969", "josm_url": "http://127.0.0.1:8111/load_object?new_layer=false&objects=n12259301969", "id_url": "https://www.openstreetmap.org/edit?editor=id&node=12259301969#map=20/45.4658832/9.1979664"}}, {"type": "Feature", "geometry": {"type": "Point", "coordinates": [9.1962255, 45.4640189]}, "properties": {"id": 12259301972, "feat_type": "node", "quality_categories": "improper_keys", "issue_ids": "[0]", "osm_url": "https://www.openstreetmap.org/node/12259301972", "josm_url": "http://127.0.0.1:8111/load_object?new_layer=false&objects=n12259301972", "id_url": "https://www.openstreetmap.org/edit?editor=id&node=12259301972#map=20/45.4640189/9.1962255"}}, {"type": "Feature", "geometry": {"type": "Point", "coordinates": [9.1331875, 45.4540633]}, "properties": {"id": 12422141752, "feat_type": "node", "quality_categories": "improper_keys", "issue_ids": "[0]", "osm_url": "https://www.openstreetmap.org/node/12422141752", "josm_url": "http://127.0.0.1:8111/load_object?new_layer=false&objects=n12422141752", "id_url": "https://www.openstreetmap.org/edit?editor=id&node=12422141752#map=20/45.4540633/9.1331875"}}, {"type": "Feature", "geometry": {"type": "Point", "coordinates": [9.2256168, 45.4641583]}, "properties": {"id": 12473515441, "feat_type": "node", "quality_categories": "improper_keys", "issue_ids": "[5]", "osm_url": "https://www.openstreetmap.org/node/12473515441", "josm_url": "http://127.0.0.1:8111/load_object?new_layer=false&objects=n12473515441", "id_url": "https://www.openstreetmap.org/edit?editor=id&node=12473515441#map=20/45.4641583/9.2256168"}}, {"type": "Feature", "geometry": {"type": "Point", "coordinates": [9.2435659, 45.4384656]}, "properties": {"id": 12672779095, "feat_type": "node", "quality_categories": "improper_keys, kerb_on_top_of_non_crossing", "issue_ids": "[0, 1]", "osm_url": "https://www.openstreetmap.org/node/12672779095", "josm_url": "http://127.0.0.1:8111/load_object?new_layer=false&objects=n12672779095", "id_url": "https://www.openstreetmap.org/edit?editor=id&node=12672779095#map=20/45.4384656/9.2435659"}}, {"type": "Feature", "geometry": {"type": "Point", "coordinates": [9.1221069, 45.5043652]}, "properties": {"id": 13045743200, "feat_type": "node", "quality_categories": "improper_keys, kerb_on_top_of_non_crossing", "issue_ids": "[0, 1]", "osm_url": "https://www.openstreetmap.org/node/13045743200", "josm_url": "http://127.0.0.1:8111/load_object?new_layer=false&objects=n13045743200", "id_url": "https://www.openstreetmap.org/edit?editor=id&node=13045743200#map=20/45.5043652/9.1221069"}}, {"type": "Feature", "geometry": {"type": "Point", "coordinates": [9.1217735, 45.5048018]}, "properties": {"id": 13045835001, "feat_type": "node", "quality_categories": "improper_keys, kerb_on_top_of_non_crossing", "issue_ids": "[0, 1]", "osm_url": "https://www.openstreetmap.org/node/13045835001", "josm_url": "http://127.0.0.1:8111/load_object?new_layer=false&objects=n13045835001", "id_url": "https://www.openstreetmap.org/edit?editor=id&node=13045835001#map=20/45.5048018/9.1217735"}}, {"type": "Feature", "geometry": {"type": "Point", "coordinates": [9.2262401, 45.507795]}, "properties": {"id": 13052283224, "feat_type": "node", "quality_categories": "improper_keys, kerb_on_top_of_non_crossing", "issue_ids": "[10, 1]", "osm_url": "https://www.openstreetmap.org/node/13052283224", "josm_url": "http://127.0.0.1:8111/load_object?new_layer=false&objects=n13052283224", "id_url": "https://www.openstreetmap.org/edit?editor=id&node=13052283224#map=20/45.507795/9.2262401"}}, {"type": "Feature", "geometry": {"type": "Point", "coordinates": [9.1004295, 45.5080938]}, "properties": {"id": 13150600018, "feat_type": "node", "quality_categories": "improper_keys", "issue_ids": "[0]", "osm_url": "https://www.openstreetmap.org/node/13150600018", "josm_url": "http://127.0.0.1:8111/load_object?new_layer=false&objects=n13150600018", "id_url": "https://www.openstreetmap.org/edit?editor=id&node=13150600018#map=20/45.5080938/9.1004295"}}, {"type": "Feature", "geometry": {"type": "Point", "coordinates": [9.1997644, 45.4922586]}, "properties": {"id": 13289285882, "feat_type": "node", "quality_categories": "improper_keys", "issue_ids": "[0]", "osm_url": "https://www.openstreetmap.org/node/13289285882", "josm_url": "http://127.0.0.1:8111/load_object?new_layer=false&objects=n13289285882", "id_url": "https://www.openstreetmap.org/edit?editor=id&node=13289285882#map=20/45.4922586/9.1997644"}}, {"type": "Feature", "geometry": {"type": "Point", "coordinates": [9.1999837, 45.4921644]}, "properties": {"id": 13289285883, "feat_type": "node", "quality_categories": "improper_keys", "issue_ids": "[0]", "osm_url": "https://www.openstreetmap.org/node/13289285883", "josm_url": "http://127.0.0.1:8111/load_object?new_layer=false&objects=n13289285883", "id_url": "https://www.openstreetmap.org/edit?editor=id&node=13289285883#map=20/45.4921644/9.1999837"}}, {"type": "Feature", "geometry": {"type": "Point", "coordinates": [9.1764967, 45.4442095]}, "properties": {"id": 13298318803, "feat_type": "node", "quality_categories": "improper_keys, kerb_on_top_of_non_crossing", "issue_ids": "[0, 1]", "osm_url": "https://www.openstreetmap.org/node/13298318803", "josm_url": "http://127.0.0.1:8111/load_object?new_layer=false&objects=n13298318803", "id_url": "https://www.openstreetmap.org/edit?editor=id&node=13298318803#map=20/45.4442095/9.1764967"}}, {"type": "Feature", "geometry": {"type": "Point", "coordinates": [9.1976459, 45.4654948]}, "properties": {"id": 13362754851, "feat_type": "node", "quality_categories": "improper_keys, kerb_on_top_of_non_crossing", "issue_ids": "[0, 1]", "osm_url": "https://www.openstreetmap.org/node/13362754851", "josm_url": "http://127.0.0.1:8111/load_object?new_layer=false&objects=n13362754851", "id_url": "https://www.openstreetmap.org/edit?editor=id&node=13362754851#map=20/45.4654948/9.1976459"}}, {"type": "Feature", "geometry": {"type": "Point", "coordinates": [9.1976844, 45.4655389]}, "properties": {"id": 13362754852, "feat_type": "node", "quality_categories": "improper_keys, kerb_on_top_of_non_crossing", "issue_ids": "[0, 1]", "osm_url": "https://www.openstreetmap.org/node/13362754852", "josm_url": "http://127.0.0.1:8111/load_object?new_layer=false&objects=n13362754852", "id_url": "https://www.openstreetmap.org/edit?editor=id&node=13362754852#map=20/45.4655389/9.1976844"}}, {"type": "Feature", "geometry": {"type": "Point", "coordinates": [9.1590457, 45.4351563]}, "properties": {"id": 13621061184, "feat_type": "node", "quality_categories": "disjointed_geometries, improper_keys", "issue_ids": "[0, 11]", "osm_url": "https://www.openstreetmap.org/node/13621061184", "josm_url": "http://127.0.0.1:8111/load_object?new_layer=false&objects=n13621061184", "id_url": "https://www.openstreetmap.org/edit?editor=id&node=13621061184#map=20/45.4351563/9.1590457"}}, {"type": "Feature", "geometry": {"type": "Point", "coordinates": [9.1960548, 45.4639335]}, "properties": {"id": 13629451086, "feat_type": "node", "quality_categories": "improper_keys, kerb_on_top_of_non_crossing", "issue_ids": "[0, 1]", "osm_url": "https://www.openstreetmap.org/node/13629451086", "josm_url": "http://127.0.0.1:8111/load_object?new_layer=false&objects=n13629451086", "id_url": "https://www.openstreetmap.org/edit?editor=id&node=13629451086#map=20/45.4639335/9.1960548"}}, {"type": "Feature", "geometry": {"type": "Point", "coordinates": [9.2344561, 45.4778145]}, "properties": {"id": 13793719317, "feat_type": "node", "quality_categories": "improper_keys, kerb_on_top_of_non_crossing", "issue_ids": "[10, 1]", "osm_url": "https://www.openstreetmap.org/node/13793719317", "josm_url": "http://127.0.0.1:8111/load_object?new_layer=false&objects=n13793719317", "id_url": "https://www.openstreetmap.org/edit?editor=id&node=13793719317#map=20/45.4778145/9.2344561"}}, {"type": "Feature", "geometry": {"type": "Point", "coordinates": [9.2408814, 45.4938818]}, "properties": {"id": 13983577025, "feat_type": "node", "quality_categories": "improper_keys, kerb_on_top_of_non_crossing", "issue_ids": "[0, 1]", "osm_url": "https://www.openstreetmap.org/node/13983577025", "josm_url": "http://127.0.0.1:8111/load_object?new_layer=false&objects=n13983577025", "id_url": "https://www.openstreetmap.org/edit?editor=id&node=13983577025#map=20/45.4938818/9.2408814"}}, {"type": "Feature", "geometry": {"type": "Point", "coordinates": [9.1367136, 45.4657425]}, "properties": {"id": 318131311, "feat_type": "way", "quality_categories": "improper_geometries, improper_keys", "issue_ids": "[0, 12]", "osm_url": "https://www.openstreetmap.org/way/318131311", "josm_url": "http://127.0.0.1:8111/load_object?new_layer=false&objects=w318131311", "id_url": "https://www.openstreetmap.org/edit?editor=id&way=318131311#map=20/45.4657425/9.1367136"}}, {"type": "Feature", "geometry": {"type": "Point", "coordinates": [9.1817004, 45.4785621]}, "properties": {"id": 498384999, "feat_type": "way", "quality_categories": "improper_geometries, improper_keys", "issue_ids": "[0, 12]", "osm_url": "https://www.openstreetmap.org/way/498384999", "josm_url": "http://127.0.0.1:8111/load_object?new_layer=false&objects=w498384999", "id_url": "https://www.openstreetmap.org/edit?editor=id&way=498384999#map=20/45.4785621/9.1817004"}}, {"type": "Feature", "geometry": {"type": "Point", "coordinates": [9.2301849, 45.4769228]}, "properties": {"id": 609331125, "feat_type": "way", "quality_categories": "improper_geometries, improper_keys", "issue_ids": "[2, 12]", "osm_url": "https://www.openstreetmap.org/way/609331125", "josm_url": "http://127.0.0.1:8111/load_object?new_layer=false&objects=w609331125", "id_url": "https://www.openstreetmap.org/edit?editor=id&way=609331125#map=20/45.4769228/9.2301849"}}, {"type": "Feature", "geometry": {"type": "Point", "coordinates": [9.2299109, 45.4769223]}, "properties": {"id": 609331127, "feat_type": "way", "quality_categories": "improper_geometries, improper_keys", "issue_ids": "[2, 12]", "osm_url": "https://www.openstreetmap.org/way/609331127", "josm_url": "http://127.0.0.1:8111/load_object?new_layer=false&objects=w609331127", "id_url": "https://www.openstreetmap.org/edit?editor=id&way=609331127#map=20/45.4769223/9.2299109"}}, {"type": "Feature", "geometry": {"type": "Point", "coordinates": [9.2300452, 45.4768278]}, "properties": {"id": 609331130, "feat_type": "way", "quality_categories": "improper_geometries, improper_keys", "issue_ids": "[2, 12]", "osm_url": "https://www.openstreetmap.org/way/609331130", "josm_url": "http://127.0.0.1:8111/load_object?new_layer=false&objects=w609331130", "id_url": "https://www.openstreetmap.org/edit?editor=id&way=609331130#map=20/45.4768278/9.2300452"}}, {"type": "Feature", "geometry": {"type": "Point", "coordinates": [9.1464841, 45.5013838]}, "properties": {"id": 629116476, "feat_type": "way", "quality_categories": "improper_geometries, improper_keys", "issue_ids": "[0, 12]", "osm_url": "https://www.openstreetmap.org/way/629116476", "josm_url": "http://127.0.0.1:8111/load_object?new_layer=false&objects=w629116476", "id_url": "https://www.openstreetmap.org/edit?editor=id&way=629116476#map=20/45.5013838/9.1464841"}}, {"type": "Feature", "geometry": {"type": "Point", "coordinates": [9.1474795, 45.5000667]}, "properties": {"id": 629915717, "feat_type": "way", "quality_categories": "improper_geometries, improper_keys", "issue_ids": "[0, 12]", "osm_url": "https://www.openstreetmap.org/way/629915717", "josm_url": "http://127.0.0.1:8111/load_object?new_layer=false&objects=w629915717", "id_url": "https://www.openstreetmap.org/edit?editor=id&way=629915717#map=20/45.5000667/9.1474795"}}, {"type": "Feature", "geometry": {"type": "Point", "coordinates": [9.2211829, 45.4896169]}, "properties": {"id": 1092855380, "feat_type": "way", "quality_categories": "improper_geometries, improper_keys", "issue_ids": "[13, 12]", "osm_url": "https://www.openstreetmap.org/way/1092855380", "josm_url": "http://127.0.0.1:8111/load_object?new_layer=false&objects=w1092855380", "id_url": "https://www.openstreetmap.org/edit?editor=id&way=1092855380#map=20/45.4896169/9.2211829"}}, {"type": "Feature", "geometry": {"type": "Point", "coordinates": [9.2227169, 45.4906408]}, "properties": {"id": 1092864557, "feat_type": "way", "quality_categories": "improper_geometries, improper_keys", "issue_ids": "[14, 12]", "osm_url": "https://www.openstreetmap.org/way/1092864557", "josm_url": "http://127.0.0.1:8111/load_object?new_layer=false&objects=w1092864557", "id_url": "https://www.openstreetmap.org/edit?editor=id&way=1092864557#map=20/45.4906408/9.2227169"}}]}