{"type": "FeatureCollection", "features": [{"type": "Feature", "geometry": {"type": "Point", "coordinates": [-49.2331557, -25.4576368]}, "properties": {"id": 8842953120, "feat_type": "node", "quality_categories": "invalid_characters, wrong_mispelled_or_unlisted_values", "issue_ids": "[0, 1]", "osm_url": "https://www.openstreetmap.org/node/8842953120", "josm_url": "http://127.0.0.1:8111/load_object?new_layer=false&objects=n8842953120", "id_url": "https://www.openstreetmap.org/edit?editor=id&node=8842953120#map=20/-25.4576368/-49.2331557"}}, {"type": "Feature", "geometry": {"type": "Point", "coordinates": [-49.2329039, -25.4551751]}, "properties": {"id": 1070027466, "feat_type": "way", "quality_categories": "improper_geometries, invalid_characters, wrong_mispelled_or_unlisted_values", "issue_ids": "[2, 3, 4]", "osm_url": "https://www.openstreetmap.org/way/1070027466", "josm_url": "http://127.0.0.1:8111/load_object?new_layer=false&objects=w1070027466", "id_url": "https://www.openstreetmap.org/edit?editor=id&way=1070027466#map=20/-25.4551751/-49.2329039"}}, {"type": "Feature", "geometry": {"type": "Point", "coordinates": [-49.232292, -25.4553908]}, "properties": {"id": 1070027467, "feat_type": "way", "quality_categories": "improper_geometries, invalid_characters, wrong_mispelled_or_unlisted_values", "issue_ids": "[2, 3, 4]", "osm_url": "https://www.openstreetmap.org/way/1070027467", "josm_url": "http://127.0.0.1:8111/load_object?new_layer=false&objects=w1070027467", "id_url": "https://www.openstreetmap.org/edit?editor=id&way=1070027467#map=20/-25.4553908/-49.232292"}}]}