{"type": "FeatureCollection", "features": [{"type": "Feature", "geometry": {"type": "Point", "coordinates": [-49.3010235, -25.4642226]}, "properties": {"id": 4496710650, "feat_type": "node", "quality_categories": "improper_keys, kerb_on_top_of_non_crossing, older_than_five_years", "issue_ids": "[0, 1, 2]", "osm_url": "https://www.openstreetmap.org/node/4496710650", "josm_url": "http://127.0.0.1:8111/load_object?new_layer=false&objects=n4496710650", "id_url": "https://www.openstreetmap.org/edit?editor=id&node=4496710650#map=20/-25.4642226/-49.3010235"}}, {"type": "Feature", "geometry": {"type": "Point", "coordinates": [-49.3005858, -25.4642162]}, "properties": {"id": 4496710651, "feat_type": "node", "quality_categories": "improper_keys, kerb_on_top_of_non_crossing, older_than_five_years", "issue_ids": "[0, 3, 2]", "osm_url": "https://www.openstreetmap.org/node/4496710651", "josm_url": "http://127.0.0.1:8111/load_object?new_layer=false&objects=n4496710651", "id_url": "https://www.openstreetmap.org/edit?editor=id&node=4496710651#map=20/-25.4642162/-49.3005858"}}, {"type": "Feature", "geometry": {"type": "Point", "coordinates": [-49.2402757, -25.4531331]}, "properties": {"id": 8169120336, "feat_type": "node", "quality_categories": "kerb_on_top_of_non_crossing, older_than_five_years", "issue_ids": "[4, 2]", "osm_url": "https://www.openstreetmap.org/node/8169120336", "josm_url": "http://127.0.0.1:8111/load_object?new_layer=false&objects=n8169120336", "id_url": "https://www.openstreetmap.org/edit?editor=id&node=8169120336#map=20/-25.4531331/-49.2402757"}}, {"type": "Feature", "geometry": {"type": "Point", "coordinates": [-49.2402639, -25.4531935]}, "properties": {"id": 8169120337, "feat_type": "node", "quality_categories": "older_than_five_years", "issue_ids": "[5]", "osm_url": "https://www.openstreetmap.org/node/8169120337", "josm_url": "http://127.0.0.1:8111/load_object?new_layer=false&objects=n8169120337", "id_url": "https://www.openstreetmap.org/edit?editor=id&node=8169120337#map=20/-25.4531935/-49.2402639"}}, {"type": "Feature", "geometry": {"type": "Point", "coordinates": [-49.2296742, -25.4591453]}, "properties": {"id": 8813120857, "feat_type": "node", "quality_categories": "older_than_five_years", "issue_ids": "[6]", "osm_url": "https://www.openstreetmap.org/node/8813120857", "josm_url": "http://127.0.0.1:8111/load_object?new_layer=false&objects=n8813120857", "id_url": "https://www.openstreetmap.org/edit?editor=id&node=8813120857#map=20/-25.4591453/-49.2296742"}}, {"type": "Feature", "geometry": {"type": "Point", "coordinates": [-49.2292697, -25.4585886]}, "properties": {"id": 8813120877, "feat_type": "node", "quality_categories": "older_than_five_years", "issue_ids": "[6]", "osm_url": "https://www.openstreetmap.org/node/8813120877", "josm_url": "http://127.0.0.1:8111/load_object?new_layer=false&objects=n8813120877", "id_url": "https://www.openstreetmap.org/edit?editor=id&node=8813120877#map=20/-25.4585886/-49.2292697"}}, {"type": "Feature", "geometry": {"type": "Point", "coordinates": [-49.2293495, -25.4584733]}, "properties": {"id": 8813243748, "feat_type": "node", "quality_categories": "older_than_five_years", "issue_ids": "[6]", "osm_url": "https://www.openstreetmap.org/node/8813243748", "josm_url": "http://127.0.0.1:8111/load_object?new_layer=false&objects=n8813243748", "id_url": "https://www.openstreetmap.org/edit?editor=id&node=8813243748#map=20/-25.4584733/-49.2293495"}}, {"type": "Feature", "geometry": {"type": "Point", "coordinates": [-49.2305819, -25.4614299]}, "properties": {"id": 8822683953, "feat_type": "node", "quality_categories": "improper_keys, older_than_five_years", "issue_ids": "[7, 8]", "osm_url": "https://www.openstreetmap.org/node/8822683953", "josm_url": "http://127.0.0.1:8111/load_object?new_layer=false&objects=n8822683953", "id_url": "https://www.openstreetmap.org/edit?editor=id&node=8822683953#map=20/-25.4614299/-49.2305819"}}, {"type": "Feature", "geometry": {"type": "Point", "coordinates": [-49.2299414, -25.4606465]}, "properties": {"id": 8822683966, "feat_type": "node", "quality_categories": "improper_keys, older_than_five_years", "issue_ids": "[7, 8]", "osm_url": "https://www.openstreetmap.org/node/8822683966", "josm_url": "http://127.0.0.1:8111/load_object?new_layer=false&objects=n8822683966", "id_url": "https://www.openstreetmap.org/edit?editor=id&node=8822683966#map=20/-25.4606465/-49.2299414"}}, {"type": "Feature", "geometry": {"type": "Point", "coordinates": [-49.2300545, -25.4644559]}, "properties": {"id": 8822688572, "feat_type": "node", "quality_categories": "improper_keys, kerb_on_top_of_non_crossing, older_than_five_years", "issue_ids": "[7, 9, 2]", "osm_url": "https://www.openstreetmap.org/node/8822688572", "josm_url": "http://127.0.0.1:8111/load_object?new_layer=false&objects=n8822688572", "id_url": "https://www.openstreetmap.org/edit?editor=id&node=8822688572#map=20/-25.4644559/-49.2300545"}}, {"type": "Feature", "geometry": {"type": "Point", "coordinates": [-49.2271854, -25.4641274]}, "properties": {"id": 8822688897, "feat_type": "node", "quality_categories": "older_than_five_years", "issue_ids": "[10]", "osm_url": "https://www.openstreetmap.org/node/8822688897", "josm_url": "http://127.0.0.1:8111/load_object?new_layer=false&objects=n8822688897", "id_url": "https://www.openstreetmap.org/edit?editor=id&node=8822688897#map=20/-25.4641274/-49.2271854"}}, {"type": "Feature", "geometry": {"type": "Point", "coordinates": [-49.2267708, -25.4654844]}, "properties": {"id": 8822688899, "feat_type": "node", "quality_categories": "older_than_five_years", "issue_ids": "[10]", "osm_url": "https://www.openstreetmap.org/node/8822688899", "josm_url": "http://127.0.0.1:8111/load_object?new_layer=false&objects=n8822688899", "id_url": "https://www.openstreetmap.org/edit?editor=id&node=8822688899#map=20/-25.4654844/-49.2267708"}}, {"type": "Feature", "geometry": {"type": "Point", "coordinates": [-49.2267597, -25.4655395]}, "properties": {"id": 8822688901, "feat_type": "node", "quality_categories": "older_than_five_years", "issue_ids": "[10]", "osm_url": "https://www.openstreetmap.org/node/8822688901", "josm_url": "http://127.0.0.1:8111/load_object?new_layer=false&objects=n8822688901", "id_url": "https://www.openstreetmap.org/edit?editor=id&node=8822688901#map=20/-25.4655395/-49.2267597"}}, {"type": "Feature", "geometry": {"type": "Point", "coordinates": [-49.2268761, -25.4713351]}, "properties": {"id": 8837121680, "feat_type": "node", "quality_categories": "older_than_five_years", "issue_ids": "[8]", "osm_url": "https://www.openstreetmap.org/node/8837121680", "josm_url": "http://127.0.0.1:8111/load_object?new_layer=false&objects=n8837121680", "id_url": "https://www.openstreetmap.org/edit?editor=id&node=8837121680#map=20/-25.4713351/-49.2268761"}}, {"type": "Feature", "geometry": {"type": "Point", "coordinates": [-49.226934, -25.4713792]}, "properties": {"id": 8837121682, "feat_type": "node", "quality_categories": "older_than_five_years, wrong_mispelled_or_unlisted_values", "issue_ids": "[11, 8]", "osm_url": "https://www.openstreetmap.org/node/8837121682", "josm_url": "http://127.0.0.1:8111/load_object?new_layer=false&objects=n8837121682", "id_url": "https://www.openstreetmap.org/edit?editor=id&node=8837121682#map=20/-25.4713792/-49.226934"}}, {"type": "Feature", "geometry": {"type": "Point", "coordinates": [-49.2275257, -25.4705296]}, "properties": {"id": 8837121685, "feat_type": "node", "quality_categories": "older_than_five_years, wrong_mispelled_or_unlisted_values", "issue_ids": "[11, 8]", "osm_url": "https://www.openstreetmap.org/node/8837121685", "josm_url": "http://127.0.0.1:8111/load_object?new_layer=false&objects=n8837121685", "id_url": "https://www.openstreetmap.org/edit?editor=id&node=8837121685#map=20/-25.4705296/-49.2275257"}}, {"type": "Feature", "geometry": {"type": "Point", "coordinates": [-49.2274784, -25.4705032]}, "properties": {"id": 8837121687, "feat_type": "node", "quality_categories": "older_than_five_years, wrong_mispelled_or_unlisted_values", "issue_ids": "[11, 8]", "osm_url": "https://www.openstreetmap.org/node/8837121687", "josm_url": "http://127.0.0.1:8111/load_object?new_layer=false&objects=n8837121687", "id_url": "https://www.openstreetmap.org/edit?editor=id&node=8837121687#map=20/-25.4705032/-49.2274784"}}, {"type": "Feature", "geometry": {"type": "Point", "coordinates": [-49.2278984, -25.4720881]}, "properties": {"id": 8837125829, "feat_type": "node", "quality_categories": "older_than_five_years, wrong_mispelled_or_unlisted_values", "issue_ids": "[11, 8]", "osm_url": "https://www.openstreetmap.org/node/8837125829", "josm_url": "http://127.0.0.1:8111/load_object?new_layer=false&objects=n8837125829", "id_url": "https://www.openstreetmap.org/edit?editor=id&node=8837125829#map=20/-25.4720881/-49.2278984"}}, {"type": "Feature", "geometry": {"type": "Point", "coordinates": [-49.2279444, -25.4720312]}, "properties": {"id": 8837125831, "feat_type": "node", "quality_categories": "older_than_five_years, wrong_mispelled_or_unlisted_values", "issue_ids": "[11, 8]", "osm_url": "https://www.openstreetmap.org/node/8837125831", "josm_url": "http://127.0.0.1:8111/load_object?new_layer=false&objects=n8837125831", "id_url": "https://www.openstreetmap.org/edit?editor=id&node=8837125831#map=20/-25.4720312/-49.2279444"}}, {"type": "Feature", "geometry": {"type": "Point", "coordinates": [-49.2278076, -25.4721062]}, "properties": {"id": 8837125863, "feat_type": "node", "quality_categories": "older_than_five_years", "issue_ids": "[6]", "osm_url": "https://www.openstreetmap.org/node/8837125863", "josm_url": "http://127.0.0.1:8111/load_object?new_layer=false&objects=n8837125863", "id_url": "https://www.openstreetmap.org/edit?editor=id&node=8837125863#map=20/-25.4721062/-49.2278076"}}, {"type": "Feature", "geometry": {"type": "Point", "coordinates": [-49.2269136, -25.4714918]}, "properties": {"id": 8837125868, "feat_type": "node", "quality_categories": "older_than_five_years, wrong_mispelled_or_unlisted_values", "issue_ids": "[12, 8]", "osm_url": "https://www.openstreetmap.org/node/8837125868", "josm_url": "http://127.0.0.1:8111/load_object?new_layer=false&objects=n8837125868", "id_url": "https://www.openstreetmap.org/edit?editor=id&node=8837125868#map=20/-25.4714918/-49.2269136"}}, {"type": "Feature", "geometry": {"type": "Point", "coordinates": [-49.226949, -25.4714407]}, "properties": {"id": 8837125870, "feat_type": "node", "quality_categories": "older_than_five_years, wrong_mispelled_or_unlisted_values", "issue_ids": "[11, 8]", "osm_url": "https://www.openstreetmap.org/node/8837125870", "josm_url": "http://127.0.0.1:8111/load_object?new_layer=false&objects=n8837125870", "id_url": "https://www.openstreetmap.org/edit?editor=id&node=8837125870#map=20/-25.4714407/-49.226949"}}, {"type": "Feature", "geometry": {"type": "Point", "coordinates": [-49.2239932, -25.4664818]}, "properties": {"id": 8839956678, "feat_type": "node", "quality_categories": "older_than_five_years", "issue_ids": "[13]", "osm_url": "https://www.openstreetmap.org/node/8839956678", "josm_url": "http://127.0.0.1:8111/load_object?new_layer=false&objects=n8839956678", "id_url": "https://www.openstreetmap.org/edit?editor=id&node=8839956678#map=20/-25.4664818/-49.2239932"}}, {"type": "Feature", "geometry": {"type": "Point", "coordinates": [-49.2239154, -25.4665931]}, "properties": {"id": 8839956680, "feat_type": "node", "quality_categories": "older_than_five_years", "issue_ids": "[13]", "osm_url": "https://www.openstreetmap.org/node/8839956680", "josm_url": "http://127.0.0.1:8111/load_object?new_layer=false&objects=n8839956680", "id_url": "https://www.openstreetmap.org/edit?editor=id&node=8839956680#map=20/-25.4665931/-49.2239154"}}, {"type": "Feature", "geometry": {"type": "Point", "coordinates": [-49.2238324, -25.4665735]}, "properties": {"id": 8839956682, "feat_type": "node", "quality_categories": "older_than_five_years", "issue_ids": "[13]", "osm_url": "https://www.openstreetmap.org/node/8839956682", "josm_url": "http://127.0.0.1:8111/load_object?new_layer=false&objects=n8839956682", "id_url": "https://www.openstreetmap.org/edit?editor=id&node=8839956682#map=20/-25.4665735/-49.2238324"}}, {"type": "Feature", "geometry": {"type": "Point", "coordinates": [-49.223965, -25.4664295]}, "properties": {"id": 8839956684, "feat_type": "node", "quality_categories": "older_than_five_years", "issue_ids": "[13]", "osm_url": "https://www.openstreetmap.org/node/8839956684", "josm_url": "http://127.0.0.1:8111/load_object?new_layer=false&objects=n8839956684", "id_url": "https://www.openstreetmap.org/edit?editor=id&node=8839956684#map=20/-25.4664295/-49.223965"}}, {"type": "Feature", "geometry": {"type": "Point", "coordinates": [-49.2237836, -25.4664904]}, "properties": {"id": 8839956688, "feat_type": "node", "quality_categories": "older_than_five_years", "issue_ids": "[13]", "osm_url": "https://www.openstreetmap.org/node/8839956688", "josm_url": "http://127.0.0.1:8111/load_object?new_layer=false&objects=n8839956688", "id_url": "https://www.openstreetmap.org/edit?editor=id&node=8839956688#map=20/-25.4664904/-49.2237836"}}, {"type": "Feature", "geometry": {"type": "Point", "coordinates": [-49.2237974, -25.4664432]}, "properties": {"id": 8839956690, "feat_type": "node", "quality_categories": "older_than_five_years", "issue_ids": "[13]", "osm_url": "https://www.openstreetmap.org/node/8839956690", "josm_url": "http://127.0.0.1:8111/load_object?new_layer=false&objects=n8839956690", "id_url": "https://www.openstreetmap.org/edit?editor=id&node=8839956690#map=20/-25.4664432/-49.2237974"}}, {"type": "Feature", "geometry": {"type": "Point", "coordinates": [-49.2292674, -25.4624656]}, "properties": {"id": 8842893496, "feat_type": "node", "quality_categories": "improper_keys, older_than_five_years", "issue_ids": "[7, 8]", "osm_url": "https://www.openstreetmap.org/node/8842893496", "josm_url": "http://127.0.0.1:8111/load_object?new_layer=false&objects=n8842893496", "id_url": "https://www.openstreetmap.org/edit?editor=id&node=8842893496#map=20/-25.4624656/-49.2292674"}}, {"type": "Feature", "geometry": {"type": "Point", "coordinates": [-49.2291636, -25.4608931]}, "properties": {"id": 8842893501, "feat_type": "node", "quality_categories": "improper_keys, older_than_five_years", "issue_ids": "[7, 8]", "osm_url": "https://www.openstreetmap.org/node/8842893501", "josm_url": "http://127.0.0.1:8111/load_object?new_layer=false&objects=n8842893501", "id_url": "https://www.openstreetmap.org/edit?editor=id&node=8842893501#map=20/-25.4608931/-49.2291636"}}, {"type": "Feature", "geometry": {"type": "Point", "coordinates": [-49.2290828, -25.460913]}, "properties": {"id": 8842893503, "feat_type": "node", "quality_categories": "improper_keys, older_than_five_years", "issue_ids": "[7, 8]", "osm_url": "https://www.openstreetmap.org/node/8842893503", "josm_url": "http://127.0.0.1:8111/load_object?new_layer=false&objects=n8842893503", "id_url": "https://www.openstreetmap.org/edit?editor=id&node=8842893503#map=20/-25.460913/-49.2290828"}}, {"type": "Feature", "geometry": {"type": "Point", "coordinates": [-49.2291269, -25.4625344]}, "properties": {"id": 8842893511, "feat_type": "node", "quality_categories": "improper_keys, older_than_five_years", "issue_ids": "[7, 8]", "osm_url": "https://www.openstreetmap.org/node/8842893511", "josm_url": "http://127.0.0.1:8111/load_object?new_layer=false&objects=n8842893511", "id_url": "https://www.openstreetmap.org/edit?editor=id&node=8842893511#map=20/-25.4625344/-49.2291269"}}, {"type": "Feature", "geometry": {"type": "Point", "coordinates": [-49.2291266, -25.4626052]}, "properties": {"id": 8842893513, "feat_type": "node", "quality_categories": "improper_keys, older_than_five_years", "issue_ids": "[7, 9]", "osm_url": "https://www.openstreetmap.org/node/8842893513", "josm_url": "http://127.0.0.1:8111/load_object?new_layer=false&objects=n8842893513", "id_url": "https://www.openstreetmap.org/edit?editor=id&node=8842893513#map=20/-25.4626052/-49.2291266"}}, {"type": "Feature", "geometry": {"type": "Point", "coordinates": [-49.2284924, -25.4625698]}, "properties": {"id": 8842893516, "feat_type": "node", "quality_categories": "improper_keys, older_than_five_years", "issue_ids": "[7, 8]", "osm_url": "https://www.openstreetmap.org/node/8842893516", "josm_url": "http://127.0.0.1:8111/load_object?new_layer=false&objects=n8842893516", "id_url": "https://www.openstreetmap.org/edit?editor=id&node=8842893516#map=20/-25.4625698/-49.2284924"}}, {"type": "Feature", "geometry": {"type": "Point", "coordinates": [-49.2284083, -25.4625078]}, "properties": {"id": 8842904521, "feat_type": "node", "quality_categories": "improper_keys, older_than_five_years", "issue_ids": "[7, 8]", "osm_url": "https://www.openstreetmap.org/node/8842904521", "josm_url": "http://127.0.0.1:8111/load_object?new_layer=false&objects=n8842904521", "id_url": "https://www.openstreetmap.org/edit?editor=id&node=8842904521#map=20/-25.4625078/-49.2284083"}}, {"type": "Feature", "geometry": {"type": "Point", "coordinates": [-49.2283667, -25.4618502]}, "properties": {"id": 8842904526, "feat_type": "node", "quality_categories": "improper_keys, older_than_five_years", "issue_ids": "[7, 8]", "osm_url": "https://www.openstreetmap.org/node/8842904526", "josm_url": "http://127.0.0.1:8111/load_object?new_layer=false&objects=n8842904526", "id_url": "https://www.openstreetmap.org/edit?editor=id&node=8842904526#map=20/-25.4618502/-49.2283667"}}, {"type": "Feature", "geometry": {"type": "Point", "coordinates": [-49.2284053, -25.4610797]}, "properties": {"id": 8842904531, "feat_type": "node", "quality_categories": "improper_keys, older_than_five_years", "issue_ids": "[7, 8]", "osm_url": "https://www.openstreetmap.org/node/8842904531", "josm_url": "http://127.0.0.1:8111/load_object?new_layer=false&objects=n8842904531", "id_url": "https://www.openstreetmap.org/edit?editor=id&node=8842904531#map=20/-25.4610797/-49.2284053"}}, {"type": "Feature", "geometry": {"type": "Point", "coordinates": [-49.2292798, -25.4626961]}, "properties": {"id": 8842904551, "feat_type": "node", "quality_categories": "improper_keys, older_than_five_years", "issue_ids": "[7, 9]", "osm_url": "https://www.openstreetmap.org/node/8842904551", "josm_url": "http://127.0.0.1:8111/load_object?new_layer=false&objects=n8842904551", "id_url": "https://www.openstreetmap.org/edit?editor=id&node=8842904551#map=20/-25.4626961/-49.2292798"}}, {"type": "Feature", "geometry": {"type": "Point", "coordinates": [-49.229212, -25.4627019]}, "properties": {"id": 8842904553, "feat_type": "node", "quality_categories": "improper_keys, older_than_five_years", "issue_ids": "[7, 9]", "osm_url": "https://www.openstreetmap.org/node/8842904553", "josm_url": "http://127.0.0.1:8111/load_object?new_layer=false&objects=n8842904553", "id_url": "https://www.openstreetmap.org/edit?editor=id&node=8842904553#map=20/-25.4627019/-49.229212"}}, {"type": "Feature", "geometry": {"type": "Point", "coordinates": [-49.2293839, -25.4625861]}, "properties": {"id": 8842904556, "feat_type": "node", "quality_categories": "improper_keys, older_than_five_years", "issue_ids": "[7, 9]", "osm_url": "https://www.openstreetmap.org/node/8842904556", "josm_url": "http://127.0.0.1:8111/load_object?new_layer=false&objects=n8842904556", "id_url": "https://www.openstreetmap.org/edit?editor=id&node=8842904556#map=20/-25.4625861/-49.2293839"}}, {"type": "Feature", "geometry": {"type": "Point", "coordinates": [-49.2293783, -25.4625265]}, "properties": {"id": 8842904558, "feat_type": "node", "quality_categories": "improper_keys, older_than_five_years", "issue_ids": "[7, 8]", "osm_url": "https://www.openstreetmap.org/node/8842904558", "josm_url": "http://127.0.0.1:8111/load_object?new_layer=false&objects=n8842904558", "id_url": "https://www.openstreetmap.org/edit?editor=id&node=8842904558#map=20/-25.4625265/-49.2293783"}}, {"type": "Feature", "geometry": {"type": "Point", "coordinates": [-49.2284255, -25.4627463]}, "properties": {"id": 8842904561, "feat_type": "node", "quality_categories": "improper_keys, older_than_five_years", "issue_ids": "[7, 9]", "osm_url": "https://www.openstreetmap.org/node/8842904561", "josm_url": "http://127.0.0.1:8111/load_object?new_layer=false&objects=n8842904561", "id_url": "https://www.openstreetmap.org/edit?editor=id&node=8842904561#map=20/-25.4627463/-49.2284255"}}, {"type": "Feature", "geometry": {"type": "Point", "coordinates": [-49.2266527, -25.4632318]}, "properties": {"id": 8846406928, "feat_type": "node", "quality_categories": "older_than_five_years", "issue_ids": "[14]", "osm_url": "https://www.openstreetmap.org/node/8846406928", "josm_url": "http://127.0.0.1:8111/load_object?new_layer=false&objects=n8846406928", "id_url": "https://www.openstreetmap.org/edit?editor=id&node=8846406928#map=20/-25.4632318/-49.2266527"}}, {"type": "Feature", "geometry": {"type": "Point", "coordinates": [-49.2266041, -25.4632219]}, "properties": {"id": 8846406930, "feat_type": "node", "quality_categories": "older_than_five_years", "issue_ids": "[14]", "osm_url": "https://www.openstreetmap.org/node/8846406930", "josm_url": "http://127.0.0.1:8111/load_object?new_layer=false&objects=n8846406930", "id_url": "https://www.openstreetmap.org/edit?editor=id&node=8846406930#map=20/-25.4632219/-49.2266041"}}, {"type": "Feature", "geometry": {"type": "Point", "coordinates": [-49.2266863, -25.4632739]}, "properties": {"id": 8846406932, "feat_type": "node", "quality_categories": "older_than_five_years", "issue_ids": "[14]", "osm_url": "https://www.openstreetmap.org/node/8846406932", "josm_url": "http://127.0.0.1:8111/load_object?new_layer=false&objects=n8846406932", "id_url": "https://www.openstreetmap.org/edit?editor=id&node=8846406932#map=20/-25.4632739/-49.2266863"}}, {"type": "Feature", "geometry": {"type": "Point", "coordinates": [-49.2257939, -25.4630285]}, "properties": {"id": 8846406944, "feat_type": "node", "quality_categories": "older_than_five_years", "issue_ids": "[14]", "osm_url": "https://www.openstreetmap.org/node/8846406944", "josm_url": "http://127.0.0.1:8111/load_object?new_layer=false&objects=n8846406944", "id_url": "https://www.openstreetmap.org/edit?editor=id&node=8846406944#map=20/-25.4630285/-49.2257939"}}, {"type": "Feature", "geometry": {"type": "Point", "coordinates": [-49.2274919, -25.4633984]}, "properties": {"id": 8846406962, "feat_type": "node", "quality_categories": "older_than_five_years", "issue_ids": "[10]", "osm_url": "https://www.openstreetmap.org/node/8846406962", "josm_url": "http://127.0.0.1:8111/load_object?new_layer=false&objects=n8846406962", "id_url": "https://www.openstreetmap.org/edit?editor=id&node=8846406962#map=20/-25.4633984/-49.2274919"}}, {"type": "Feature", "geometry": {"type": "Point", "coordinates": [-49.2270349, -25.4615984]}, "properties": {"id": 8846406965, "feat_type": "node", "quality_categories": "older_than_five_years", "issue_ids": "[14]", "osm_url": "https://www.openstreetmap.org/node/8846406965", "josm_url": "http://127.0.0.1:8111/load_object?new_layer=false&objects=n8846406965", "id_url": "https://www.openstreetmap.org/edit?editor=id&node=8846406965#map=20/-25.4615984/-49.2270349"}}, {"type": "Feature", "geometry": {"type": "Point", "coordinates": [-49.2271065, -25.4616133]}, "properties": {"id": 8846406967, "feat_type": "node", "quality_categories": "older_than_five_years, wrong_mispelled_or_unlisted_values", "issue_ids": "[15, 14]", "osm_url": "https://www.openstreetmap.org/node/8846406967", "josm_url": "http://127.0.0.1:8111/load_object?new_layer=false&objects=n8846406967", "id_url": "https://www.openstreetmap.org/edit?editor=id&node=8846406967#map=20/-25.4616133/-49.2271065"}}, {"type": "Feature", "geometry": {"type": "Point", "coordinates": [-49.2262808, -25.4614044]}, "properties": {"id": 8863679669, "feat_type": "node", "quality_categories": "kerb_on_top_of_non_crossing, older_than_five_years", "issue_ids": "[14, 2]", "osm_url": "https://www.openstreetmap.org/node/8863679669", "josm_url": "http://127.0.0.1:8111/load_object?new_layer=false&objects=n8863679669", "id_url": "https://www.openstreetmap.org/edit?editor=id&node=8863679669#map=20/-25.4614044/-49.2262808"}}, {"type": "Feature", "geometry": {"type": "Point", "coordinates": [-49.226206, -25.4613919]}, "properties": {"id": 8863679670, "feat_type": "node", "quality_categories": "kerb_on_top_of_non_crossing, older_than_five_years", "issue_ids": "[14, 2]", "osm_url": "https://www.openstreetmap.org/node/8863679670", "josm_url": "http://127.0.0.1:8111/load_object?new_layer=false&objects=n8863679670", "id_url": "https://www.openstreetmap.org/edit?editor=id&node=8863679670#map=20/-25.4613919/-49.226206"}}, {"type": "Feature", "geometry": {"type": "Point", "coordinates": [-49.2301346, -25.4605223]}, "properties": {"id": 8864131738, "feat_type": "node", "quality_categories": "improper_keys, older_than_five_years", "issue_ids": "[7, 8]", "osm_url": "https://www.openstreetmap.org/node/8864131738", "josm_url": "http://127.0.0.1:8111/load_object?new_layer=false&objects=n8864131738", "id_url": "https://www.openstreetmap.org/edit?editor=id&node=8864131738#map=20/-25.4605223/-49.2301346"}}, {"type": "Feature", "geometry": {"type": "Point", "coordinates": [-49.2298744, -25.4605295]}, "properties": {"id": 8864131740, "feat_type": "node", "quality_categories": "improper_keys, older_than_five_years", "issue_ids": "[7, 8]", "osm_url": "https://www.openstreetmap.org/node/8864131740", "josm_url": "http://127.0.0.1:8111/load_object?new_layer=false&objects=n8864131740", "id_url": "https://www.openstreetmap.org/edit?editor=id&node=8864131740#map=20/-25.4605295/-49.2298744"}}, {"type": "Feature", "geometry": {"type": "Point", "coordinates": [-49.2301315, -25.4706013]}, "properties": {"id": 8864280352, "feat_type": "node", "quality_categories": "older_than_five_years", "issue_ids": "[14]", "osm_url": "https://www.openstreetmap.org/node/8864280352", "josm_url": "http://127.0.0.1:8111/load_object?new_layer=false&objects=n8864280352", "id_url": "https://www.openstreetmap.org/edit?editor=id&node=8864280352#map=20/-25.4706013/-49.2301315"}}, {"type": "Feature", "geometry": {"type": "Point", "coordinates": [-49.2268177, -25.4734469]}, "properties": {"id": 8869854125, "feat_type": "node", "quality_categories": "older_than_five_years, wrong_mispelled_or_unlisted_values", "issue_ids": "[12, 8]", "osm_url": "https://www.openstreetmap.org/node/8869854125", "josm_url": "http://127.0.0.1:8111/load_object?new_layer=false&objects=n8869854125", "id_url": "https://www.openstreetmap.org/edit?editor=id&node=8869854125#map=20/-25.4734469/-49.2268177"}}, {"type": "Feature", "geometry": {"type": "Point", "coordinates": [-49.2279221, -25.4651903]}, "properties": {"id": 8882941505, "feat_type": "node", "quality_categories": "kerb_on_top_of_non_crossing, older_than_five_years", "issue_ids": "[8, 2]", "osm_url": "https://www.openstreetmap.org/node/8882941505", "josm_url": "http://127.0.0.1:8111/load_object?new_layer=false&objects=n8882941505", "id_url": "https://www.openstreetmap.org/edit?editor=id&node=8882941505#map=20/-25.4651903/-49.2279221"}}, {"type": "Feature", "geometry": {"type": "Point", "coordinates": [-49.22681, -25.4715171]}, "properties": {"id": 8883142709, "feat_type": "node", "quality_categories": "older_than_five_years", "issue_ids": "[8]", "osm_url": "https://www.openstreetmap.org/node/8883142709", "josm_url": "http://127.0.0.1:8111/load_object?new_layer=false&objects=n8883142709", "id_url": "https://www.openstreetmap.org/edit?editor=id&node=8883142709#map=20/-25.4715171/-49.22681"}}, {"type": "Feature", "geometry": {"type": "Point", "coordinates": [-49.2285429, -25.464471]}, "properties": {"id": 8886351118, "feat_type": "node", "quality_categories": "kerb_on_top_of_non_crossing, older_than_five_years", "issue_ids": "[9, 2]", "osm_url": "https://www.openstreetmap.org/node/8886351118", "josm_url": "http://127.0.0.1:8111/load_object?new_layer=false&objects=n8886351118", "id_url": "https://www.openstreetmap.org/edit?editor=id&node=8886351118#map=20/-25.464471/-49.2285429"}}, {"type": "Feature", "geometry": {"type": "Point", "coordinates": [-49.2286565, -25.4645426]}, "properties": {"id": 8886351119, "feat_type": "node", "quality_categories": "kerb_on_top_of_non_crossing, older_than_five_years", "issue_ids": "[9, 2]", "osm_url": "https://www.openstreetmap.org/node/8886351119", "josm_url": "http://127.0.0.1:8111/load_object?new_layer=false&objects=n8886351119", "id_url": "https://www.openstreetmap.org/edit?editor=id&node=8886351119#map=20/-25.4645426/-49.2286565"}}, {"type": "Feature", "geometry": {"type": "Point", "coordinates": [-49.2292764, -25.4645054]}, "properties": {"id": 8886351124, "feat_type": "node", "quality_categories": "improper_keys, kerb_on_top_of_non_crossing, older_than_five_years", "issue_ids": "[7, 9, 2]", "osm_url": "https://www.openstreetmap.org/node/8886351124", "josm_url": "http://127.0.0.1:8111/load_object?new_layer=false&objects=n8886351124", "id_url": "https://www.openstreetmap.org/edit?editor=id&node=8886351124#map=20/-25.4645054/-49.2292764"}}, {"type": "Feature", "geometry": {"type": "Point", "coordinates": [-49.2294872, -25.4644867]}, "properties": {"id": 8888420312, "feat_type": "node", "quality_categories": "improper_keys, kerb_on_top_of_non_crossing, older_than_five_years", "issue_ids": "[7, 9, 2]", "osm_url": "https://www.openstreetmap.org/node/8888420312", "josm_url": "http://127.0.0.1:8111/load_object?new_layer=false&objects=n8888420312", "id_url": "https://www.openstreetmap.org/edit?editor=id&node=8888420312#map=20/-25.4644867/-49.2294872"}}, {"type": "Feature", "geometry": {"type": "Point", "coordinates": [-49.2283366, -25.4615837]}, "properties": {"id": 8889062143, "feat_type": "node", "quality_categories": "improper_keys, older_than_five_years", "issue_ids": "[7, 8]", "osm_url": "https://www.openstreetmap.org/node/8889062143", "josm_url": "http://127.0.0.1:8111/load_object?new_layer=false&objects=n8889062143", "id_url": "https://www.openstreetmap.org/edit?editor=id&node=8889062143#map=20/-25.4615837/-49.2283366"}}, {"type": "Feature", "geometry": {"type": "Point", "coordinates": [-49.2288195, -25.4600965]}, "properties": {"id": 8889336429, "feat_type": "node", "quality_categories": "kerb_on_top_of_non_crossing, older_than_five_years", "issue_ids": "[8, 2]", "osm_url": "https://www.openstreetmap.org/node/8889336429", "josm_url": "http://127.0.0.1:8111/load_object?new_layer=false&objects=n8889336429", "id_url": "https://www.openstreetmap.org/edit?editor=id&node=8889336429#map=20/-25.4600965/-49.2288195"}}, {"type": "Feature", "geometry": {"type": "Point", "coordinates": [-49.2286745, -25.4597843]}, "properties": {"id": 8889336430, "feat_type": "node", "quality_categories": "kerb_on_top_of_non_crossing, older_than_five_years", "issue_ids": "[8, 2]", "osm_url": "https://www.openstreetmap.org/node/8889336430", "josm_url": "http://127.0.0.1:8111/load_object?new_layer=false&objects=n8889336430", "id_url": "https://www.openstreetmap.org/edit?editor=id&node=8889336430#map=20/-25.4597843/-49.2286745"}}, {"type": "Feature", "geometry": {"type": "Point", "coordinates": [-49.2289488, -25.4603914]}, "properties": {"id": 8889336431, "feat_type": "node", "quality_categories": "kerb_on_top_of_non_crossing, older_than_five_years", "issue_ids": "[8, 2]", "osm_url": "https://www.openstreetmap.org/node/8889336431", "josm_url": "http://127.0.0.1:8111/load_object?new_layer=false&objects=n8889336431", "id_url": "https://www.openstreetmap.org/edit?editor=id&node=8889336431#map=20/-25.4603914/-49.2289488"}}, {"type": "Feature", "geometry": {"type": "Point", "coordinates": [-49.2287977, -25.459589]}, "properties": {"id": 8889336432, "feat_type": "node", "quality_categories": "kerb_on_top_of_non_crossing, older_than_five_years", "issue_ids": "[8, 2]", "osm_url": "https://www.openstreetmap.org/node/8889336432", "josm_url": "http://127.0.0.1:8111/load_object?new_layer=false&objects=n8889336432", "id_url": "https://www.openstreetmap.org/edit?editor=id&node=8889336432#map=20/-25.459589/-49.2287977"}}, {"type": "Feature", "geometry": {"type": "Point", "coordinates": [-49.2290286, -25.4594991]}, "properties": {"id": 8889336433, "feat_type": "node", "quality_categories": "kerb_on_top_of_non_crossing, older_than_five_years", "issue_ids": "[8, 2]", "osm_url": "https://www.openstreetmap.org/node/8889336433", "josm_url": "http://127.0.0.1:8111/load_object?new_layer=false&objects=n8889336433", "id_url": "https://www.openstreetmap.org/edit?editor=id&node=8889336433#map=20/-25.4594991/-49.2290286"}}, {"type": "Feature", "geometry": {"type": "Point", "coordinates": [-49.2293646, -25.4593721]}, "properties": {"id": 8889336434, "feat_type": "node", "quality_categories": "kerb_on_top_of_non_crossing, older_than_five_years", "issue_ids": "[8, 2]", "osm_url": "https://www.openstreetmap.org/node/8889336434", "josm_url": "http://127.0.0.1:8111/load_object?new_layer=false&objects=n8889336434", "id_url": "https://www.openstreetmap.org/edit?editor=id&node=8889336434#map=20/-25.4593721/-49.2293646"}}, {"type": "Feature", "geometry": {"type": "Point", "coordinates": [-49.22846, -25.4597271]}, "properties": {"id": 8889336435, "feat_type": "node", "quality_categories": "kerb_on_top_of_non_crossing, older_than_five_years", "issue_ids": "[8, 2]", "osm_url": "https://www.openstreetmap.org/node/8889336435", "josm_url": "http://127.0.0.1:8111/load_object?new_layer=false&objects=n8889336435", "id_url": "https://www.openstreetmap.org/edit?editor=id&node=8889336435#map=20/-25.4597271/-49.22846"}}, {"type": "Feature", "geometry": {"type": "Point", "coordinates": [-49.2283384, -25.4597761]}, "properties": {"id": 8889336436, "feat_type": "node", "quality_categories": "kerb_on_top_of_non_crossing, older_than_five_years", "issue_ids": "[8, 2]", "osm_url": "https://www.openstreetmap.org/node/8889336436", "josm_url": "http://127.0.0.1:8111/load_object?new_layer=false&objects=n8889336436", "id_url": "https://www.openstreetmap.org/edit?editor=id&node=8889336436#map=20/-25.4597761/-49.2283384"}}, {"type": "Feature", "geometry": {"type": "Point", "coordinates": [-49.2283606, -25.4597671]}, "properties": {"id": 8889336437, "feat_type": "node", "quality_categories": "kerb_on_top_of_non_crossing, older_than_five_years", "issue_ids": "[8, 2]", "osm_url": "https://www.openstreetmap.org/node/8889336437", "josm_url": "http://127.0.0.1:8111/load_object?new_layer=false&objects=n8889336437", "id_url": "https://www.openstreetmap.org/edit?editor=id&node=8889336437#map=20/-25.4597671/-49.2283606"}}, {"type": "Feature", "geometry": {"type": "Point", "coordinates": [-49.229451, -25.4671219]}, "properties": {"id": 8889351414, "feat_type": "node", "quality_categories": "kerb_on_top_of_non_crossing, older_than_five_years", "issue_ids": "[8, 2]", "osm_url": "https://www.openstreetmap.org/node/8889351414", "josm_url": "http://127.0.0.1:8111/load_object?new_layer=false&objects=n8889351414", "id_url": "https://www.openstreetmap.org/edit?editor=id&node=8889351414#map=20/-25.4671219/-49.229451"}}, {"type": "Feature", "geometry": {"type": "Point", "coordinates": [-49.2287976, -25.4553071]}, "properties": {"id": 8889376180, "feat_type": "node", "quality_categories": "kerb_on_top_of_non_crossing, older_than_five_years", "issue_ids": "[8, 2]", "osm_url": "https://www.openstreetmap.org/node/8889376180", "josm_url": "http://127.0.0.1:8111/load_object?new_layer=false&objects=n8889376180", "id_url": "https://www.openstreetmap.org/edit?editor=id&node=8889376180#map=20/-25.4553071/-49.2287976"}}, {"type": "Feature", "geometry": {"type": "Point", "coordinates": [-49.2287244, -25.4551497]}, "properties": {"id": 8889376181, "feat_type": "node", "quality_categories": "kerb_on_top_of_non_crossing, older_than_five_years", "issue_ids": "[8, 2]", "osm_url": "https://www.openstreetmap.org/node/8889376181", "josm_url": "http://127.0.0.1:8111/load_object?new_layer=false&objects=n8889376181", "id_url": "https://www.openstreetmap.org/edit?editor=id&node=8889376181#map=20/-25.4551497/-49.2287244"}}, {"type": "Feature", "geometry": {"type": "Point", "coordinates": [-49.2286174, -25.4549351]}, "properties": {"id": 8889376182, "feat_type": "node", "quality_categories": "kerb_on_top_of_non_crossing, older_than_five_years", "issue_ids": "[8, 2]", "osm_url": "https://www.openstreetmap.org/node/8889376182", "josm_url": "http://127.0.0.1:8111/load_object?new_layer=false&objects=n8889376182", "id_url": "https://www.openstreetmap.org/edit?editor=id&node=8889376182#map=20/-25.4549351/-49.2286174"}}, {"type": "Feature", "geometry": {"type": "Point", "coordinates": [-49.2284982, -25.4546879]}, "properties": {"id": 8889376183, "feat_type": "node", "quality_categories": "kerb_on_top_of_non_crossing, older_than_five_years", "issue_ids": "[8, 2]", "osm_url": "https://www.openstreetmap.org/node/8889376183", "josm_url": "http://127.0.0.1:8111/load_object?new_layer=false&objects=n8889376183", "id_url": "https://www.openstreetmap.org/edit?editor=id&node=8889376183#map=20/-25.4546879/-49.2284982"}}, {"type": "Feature", "geometry": {"type": "Point", "coordinates": [-49.2280467, -25.4647627]}, "properties": {"id": 8889383020, "feat_type": "node", "quality_categories": "kerb_on_top_of_non_crossing, older_than_five_years", "issue_ids": "[8, 2]", "osm_url": "https://www.openstreetmap.org/node/8889383020", "josm_url": "http://127.0.0.1:8111/load_object?new_layer=false&objects=n8889383020", "id_url": "https://www.openstreetmap.org/edit?editor=id&node=8889383020#map=20/-25.4647627/-49.2280467"}}, {"type": "Feature", "geometry": {"type": "Point", "coordinates": [-49.2282109, -25.4641451]}, "properties": {"id": 8889383023, "feat_type": "node", "quality_categories": "kerb_on_top_of_non_crossing, older_than_five_years", "issue_ids": "[8, 2]", "osm_url": "https://www.openstreetmap.org/node/8889383023", "josm_url": "http://127.0.0.1:8111/load_object?new_layer=false&objects=n8889383023", "id_url": "https://www.openstreetmap.org/edit?editor=id&node=8889383023#map=20/-25.4641451/-49.2282109"}}, {"type": "Feature", "geometry": {"type": "Point", "coordinates": [-49.2270776, -25.464995]}, "properties": {"id": 8889383024, "feat_type": "node", "quality_categories": "kerb_on_top_of_non_crossing, older_than_five_years", "issue_ids": "[8, 2]", "osm_url": "https://www.openstreetmap.org/node/8889383024", "josm_url": "http://127.0.0.1:8111/load_object?new_layer=false&objects=n8889383024", "id_url": "https://www.openstreetmap.org/edit?editor=id&node=8889383024#map=20/-25.464995/-49.2270776"}}, {"type": "Feature", "geometry": {"type": "Point", "coordinates": [-49.229959, -25.4625]}, "properties": {"id": 8890631910, "feat_type": "node", "quality_categories": "improper_keys, older_than_five_years", "issue_ids": "[7, 8]", "osm_url": "https://www.openstreetmap.org/node/8890631910", "josm_url": "http://127.0.0.1:8111/load_object?new_layer=false&objects=n8890631910", "id_url": "https://www.openstreetmap.org/edit?editor=id&node=8890631910#map=20/-25.4625/-49.229959"}}, {"type": "Feature", "geometry": {"type": "Point", "coordinates": [-49.2300626, -25.4623251]}, "properties": {"id": 8890631911, "feat_type": "node", "quality_categories": "improper_keys, older_than_five_years", "issue_ids": "[7, 8]", "osm_url": "https://www.openstreetmap.org/node/8890631911", "josm_url": "http://127.0.0.1:8111/load_object?new_layer=false&objects=n8890631911", "id_url": "https://www.openstreetmap.org/edit?editor=id&node=8890631911#map=20/-25.4623251/-49.2300626"}}, {"type": "Feature", "geometry": {"type": "Point", "coordinates": [-49.2292884, -25.4607466]}, "properties": {"id": 8890780386, "feat_type": "node", "quality_categories": "older_than_five_years", "issue_ids": "[8]", "osm_url": "https://www.openstreetmap.org/node/8890780386", "josm_url": "http://127.0.0.1:8111/load_object?new_layer=false&objects=n8890780386", "id_url": "https://www.openstreetmap.org/edit?editor=id&node=8890780386#map=20/-25.4607466/-49.2292884"}}, {"type": "Feature", "geometry": {"type": "Point", "coordinates": [-49.2277719, -25.4719258]}, "properties": {"id": 8890907326, "feat_type": "node", "quality_categories": "older_than_five_years, wrong_mispelled_or_unlisted_values", "issue_ids": "[11, 8]", "osm_url": "https://www.openstreetmap.org/node/8890907326", "josm_url": "http://127.0.0.1:8111/load_object?new_layer=false&objects=n8890907326", "id_url": "https://www.openstreetmap.org/edit?editor=id&node=8890907326#map=20/-25.4719258/-49.2277719"}}, {"type": "Feature", "geometry": {"type": "Point", "coordinates": [-49.2268792, -25.4735344]}, "properties": {"id": 8891102632, "feat_type": "node", "quality_categories": "older_than_five_years", "issue_ids": "[8]", "osm_url": "https://www.openstreetmap.org/node/8891102632", "josm_url": "http://127.0.0.1:8111/load_object?new_layer=false&objects=n8891102632", "id_url": "https://www.openstreetmap.org/edit?editor=id&node=8891102632#map=20/-25.4735344/-49.2268792"}}, {"type": "Feature", "geometry": {"type": "Point", "coordinates": [-49.2277538, -25.4738735]}, "properties": {"id": 8891102635, "feat_type": "node", "quality_categories": "older_than_five_years", "issue_ids": "[8]", "osm_url": "https://www.openstreetmap.org/node/8891102635", "josm_url": "http://127.0.0.1:8111/load_object?new_layer=false&objects=n8891102635", "id_url": "https://www.openstreetmap.org/edit?editor=id&node=8891102635#map=20/-25.4738735/-49.2277538"}}, {"type": "Feature", "geometry": {"type": "Point", "coordinates": [-49.2277107, -25.4739294]}, "properties": {"id": 8891102637, "feat_type": "node", "quality_categories": "older_than_five_years", "issue_ids": "[8]", "osm_url": "https://www.openstreetmap.org/node/8891102637", "josm_url": "http://127.0.0.1:8111/load_object?new_layer=false&objects=n8891102637", "id_url": "https://www.openstreetmap.org/edit?editor=id&node=8891102637#map=20/-25.4739294/-49.2277107"}}, {"type": "Feature", "geometry": {"type": "Point", "coordinates": [-49.2256205, -25.4730311]}, "properties": {"id": 8891106244, "feat_type": "node", "quality_categories": "older_than_five_years, wrong_mispelled_or_unlisted_values", "issue_ids": "[11, 8]", "osm_url": "https://www.openstreetmap.org/node/8891106244", "josm_url": "http://127.0.0.1:8111/load_object?new_layer=false&objects=n8891106244", "id_url": "https://www.openstreetmap.org/edit?editor=id&node=8891106244#map=20/-25.4730311/-49.2256205"}}, {"type": "Feature", "geometry": {"type": "Point", "coordinates": [-49.2256929, -25.4730632]}, "properties": {"id": 8891106246, "feat_type": "node", "quality_categories": "older_than_five_years, wrong_mispelled_or_unlisted_values", "issue_ids": "[11, 8]", "osm_url": "https://www.openstreetmap.org/node/8891106246", "josm_url": "http://127.0.0.1:8111/load_object?new_layer=false&objects=n8891106246", "id_url": "https://www.openstreetmap.org/edit?editor=id&node=8891106246#map=20/-25.4730632/-49.2256929"}}, {"type": "Feature", "geometry": {"type": "Point", "coordinates": [-49.2301257, -25.4623216]}, "properties": {"id": 8891164694, "feat_type": "node", "quality_categories": "improper_keys, older_than_five_years", "issue_ids": "[7, 8]", "osm_url": "https://www.openstreetmap.org/node/8891164694", "josm_url": "http://127.0.0.1:8111/load_object?new_layer=false&objects=n8891164694", "id_url": "https://www.openstreetmap.org/edit?editor=id&node=8891164694#map=20/-25.4623216/-49.2301257"}}, {"type": "Feature", "geometry": {"type": "Point", "coordinates": [-49.2280874, -25.4637408]}, "properties": {"id": 8893030771, "feat_type": "node", "quality_categories": "kerb_on_top_of_non_crossing, older_than_five_years", "issue_ids": "[10, 2]", "osm_url": "https://www.openstreetmap.org/node/8893030771", "josm_url": "http://127.0.0.1:8111/load_object?new_layer=false&objects=n8893030771", "id_url": "https://www.openstreetmap.org/edit?editor=id&node=8893030771#map=20/-25.4637408/-49.2280874"}}, {"type": "Feature", "geometry": {"type": "Point", "coordinates": [-49.2274976, -25.463664]}, "properties": {"id": 8893030772, "feat_type": "node", "quality_categories": "improper_keys, kerb_on_top_of_non_crossing, older_than_five_years", "issue_ids": "[7, 10, 2]", "osm_url": "https://www.openstreetmap.org/node/8893030772", "josm_url": "http://127.0.0.1:8111/load_object?new_layer=false&objects=n8893030772", "id_url": "https://www.openstreetmap.org/edit?editor=id&node=8893030772#map=20/-25.463664/-49.2274976"}}, {"type": "Feature", "geometry": {"type": "Point", "coordinates": [-49.2284249, -25.4640312]}, "properties": {"id": 8893030774, "feat_type": "node", "quality_categories": "kerb_on_top_of_non_crossing, older_than_five_years", "issue_ids": "[10, 2]", "osm_url": "https://www.openstreetmap.org/node/8893030774", "josm_url": "http://127.0.0.1:8111/load_object?new_layer=false&objects=n8893030774", "id_url": "https://www.openstreetmap.org/edit?editor=id&node=8893030774#map=20/-25.4640312/-49.2284249"}}, {"type": "Feature", "geometry": {"type": "Point", "coordinates": [-49.228504, -25.4640456]}, "properties": {"id": 8893030775, "feat_type": "node", "quality_categories": "kerb_on_top_of_non_crossing, older_than_five_years", "issue_ids": "[10, 2]", "osm_url": "https://www.openstreetmap.org/node/8893030775", "josm_url": "http://127.0.0.1:8111/load_object?new_layer=false&objects=n8893030775", "id_url": "https://www.openstreetmap.org/edit?editor=id&node=8893030775#map=20/-25.4640456/-49.228504"}}, {"type": "Feature", "geometry": {"type": "Point", "coordinates": [-49.2284588, -25.464467]}, "properties": {"id": 8893030776, "feat_type": "node", "quality_categories": "kerb_on_top_of_non_crossing, older_than_five_years", "issue_ids": "[16, 2]", "osm_url": "https://www.openstreetmap.org/node/8893030776", "josm_url": "http://127.0.0.1:8111/load_object?new_layer=false&objects=n8893030776", "id_url": "https://www.openstreetmap.org/edit?editor=id&node=8893030776#map=20/-25.464467/-49.2284588"}}, {"type": "Feature", "geometry": {"type": "Point", "coordinates": [-49.2273746, -25.4634195]}, "properties": {"id": 8895100918, "feat_type": "node", "quality_categories": "older_than_five_years", "issue_ids": "[10]", "osm_url": "https://www.openstreetmap.org/node/8895100918", "josm_url": "http://127.0.0.1:8111/load_object?new_layer=false&objects=n8895100918", "id_url": "https://www.openstreetmap.org/edit?editor=id&node=8895100918#map=20/-25.4634195/-49.2273746"}}, {"type": "Feature", "geometry": {"type": "Point", "coordinates": [-49.2282286, -25.4637097]}, "properties": {"id": 8895100919, "feat_type": "node", "quality_categories": "kerb_on_top_of_non_crossing, older_than_five_years", "issue_ids": "[10, 2]", "osm_url": "https://www.openstreetmap.org/node/8895100919", "josm_url": "http://127.0.0.1:8111/load_object?new_layer=false&objects=n8895100919", "id_url": "https://www.openstreetmap.org/edit?editor=id&node=8895100919#map=20/-25.4637097/-49.2282286"}}, {"type": "Feature", "geometry": {"type": "Point", "coordinates": [-49.2273203, -25.464014]}, "properties": {"id": 8895100923, "feat_type": "node", "quality_categories": "kerb_on_top_of_non_crossing, older_than_five_years", "issue_ids": "[10, 2]", "osm_url": "https://www.openstreetmap.org/node/8895100923", "josm_url": "http://127.0.0.1:8111/load_object?new_layer=false&objects=n8895100923", "id_url": "https://www.openstreetmap.org/edit?editor=id&node=8895100923#map=20/-25.464014/-49.2273203"}}, {"type": "Feature", "geometry": {"type": "Point", "coordinates": [-49.227262, -25.4639972]}, "properties": {"id": 8895100924, "feat_type": "node", "quality_categories": "kerb_on_top_of_non_crossing, older_than_five_years", "issue_ids": "[10, 2]", "osm_url": "https://www.openstreetmap.org/node/8895100924", "josm_url": "http://127.0.0.1:8111/load_object?new_layer=false&objects=n8895100924", "id_url": "https://www.openstreetmap.org/edit?editor=id&node=8895100924#map=20/-25.4639972/-49.227262"}}, {"type": "Feature", "geometry": {"type": "Point", "coordinates": [-49.2272557, -25.4642358]}, "properties": {"id": 8895100925, "feat_type": "node", "quality_categories": "kerb_on_top_of_non_crossing, older_than_five_years", "issue_ids": "[10, 2]", "osm_url": "https://www.openstreetmap.org/node/8895100925", "josm_url": "http://127.0.0.1:8111/load_object?new_layer=false&objects=n8895100925", "id_url": "https://www.openstreetmap.org/edit?editor=id&node=8895100925#map=20/-25.4642358/-49.2272557"}}, {"type": "Feature", "geometry": {"type": "Point", "coordinates": [-49.2272, -25.4642272]}, "properties": {"id": 8895100926, "feat_type": "node", "quality_categories": "kerb_on_top_of_non_crossing, older_than_five_years", "issue_ids": "[10, 2]", "osm_url": "https://www.openstreetmap.org/node/8895100926", "josm_url": "http://127.0.0.1:8111/load_object?new_layer=false&objects=n8895100926", "id_url": "https://www.openstreetmap.org/edit?editor=id&node=8895100926#map=20/-25.4642272/-49.2272"}}, {"type": "Feature", "geometry": {"type": "Point", "coordinates": [-49.2269812, -25.4655135]}, "properties": {"id": 8895100927, "feat_type": "node", "quality_categories": "kerb_on_top_of_non_crossing, older_than_five_years", "issue_ids": "[10, 2]", "osm_url": "https://www.openstreetmap.org/node/8895100927", "josm_url": "http://127.0.0.1:8111/load_object?new_layer=false&objects=n8895100927", "id_url": "https://www.openstreetmap.org/edit?editor=id&node=8895100927#map=20/-25.4655135/-49.2269812"}}, {"type": "Feature", "geometry": {"type": "Point", "coordinates": [-49.2269609, -25.4655696]}, "properties": {"id": 8895100928, "feat_type": "node", "quality_categories": "kerb_on_top_of_non_crossing, older_than_five_years", "issue_ids": "[10, 2]", "osm_url": "https://www.openstreetmap.org/node/8895100928", "josm_url": "http://127.0.0.1:8111/load_object?new_layer=false&objects=n8895100928", "id_url": "https://www.openstreetmap.org/edit?editor=id&node=8895100928#map=20/-25.4655696/-49.2269609"}}]}