{"type": "FeatureCollection", "features": [{"type": "Feature", "geometry": {"type": "Point", "coordinates": [9.1936265, 45.4941]}, "properties": {"id": 340225481, "feat_type": "node", "quality_categories": "improper_keys, uncanny_keys", "issue_ids": "[0, 1]", "osm_url": "https://www.openstreetmap.org/node/340225481", "josm_url": "http://127.0.0.1:8111/load_object?new_layer=false&objects=n340225481", "id_url": "https://www.openstreetmap.org/edit?editor=id&node=340225481#map=20/45.4941/9.1936265"}}, {"type": "Feature", "geometry": {"type": "Point", "coordinates": [9.1937491, 45.4940675]}, "properties": {"id": 340225482, "feat_type": "node", "quality_categories": "improper_keys, uncanny_keys", "issue_ids": "[0, 1]", "osm_url": "https://www.openstreetmap.org/node/340225482", "josm_url": "http://127.0.0.1:8111/load_object?new_layer=false&objects=n340225482", "id_url": "https://www.openstreetmap.org/edit?editor=id&node=340225482#map=20/45.4940675/9.1937491"}}, {"type": "Feature", "geometry": {"type": "Point", "coordinates": [9.1969678, 45.5006229]}, "properties": {"id": 1270568966, "feat_type": "node", "quality_categories": "improper_keys, uncanny_keys", "issue_ids": "[0, 2]", "osm_url": "https://www.openstreetmap.org/node/1270568966", "josm_url": "http://127.0.0.1:8111/load_object?new_layer=false&objects=n1270568966", "id_url": "https://www.openstreetmap.org/edit?editor=id&node=1270568966#map=20/45.5006229/9.1969678"}}, {"type": "Feature", "geometry": {"type": "Point", "coordinates": [9.1969302, 45.4992336]}, "properties": {"id": 1270569005, "feat_type": "node", "quality_categories": "improper_keys, uncanny_keys", "issue_ids": "[0, 2]", "osm_url": "https://www.openstreetmap.org/node/1270569005", "josm_url": "http://127.0.0.1:8111/load_object?new_layer=false&objects=n1270569005", "id_url": "https://www.openstreetmap.org/edit?editor=id&node=1270569005#map=20/45.4992336/9.1969302"}}, {"type": "Feature", "geometry": {"type": "Point", "coordinates": [9.1962582, 45.4993413]}, "properties": {"id": 1270569009, "feat_type": "node", "quality_categories": "improper_keys, kerb_on_top_of_non_crossing, uncanny_keys", "issue_ids": "[0, 2, 3]", "osm_url": "https://www.openstreetmap.org/node/1270569009", "josm_url": "http://127.0.0.1:8111/load_object?new_layer=false&objects=n1270569009", "id_url": "https://www.openstreetmap.org/edit?editor=id&node=1270569009#map=20/45.4993413/9.1962582"}}, {"type": "Feature", "geometry": {"type": "Point", "coordinates": [9.1722077, 45.5157978]}, "properties": {"id": 1345721021, "feat_type": "node", "quality_categories": "improper_keys, uncanny_keys", "issue_ids": "[0, 2]", "osm_url": "https://www.openstreetmap.org/node/1345721021", "josm_url": "http://127.0.0.1:8111/load_object?new_layer=false&objects=n1345721021", "id_url": "https://www.openstreetmap.org/edit?editor=id&node=1345721021#map=20/45.5157978/9.1722077"}}, {"type": "Feature", "geometry": {"type": "Point", "coordinates": [9.2010815, 45.4853867]}, "properties": {"id": 1474281764, "feat_type": "node", "quality_categories": "improper_keys, uncanny_keys", "issue_ids": "[0, 2]", "osm_url": "https://www.openstreetmap.org/node/1474281764", "josm_url": "http://127.0.0.1:8111/load_object?new_layer=false&objects=n1474281764", "id_url": "https://www.openstreetmap.org/edit?editor=id&node=1474281764#map=20/45.4853867/9.2010815"}}, {"type": "Feature", "geometry": {"type": "Point", "coordinates": [9.188687, 45.4627488]}, "properties": {"id": 1477780131, "feat_type": "node", "quality_categories": "improper_keys, kerb_on_top_of_non_crossing, uncanny_keys", "issue_ids": "[0, 2, 3]", "osm_url": "https://www.openstreetmap.org/node/1477780131", "josm_url": "http://127.0.0.1:8111/load_object?new_layer=false&objects=n1477780131", "id_url": "https://www.openstreetmap.org/edit?editor=id&node=1477780131#map=20/45.4627488/9.188687"}}, {"type": "Feature", "geometry": {"type": "Point", "coordinates": [9.2119988, 45.4815897]}, "properties": {"id": 1503239846, "feat_type": "node", "quality_categories": "improper_keys, uncanny_keys", "issue_ids": "[0, 2]", "osm_url": "https://www.openstreetmap.org/node/1503239846", "josm_url": "http://127.0.0.1:8111/load_object?new_layer=false&objects=n1503239846", "id_url": "https://www.openstreetmap.org/edit?editor=id&node=1503239846#map=20/45.4815897/9.2119988"}}, {"type": "Feature", "geometry": {"type": "Point", "coordinates": [9.2062839, 45.4942291]}, "properties": {"id": 1831146494, "feat_type": "node", "quality_categories": "improper_keys, kerb_on_top_of_non_crossing, uncanny_keys", "issue_ids": "[0, 2, 3]", "osm_url": "https://www.openstreetmap.org/node/1831146494", "josm_url": "http://127.0.0.1:8111/load_object?new_layer=false&objects=n1831146494", "id_url": "https://www.openstreetmap.org/edit?editor=id&node=1831146494#map=20/45.4942291/9.2062839"}}, {"type": "Feature", "geometry": {"type": "Point", "coordinates": [9.1885136, 45.462878]}, "properties": {"id": 2356381083, "feat_type": "node", "quality_categories": "improper_keys, kerb_on_top_of_non_crossing, uncanny_keys", "issue_ids": "[0, 2, 3]", "osm_url": "https://www.openstreetmap.org/node/2356381083", "josm_url": "http://127.0.0.1:8111/load_object?new_layer=false&objects=n2356381083", "id_url": "https://www.openstreetmap.org/edit?editor=id&node=2356381083#map=20/45.462878/9.1885136"}}, {"type": "Feature", "geometry": {"type": "Point", "coordinates": [9.1942061, 45.495765]}, "properties": {"id": 2394469856, "feat_type": "node", "quality_categories": "improper_keys, uncanny_keys", "issue_ids": "[0, 2]", "osm_url": "https://www.openstreetmap.org/node/2394469856", "josm_url": "http://127.0.0.1:8111/load_object?new_layer=false&objects=n2394469856", "id_url": "https://www.openstreetmap.org/edit?editor=id&node=2394469856#map=20/45.495765/9.1942061"}}, {"type": "Feature", "geometry": {"type": "Point", "coordinates": [9.2145756, 45.4655024]}, "properties": {"id": 3386288551, "feat_type": "node", "quality_categories": "improper_keys, uncanny_keys", "issue_ids": "[0, 2]", "osm_url": "https://www.openstreetmap.org/node/3386288551", "josm_url": "http://127.0.0.1:8111/load_object?new_layer=false&objects=n3386288551", "id_url": "https://www.openstreetmap.org/edit?editor=id&node=3386288551#map=20/45.4655024/9.2145756"}}, {"type": "Feature", "geometry": {"type": "Point", "coordinates": [9.1987604, 45.5003608]}, "properties": {"id": 3731503660, "feat_type": "node", "quality_categories": "improper_keys, uncanny_keys", "issue_ids": "[0, 2]", "osm_url": "https://www.openstreetmap.org/node/3731503660", "josm_url": "http://127.0.0.1:8111/load_object?new_layer=false&objects=n3731503660", "id_url": "https://www.openstreetmap.org/edit?editor=id&node=3731503660#map=20/45.5003608/9.1987604"}}, {"type": "Feature", "geometry": {"type": "Point", "coordinates": [9.196957, 45.5004546]}, "properties": {"id": 3731503663, "feat_type": "node", "quality_categories": "improper_keys, kerb_on_top_of_non_crossing, uncanny_keys", "issue_ids": "[0, 2, 3]", "osm_url": "https://www.openstreetmap.org/node/3731503663", "josm_url": "http://127.0.0.1:8111/load_object?new_layer=false&objects=n3731503663", "id_url": "https://www.openstreetmap.org/edit?editor=id&node=3731503663#map=20/45.5004546/9.196957"}}, {"type": "Feature", "geometry": {"type": "Point", "coordinates": [9.2234703, 45.4778225]}, "properties": {"id": 5936879760, "feat_type": "node", "quality_categories": "improper_keys, kerb_on_top_of_non_crossing, uncanny_keys", "issue_ids": "[0, 1, 3]", "osm_url": "https://www.openstreetmap.org/node/5936879760", "josm_url": "http://127.0.0.1:8111/load_object?new_layer=false&objects=n5936879760", "id_url": "https://www.openstreetmap.org/edit?editor=id&node=5936879760#map=20/45.4778225/9.2234703"}}, {"type": "Feature", "geometry": {"type": "Point", "coordinates": [9.206475, 45.4623826]}, "properties": {"id": 6301781772, "feat_type": "node", "quality_categories": "improper_keys, uncanny_keys", "issue_ids": "[0, 2]", "osm_url": "https://www.openstreetmap.org/node/6301781772", "josm_url": "http://127.0.0.1:8111/load_object?new_layer=false&objects=n6301781772", "id_url": "https://www.openstreetmap.org/edit?editor=id&node=6301781772#map=20/45.4623826/9.206475"}}, {"type": "Feature", "geometry": {"type": "Point", "coordinates": [9.2097192, 45.4789832]}, "properties": {"id": 7570125969, "feat_type": "node", "quality_categories": "improper_keys, kerb_on_top_of_non_crossing, uncanny_keys", "issue_ids": "[0, 2, 3]", "osm_url": "https://www.openstreetmap.org/node/7570125969", "josm_url": "http://127.0.0.1:8111/load_object?new_layer=false&objects=n7570125969", "id_url": "https://www.openstreetmap.org/edit?editor=id&node=7570125969#map=20/45.4789832/9.2097192"}}, {"type": "Feature", "geometry": {"type": "Point", "coordinates": [9.1887333, 45.504277]}, "properties": {"id": 8091107775, "feat_type": "node", "quality_categories": "improper_keys, uncanny_keys", "issue_ids": "[0, 1]", "osm_url": "https://www.openstreetmap.org/node/8091107775", "josm_url": "http://127.0.0.1:8111/load_object?new_layer=false&objects=n8091107775", "id_url": "https://www.openstreetmap.org/edit?editor=id&node=8091107775#map=20/45.504277/9.1887333"}}, {"type": "Feature", "geometry": {"type": "Point", "coordinates": [9.2070665, 45.4765746]}, "properties": {"id": 8901473938, "feat_type": "node", "quality_categories": "improper_keys, kerb_on_top_of_non_crossing, uncanny_keys", "issue_ids": "[0, 2, 3]", "osm_url": "https://www.openstreetmap.org/node/8901473938", "josm_url": "http://127.0.0.1:8111/load_object?new_layer=false&objects=n8901473938", "id_url": "https://www.openstreetmap.org/edit?editor=id&node=8901473938#map=20/45.4765746/9.2070665"}}, {"type": "Feature", "geometry": {"type": "Point", "coordinates": [9.2071631, 45.4764592]}, "properties": {"id": 9360819896, "feat_type": "node", "quality_categories": "improper_keys, kerb_on_top_of_non_crossing, uncanny_keys", "issue_ids": "[0, 2, 3]", "osm_url": "https://www.openstreetmap.org/node/9360819896", "josm_url": "http://127.0.0.1:8111/load_object?new_layer=false&objects=n9360819896", "id_url": "https://www.openstreetmap.org/edit?editor=id&node=9360819896#map=20/45.4764592/9.2071631"}}, {"type": "Feature", "geometry": {"type": "Point", "coordinates": [9.2083505, 45.4776587]}, "properties": {"id": 9360819900, "feat_type": "node", "quality_categories": "improper_keys, kerb_on_top_of_non_crossing, uncanny_keys", "issue_ids": "[0, 2, 3]", "osm_url": "https://www.openstreetmap.org/node/9360819900", "josm_url": "http://127.0.0.1:8111/load_object?new_layer=false&objects=n9360819900", "id_url": "https://www.openstreetmap.org/edit?editor=id&node=9360819900#map=20/45.4776587/9.2083505"}}, {"type": "Feature", "geometry": {"type": "Point", "coordinates": [9.2070158, 45.4765274]}, "properties": {"id": 9363724862, "feat_type": "node", "quality_categories": "improper_keys, kerb_on_top_of_non_crossing, uncanny_keys", "issue_ids": "[0, 2, 3]", "osm_url": "https://www.openstreetmap.org/node/9363724862", "josm_url": "http://127.0.0.1:8111/load_object?new_layer=false&objects=n9363724862", "id_url": "https://www.openstreetmap.org/edit?editor=id&node=9363724862#map=20/45.4765274/9.2070158"}}, {"type": "Feature", "geometry": {"type": "Point", "coordinates": [9.1758076, 45.4417906]}, "properties": {"id": 9466300802, "feat_type": "node", "quality_categories": "improper_keys, uncanny_keys", "issue_ids": "[0, 1]", "osm_url": "https://www.openstreetmap.org/node/9466300802", "josm_url": "http://127.0.0.1:8111/load_object?new_layer=false&objects=n9466300802", "id_url": "https://www.openstreetmap.org/edit?editor=id&node=9466300802#map=20/45.4417906/9.1758076"}}, {"type": "Feature", "geometry": {"type": "Point", "coordinates": [9.2122656, 45.5134769]}, "properties": {"id": 10255830376, "feat_type": "node", "quality_categories": "improper_keys, uncanny_keys", "issue_ids": "[0, 1]", "osm_url": "https://www.openstreetmap.org/node/10255830376", "josm_url": "http://127.0.0.1:8111/load_object?new_layer=false&objects=n10255830376", "id_url": "https://www.openstreetmap.org/edit?editor=id&node=10255830376#map=20/45.5134769/9.2122656"}}, {"type": "Feature", "geometry": {"type": "Point", "coordinates": [9.18334, 45.432918]}, "properties": {"id": 11158695650, "feat_type": "node", "quality_categories": "improper_keys, uncanny_keys", "issue_ids": "[0, 2]", "osm_url": "https://www.openstreetmap.org/node/11158695650", "josm_url": "http://127.0.0.1:8111/load_object?new_layer=false&objects=n11158695650", "id_url": "https://www.openstreetmap.org/edit?editor=id&node=11158695650#map=20/45.432918/9.18334"}}]}