{"type": "FeatureCollection", "features": [{"type": "Feature", "geometry": {"type": "Point", "coordinates": [9.202624, 45.4517923]}, "properties": {"id": 9560521488, "feat_type": "node", "quality_categories": "wrong_mispelled_or_unlisted_values", "issue_ids": "[0]", "osm_url": "https://www.openstreetmap.org/node/9560521488", "josm_url": "http://127.0.0.1:8111/load_object?new_layer=false&objects=n9560521488", "id_url": "https://www.openstreetmap.org/edit?editor=id&node=9560521488#map=20/45.4517923/9.202624"}}, {"type": "Feature", "geometry": {"type": "Point", "coordinates": [9.202557, 45.4518198]}, "properties": {"id": 9560521489, "feat_type": "node", "quality_categories": "wrong_mispelled_or_unlisted_values", "issue_ids": "[0]", "osm_url": "https://www.openstreetmap.org/node/9560521489", "josm_url": "http://127.0.0.1:8111/load_object?new_layer=false&objects=n9560521489", "id_url": "https://www.openstreetmap.org/edit?editor=id&node=9560521489#map=20/45.4518198/9.202557"}}, {"type": "Feature", "geometry": {"type": "Point", "coordinates": [9.157275, 45.4487811]}, "properties": {"id": 10576797405, "feat_type": "node", "quality_categories": "wrong_mispelled_or_unlisted_values", "issue_ids": "[1]", "osm_url": "https://www.openstreetmap.org/node/10576797405", "josm_url": "http://127.0.0.1:8111/load_object?new_layer=false&objects=n10576797405", "id_url": "https://www.openstreetmap.org/edit?editor=id&node=10576797405#map=20/45.4487811/9.157275"}}, {"type": "Feature", "geometry": {"type": "Point", "coordinates": [9.2087311, 45.4996043]}, "properties": {"id": 1022961785, "feat_type": "way", "quality_categories": "improper_geometries, wrong_mispelled_or_unlisted_values", "issue_ids": "[2, 3]", "osm_url": "https://www.openstreetmap.org/way/1022961785", "josm_url": "http://127.0.0.1:8111/load_object?new_layer=false&objects=w1022961785", "id_url": "https://www.openstreetmap.org/edit?editor=id&way=1022961785#map=20/45.4996043/9.2087311"}}]}